<?xml version="1.0" encoding="UTF-8"?>
<gpx creator="route-posters-sample" version="1.1" xmlns="http://www.topografix.com/GPX/1/1">
  <metadata><time>2026-03-01T09:00:00Z</time></metadata>
  <trk>
    <name>Brighton Half Marathon</name>
    <type>running</type>
    <trkseg>
      <trkpt lat="50.822380" lon="-0.199390"><ele>30.0</ele><time>2026-03-01T09:00:00Z</time></trkpt>
      <trkpt lat="50.822837" lon="-0.198649"><ele>30.3</ele><time>2026-03-01T09:00:20Z</time></trkpt>
      <trkpt lat="50.823295" lon="-0.197901"><ele>30.6</ele><time>2026-03-01T09:00:40Z</time></trkpt>
      <trkpt lat="50.823752" lon="-0.197147"><ele>30.9</ele><time>2026-03-01T09:01:01Z</time></trkpt>
      <trkpt lat="50.824209" lon="-0.196387"><ele>31.2</ele><time>2026-03-01T09:01:23Z</time></trkpt>
      <trkpt lat="50.824664" lon="-0.195620"><ele>31.5</ele><time>2026-03-01T09:01:44Z</time></trkpt>
      <trkpt lat="50.825117" lon="-0.194847"><ele>31.9</ele><time>2026-03-01T09:02:07Z</time></trkpt>
      <trkpt lat="50.825568" lon="-0.194069"><ele>32.2</ele><time>2026-03-01T09:02:29Z</time></trkpt>
      <trkpt lat="50.826016" lon="-0.193286"><ele>32.5</ele><time>2026-03-01T09:02:52Z</time></trkpt>
      <trkpt lat="50.826460" lon="-0.192498"><ele>32.9</ele><time>2026-03-01T09:03:15Z</time></trkpt>
      <trkpt lat="50.826902" lon="-0.191707"><ele>33.2</ele><time>2026-03-01T09:03:38Z</time></trkpt>
      <trkpt lat="50.827339" lon="-0.190911"><ele>33.5</ele><time>2026-03-01T09:04:01Z</time></trkpt>
      <trkpt lat="50.827772" lon="-0.190112"><ele>33.8</ele><time>2026-03-01T09:04:25Z</time></trkpt>
      <trkpt lat="50.828200" lon="-0.189311"><ele>34.1</ele><time>2026-03-01T09:04:48Z</time></trkpt>
      <trkpt lat="50.828623" lon="-0.188508"><ele>34.4</ele><time>2026-03-01T09:05:11Z</time></trkpt>
      <trkpt lat="50.829041" lon="-0.187704"><ele>34.8</ele><time>2026-03-01T09:05:35Z</time></trkpt>
      <trkpt lat="50.829453" lon="-0.186898"><ele>35.2</ele><time>2026-03-01T09:05:58Z</time></trkpt>
      <trkpt lat="50.829859" lon="-0.186093"><ele>35.6</ele><time>2026-03-01T09:06:20Z</time></trkpt>
      <trkpt lat="50.830259" lon="-0.185287"><ele>36.1</ele><time>2026-03-01T09:06:43Z</time></trkpt>
      <trkpt lat="50.830652" lon="-0.184482"><ele>36.6</ele><time>2026-03-01T09:07:05Z</time></trkpt>
      <trkpt lat="50.831039" lon="-0.183678"><ele>37.2</ele><time>2026-03-01T09:07:27Z</time></trkpt>
      <trkpt lat="50.831419" lon="-0.182876"><ele>37.9</ele><time>2026-03-01T09:07:49Z</time></trkpt>
      <trkpt lat="50.831793" lon="-0.182076"><ele>38.6</ele><time>2026-03-01T09:08:10Z</time></trkpt>
      <trkpt lat="50.832159" lon="-0.181278"><ele>39.5</ele><time>2026-03-01T09:08:30Z</time></trkpt>
      <trkpt lat="50.832518" lon="-0.180483"><ele>40.4</ele><time>2026-03-01T09:08:50Z</time></trkpt>
      <trkpt lat="50.832870" lon="-0.179691"><ele>41.4</ele><time>2026-03-01T09:09:10Z</time></trkpt>
      <trkpt lat="50.833214" lon="-0.178902"><ele>42.4</ele><time>2026-03-01T09:09:29Z</time></trkpt>
      <trkpt lat="50.833551" lon="-0.178116"><ele>43.6</ele><time>2026-03-01T09:09:47Z</time></trkpt>
      <trkpt lat="50.833880" lon="-0.177333"><ele>44.8</ele><time>2026-03-01T09:10:05Z</time></trkpt>
      <trkpt lat="50.834201" lon="-0.176554"><ele>46.0</ele><time>2026-03-01T09:10:23Z</time></trkpt>
      <trkpt lat="50.834515" lon="-0.175778"><ele>47.3</ele><time>2026-03-01T09:10:39Z</time></trkpt>
      <trkpt lat="50.834821" lon="-0.175006"><ele>48.7</ele><time>2026-03-01T09:10:56Z</time></trkpt>
      <trkpt lat="50.835119" lon="-0.174237"><ele>50.0</ele><time>2026-03-01T09:11:12Z</time></trkpt>
      <trkpt lat="50.835408" lon="-0.173471"><ele>51.4</ele><time>2026-03-01T09:11:27Z</time></trkpt>
      <trkpt lat="50.835690" lon="-0.172707"><ele>52.8</ele><time>2026-03-01T09:11:42Z</time></trkpt>
      <trkpt lat="50.835963" lon="-0.171947"><ele>54.2</ele><time>2026-03-01T09:11:57Z</time></trkpt>
      <trkpt lat="50.836227" lon="-0.171189"><ele>55.6</ele><time>2026-03-01T09:12:11Z</time></trkpt>
      <trkpt lat="50.836483" lon="-0.170433"><ele>57.0</ele><time>2026-03-01T09:12:25Z</time></trkpt>
      <trkpt lat="50.836729" lon="-0.169679"><ele>58.4</ele><time>2026-03-01T09:12:39Z</time></trkpt>
      <trkpt lat="50.836967" lon="-0.168926"><ele>59.7</ele><time>2026-03-01T09:12:52Z</time></trkpt>
      <trkpt lat="50.837195" lon="-0.168175"><ele>61.0</ele><time>2026-03-01T09:13:05Z</time></trkpt>
      <trkpt lat="50.837414" lon="-0.167424"><ele>62.2</ele><time>2026-03-01T09:13:18Z</time></trkpt>
      <trkpt lat="50.837623" lon="-0.166673"><ele>63.5</ele><time>2026-03-01T09:13:31Z</time></trkpt>
      <trkpt lat="50.837822" lon="-0.165923"><ele>64.7</ele><time>2026-03-01T09:13:44Z</time></trkpt>
      <trkpt lat="50.838010" lon="-0.165171"><ele>65.9</ele><time>2026-03-01T09:13:57Z</time></trkpt>
      <trkpt lat="50.838187" lon="-0.164419"><ele>67.0</ele><time>2026-03-01T09:14:10Z</time></trkpt>
      <trkpt lat="50.838354" lon="-0.163666"><ele>68.2</ele><time>2026-03-01T09:14:22Z</time></trkpt>
      <trkpt lat="50.838509" lon="-0.162912"><ele>69.3</ele><time>2026-03-01T09:14:35Z</time></trkpt>
      <trkpt lat="50.838652" lon="-0.162155"><ele>70.5</ele><time>2026-03-01T09:14:48Z</time></trkpt>
      <trkpt lat="50.838784" lon="-0.161396"><ele>71.7</ele><time>2026-03-01T09:15:01Z</time></trkpt>
      <trkpt lat="50.838903" lon="-0.160635"><ele>72.9</ele><time>2026-03-01T09:15:14Z</time></trkpt>
      <trkpt lat="50.839009" lon="-0.159871"><ele>74.1</ele><time>2026-03-01T09:15:27Z</time></trkpt>
      <trkpt lat="50.839103" lon="-0.159105"><ele>75.4</ele><time>2026-03-01T09:15:41Z</time></trkpt>
      <trkpt lat="50.839183" lon="-0.158335"><ele>76.7</ele><time>2026-03-01T09:15:55Z</time></trkpt>
      <trkpt lat="50.839249" lon="-0.157562"><ele>78.0</ele><time>2026-03-01T09:16:09Z</time></trkpt>
      <trkpt lat="50.839302" lon="-0.156787"><ele>79.4</ele><time>2026-03-01T09:16:23Z</time></trkpt>
      <trkpt lat="50.839340" lon="-0.156007"><ele>80.8</ele><time>2026-03-01T09:16:38Z</time></trkpt>
      <trkpt lat="50.839364" lon="-0.155225"><ele>82.3</ele><time>2026-03-01T09:16:53Z</time></trkpt>
      <trkpt lat="50.839374" lon="-0.154439"><ele>83.8</ele><time>2026-03-01T09:17:08Z</time></trkpt>
      <trkpt lat="50.839368" lon="-0.153651"><ele>85.4</ele><time>2026-03-01T09:17:24Z</time></trkpt>
      <trkpt lat="50.839348" lon="-0.152859"><ele>87.0</ele><time>2026-03-01T09:17:40Z</time></trkpt>
      <trkpt lat="50.839313" lon="-0.152065"><ele>88.6</ele><time>2026-03-01T09:17:56Z</time></trkpt>
      <trkpt lat="50.839263" lon="-0.151268"><ele>90.2</ele><time>2026-03-01T09:18:13Z</time></trkpt>
      <trkpt lat="50.839197" lon="-0.150468"><ele>91.8</ele><time>2026-03-01T09:18:30Z</time></trkpt>
      <trkpt lat="50.839117" lon="-0.149667"><ele>93.4</ele><time>2026-03-01T09:18:48Z</time></trkpt>
      <trkpt lat="50.839021" lon="-0.148863"><ele>94.9</ele><time>2026-03-01T09:19:05Z</time></trkpt>
      <trkpt lat="50.838910" lon="-0.148058"><ele>96.5</ele><time>2026-03-01T09:19:23Z</time></trkpt>
      <trkpt lat="50.838785" lon="-0.147252"><ele>98.0</ele><time>2026-03-01T09:19:42Z</time></trkpt>
      <trkpt lat="50.838645" lon="-0.146445"><ele>99.4</ele><time>2026-03-01T09:20:00Z</time></trkpt>
      <trkpt lat="50.838490" lon="-0.145637"><ele>100.8</ele><time>2026-03-01T09:20:19Z</time></trkpt>
      <trkpt lat="50.838321" lon="-0.144829"><ele>102.1</ele><time>2026-03-01T09:20:38Z</time></trkpt>
      <trkpt lat="50.838138" lon="-0.144021"><ele>103.3</ele><time>2026-03-01T09:20:57Z</time></trkpt>
      <trkpt lat="50.837941" lon="-0.143213"><ele>104.5</ele><time>2026-03-01T09:21:16Z</time></trkpt>
      <trkpt lat="50.837731" lon="-0.142406"><ele>105.6</ele><time>2026-03-01T09:21:36Z</time></trkpt>
      <trkpt lat="50.837507" lon="-0.141601"><ele>106.7</ele><time>2026-03-01T09:21:55Z</time></trkpt>
      <trkpt lat="50.837272" lon="-0.140796"><ele>107.6</ele><time>2026-03-01T09:22:15Z</time></trkpt>
      <trkpt lat="50.837024" lon="-0.139993"><ele>108.6</ele><time>2026-03-01T09:22:34Z</time></trkpt>
      <trkpt lat="50.836764" lon="-0.139192"><ele>109.4</ele><time>2026-03-01T09:22:53Z</time></trkpt>
      <trkpt lat="50.836492" lon="-0.138393"><ele>110.3</ele><time>2026-03-01T09:23:13Z</time></trkpt>
      <trkpt lat="50.836210" lon="-0.137596"><ele>111.1</ele><time>2026-03-01T09:23:32Z</time></trkpt>
      <trkpt lat="50.835917" lon="-0.136802"><ele>111.8</ele><time>2026-03-01T09:23:51Z</time></trkpt>
      <trkpt lat="50.835615" lon="-0.136010"><ele>112.6</ele><time>2026-03-01T09:24:10Z</time></trkpt>
      <trkpt lat="50.835302" lon="-0.135220"><ele>113.4</ele><time>2026-03-01T09:24:28Z</time></trkpt>
      <trkpt lat="50.834981" lon="-0.134433"><ele>114.1</ele><time>2026-03-01T09:24:47Z</time></trkpt>
      <trkpt lat="50.834651" lon="-0.133649"><ele>114.9</ele><time>2026-03-01T09:25:05Z</time></trkpt>
      <trkpt lat="50.834312" lon="-0.132867"><ele>115.6</ele><time>2026-03-01T09:25:23Z</time></trkpt>
      <trkpt lat="50.833966" lon="-0.132087"><ele>116.4</ele><time>2026-03-01T09:25:41Z</time></trkpt>
      <trkpt lat="50.833612" lon="-0.131310"><ele>117.2</ele><time>2026-03-01T09:25:58Z</time></trkpt>
      <trkpt lat="50.833252" lon="-0.130536"><ele>118.0</ele><time>2026-03-01T09:26:15Z</time></trkpt>
      <trkpt lat="50.832885" lon="-0.129763"><ele>118.8</ele><time>2026-03-01T09:26:32Z</time></trkpt>
      <trkpt lat="50.832511" lon="-0.128992"><ele>119.6</ele><time>2026-03-01T09:26:49Z</time></trkpt>
      <trkpt lat="50.832132" lon="-0.128223"><ele>120.4</ele><time>2026-03-01T09:27:05Z</time></trkpt>
      <trkpt lat="50.831747" lon="-0.127455"><ele>121.2</ele><time>2026-03-01T09:27:22Z</time></trkpt>
      <trkpt lat="50.831357" lon="-0.126689"><ele>122.0</ele><time>2026-03-01T09:27:38Z</time></trkpt>
      <trkpt lat="50.830962" lon="-0.125923"><ele>122.8</ele><time>2026-03-01T09:27:54Z</time></trkpt>
      <trkpt lat="50.830562" lon="-0.125158"><ele>123.5</ele><time>2026-03-01T09:28:10Z</time></trkpt>
      <trkpt lat="50.830158" lon="-0.124393"><ele>124.2</ele><time>2026-03-01T09:28:26Z</time></trkpt>
      <trkpt lat="50.829749" lon="-0.123628"><ele>124.8</ele><time>2026-03-01T09:28:41Z</time></trkpt>
      <trkpt lat="50.829336" lon="-0.122863"><ele>125.4</ele><time>2026-03-01T09:28:57Z</time></trkpt>
      <trkpt lat="50.828920" lon="-0.122097"><ele>125.9</ele><time>2026-03-01T09:29:13Z</time></trkpt>
      <trkpt lat="50.828500" lon="-0.121331"><ele>126.3</ele><time>2026-03-01T09:29:29Z</time></trkpt>
      <trkpt lat="50.828076" lon="-0.120563"><ele>126.6</ele><time>2026-03-01T09:29:45Z</time></trkpt>
      <trkpt lat="50.827649" lon="-0.119795"><ele>126.8</ele><time>2026-03-01T09:30:01Z</time></trkpt>
      <trkpt lat="50.827219" lon="-0.119025"><ele>126.9</ele><time>2026-03-01T09:30:18Z</time></trkpt>
      <trkpt lat="50.826786" lon="-0.118253"><ele>127.0</ele><time>2026-03-01T09:30:34Z</time></trkpt>
      <trkpt lat="50.826350" lon="-0.117479"><ele>127.0</ele><time>2026-03-01T09:30:51Z</time></trkpt>
      <trkpt lat="50.825912" lon="-0.116703"><ele>126.9</ele><time>2026-03-01T09:31:09Z</time></trkpt>
      <trkpt lat="50.825471" lon="-0.115926"><ele>126.7</ele><time>2026-03-01T09:31:26Z</time></trkpt>
      <trkpt lat="50.825028" lon="-0.115146"><ele>126.4</ele><time>2026-03-01T09:31:45Z</time></trkpt>
      <trkpt lat="50.824583" lon="-0.114364"><ele>126.1</ele><time>2026-03-01T09:32:03Z</time></trkpt>
      <trkpt lat="50.824136" lon="-0.113580"><ele>125.7</ele><time>2026-03-01T09:32:22Z</time></trkpt>
      <trkpt lat="50.823688" lon="-0.112795"><ele>125.3</ele><time>2026-03-01T09:32:41Z</time></trkpt>
      <trkpt lat="50.823238" lon="-0.112007"><ele>124.9</ele><time>2026-03-01T09:33:01Z</time></trkpt>
      <trkpt lat="50.822787" lon="-0.111218"><ele>124.4</ele><time>2026-03-01T09:33:21Z</time></trkpt>
      <trkpt lat="50.822336" lon="-0.110427"><ele>123.9</ele><time>2026-03-01T09:33:42Z</time></trkpt>
      <trkpt lat="50.821884" lon="-0.109635"><ele>123.4</ele><time>2026-03-01T09:34:03Z</time></trkpt>
      <trkpt lat="50.821431" lon="-0.108842"><ele>122.9</ele><time>2026-03-01T09:34:24Z</time></trkpt>
      <trkpt lat="50.820979" lon="-0.108048"><ele>122.5</ele><time>2026-03-01T09:34:46Z</time></trkpt>
      <trkpt lat="50.820528" lon="-0.107254"><ele>122.0</ele><time>2026-03-01T09:35:08Z</time></trkpt>
      <trkpt lat="50.820077" lon="-0.106460"><ele>121.5</ele><time>2026-03-01T09:35:31Z</time></trkpt>
      <trkpt lat="50.819628" lon="-0.105666"><ele>121.1</ele><time>2026-03-01T09:35:53Z</time></trkpt>
      <trkpt lat="50.819180" lon="-0.104872"><ele>120.6</ele><time>2026-03-01T09:36:16Z</time></trkpt>
      <trkpt lat="50.818735" lon="-0.104080"><ele>120.1</ele><time>2026-03-01T09:36:39Z</time></trkpt>
      <trkpt lat="50.818292" lon="-0.103289"><ele>119.7</ele><time>2026-03-01T09:37:02Z</time></trkpt>
      <trkpt lat="50.817852" lon="-0.102499"><ele>119.2</ele><time>2026-03-01T09:37:26Z</time></trkpt>
      <trkpt lat="50.817415" lon="-0.101712"><ele>118.7</ele><time>2026-03-01T09:37:49Z</time></trkpt>
      <trkpt lat="50.816983" lon="-0.100927"><ele>118.2</ele><time>2026-03-01T09:38:12Z</time></trkpt>
      <trkpt lat="50.816554" lon="-0.100145"><ele>117.6</ele><time>2026-03-01T09:38:35Z</time></trkpt>
      <trkpt lat="50.816131" lon="-0.099366"><ele>117.0</ele><time>2026-03-01T09:38:58Z</time></trkpt>
      <trkpt lat="50.815713" lon="-0.098591"><ele>116.4</ele><time>2026-03-01T09:39:21Z</time></trkpt>
      <trkpt lat="50.815300" lon="-0.097819"><ele>115.7</ele><time>2026-03-01T09:39:43Z</time></trkpt>
      <trkpt lat="50.814893" lon="-0.097051"><ele>114.9</ele><time>2026-03-01T09:40:05Z</time></trkpt>
      <trkpt lat="50.814493" lon="-0.096286"><ele>114.0</ele><time>2026-03-01T09:40:27Z</time></trkpt>
      <trkpt lat="50.814100" lon="-0.095526"><ele>113.1</ele><time>2026-03-01T09:40:48Z</time></trkpt>
      <trkpt lat="50.813714" lon="-0.094771"><ele>112.0</ele><time>2026-03-01T09:41:09Z</time></trkpt>
      <trkpt lat="50.813336" lon="-0.094019"><ele>110.9</ele><time>2026-03-01T09:41:29Z</time></trkpt>
      <trkpt lat="50.812966" lon="-0.093271"><ele>109.8</ele><time>2026-03-01T09:41:49Z</time></trkpt>
      <trkpt lat="50.812604" lon="-0.092528"><ele>108.5</ele><time>2026-03-01T09:42:09Z</time></trkpt>
      <trkpt lat="50.812250" lon="-0.091788"><ele>107.2</ele><time>2026-03-01T09:42:27Z</time></trkpt>
      <trkpt lat="50.811905" lon="-0.091053"><ele>105.9</ele><time>2026-03-01T09:42:45Z</time></trkpt>
      <trkpt lat="50.811569" lon="-0.090320"><ele>104.5</ele><time>2026-03-01T09:43:03Z</time></trkpt>
      <trkpt lat="50.811243" lon="-0.089591"><ele>103.0</ele><time>2026-03-01T09:43:20Z</time></trkpt>
      <trkpt lat="50.810925" lon="-0.088865"><ele>101.6</ele><time>2026-03-01T09:43:37Z</time></trkpt>
      <trkpt lat="50.810618" lon="-0.088141"><ele>100.1</ele><time>2026-03-01T09:43:53Z</time></trkpt>
      <trkpt lat="50.810319" lon="-0.087419"><ele>98.6</ele><time>2026-03-01T09:44:08Z</time></trkpt>
      <trkpt lat="50.810031" lon="-0.086698"><ele>97.1</ele><time>2026-03-01T09:44:24Z</time></trkpt>
      <trkpt lat="50.809752" lon="-0.085978"><ele>95.7</ele><time>2026-03-01T09:44:38Z</time></trkpt>
      <trkpt lat="50.809484" lon="-0.085258"><ele>94.2</ele><time>2026-03-01T09:44:52Z</time></trkpt>
      <trkpt lat="50.809225" lon="-0.084537"><ele>92.8</ele><time>2026-03-01T09:45:06Z</time></trkpt>
      <trkpt lat="50.808976" lon="-0.083816"><ele>91.5</ele><time>2026-03-01T09:45:20Z</time></trkpt>
      <trkpt lat="50.808737" lon="-0.083093"><ele>90.1</ele><time>2026-03-01T09:45:33Z</time></trkpt>
      <trkpt lat="50.808507" lon="-0.082367"><ele>88.8</ele><time>2026-03-01T09:45:46Z</time></trkpt>
      <trkpt lat="50.808288" lon="-0.081638"><ele>87.5</ele><time>2026-03-01T09:45:59Z</time></trkpt>
      <trkpt lat="50.808079" lon="-0.080905"><ele>86.3</ele><time>2026-03-01T09:46:12Z</time></trkpt>
      <trkpt lat="50.807879" lon="-0.080168"><ele>85.1</ele><time>2026-03-01T09:46:25Z</time></trkpt>
      <trkpt lat="50.807689" lon="-0.079426"><ele>83.9</ele><time>2026-03-01T09:46:37Z</time></trkpt>
      <trkpt lat="50.807509" lon="-0.078678"><ele>82.7</ele><time>2026-03-01T09:46:50Z</time></trkpt>
      <trkpt lat="50.807339" lon="-0.077923"><ele>81.5</ele><time>2026-03-01T09:47:02Z</time></trkpt>
      <trkpt lat="50.807179" lon="-0.077161"><ele>80.3</ele><time>2026-03-01T09:47:15Z</time></trkpt>
      <trkpt lat="50.807028" lon="-0.076392"><ele>79.2</ele><time>2026-03-01T09:47:28Z</time></trkpt>
      <trkpt lat="50.804328" lon="-0.076380"><ele>78.0</ele><time>2026-03-01T09:48:37Z</time></trkpt>
      <trkpt lat="50.804472" lon="-0.077125"><ele>76.7</ele><time>2026-03-01T09:48:49Z</time></trkpt>
      <trkpt lat="50.804625" lon="-0.077863"><ele>75.5</ele><time>2026-03-01T09:49:02Z</time></trkpt>
      <trkpt lat="50.804789" lon="-0.078594"><ele>74.2</ele><time>2026-03-01T09:49:15Z</time></trkpt>
      <trkpt lat="50.804961" lon="-0.079318"><ele>72.8</ele><time>2026-03-01T09:49:28Z</time></trkpt>
      <trkpt lat="50.805143" lon="-0.080036"><ele>71.4</ele><time>2026-03-01T09:49:42Z</time></trkpt>
      <trkpt lat="50.805334" lon="-0.080749"><ele>70.0</ele><time>2026-03-01T09:49:56Z</time></trkpt>
      <trkpt lat="50.805535" lon="-0.081457"><ele>68.5</ele><time>2026-03-01T09:50:10Z</time></trkpt>
      <trkpt lat="50.805746" lon="-0.082160"><ele>67.1</ele><time>2026-03-01T09:50:24Z</time></trkpt>
      <trkpt lat="50.805966" lon="-0.082860"><ele>65.5</ele><time>2026-03-01T09:50:39Z</time></trkpt>
      <trkpt lat="50.806195" lon="-0.083556"><ele>64.0</ele><time>2026-03-01T09:50:54Z</time></trkpt>
      <trkpt lat="50.806434" lon="-0.084250"><ele>62.4</ele><time>2026-03-01T09:51:09Z</time></trkpt>
      <trkpt lat="50.806683" lon="-0.084942"><ele>60.9</ele><time>2026-03-01T09:51:25Z</time></trkpt>
      <trkpt lat="50.806942" lon="-0.085633"><ele>59.3</ele><time>2026-03-01T09:51:41Z</time></trkpt>
      <trkpt lat="50.807210" lon="-0.086324"><ele>57.8</ele><time>2026-03-01T09:51:58Z</time></trkpt>
      <trkpt lat="50.807489" lon="-0.087015"><ele>56.3</ele><time>2026-03-01T09:52:15Z</time></trkpt>
      <trkpt lat="50.807777" lon="-0.087706"><ele>54.8</ele><time>2026-03-01T09:52:32Z</time></trkpt>
      <trkpt lat="50.808075" lon="-0.088400"><ele>53.4</ele><time>2026-03-01T09:52:50Z</time></trkpt>
      <trkpt lat="50.808382" lon="-0.089095"><ele>52.0</ele><time>2026-03-01T09:53:09Z</time></trkpt>
      <trkpt lat="50.808700" lon="-0.089794"><ele>50.7</ele><time>2026-03-01T09:53:28Z</time></trkpt>
      <trkpt lat="50.809027" lon="-0.090495"><ele>49.5</ele><time>2026-03-01T09:53:47Z</time></trkpt>
      <trkpt lat="50.809363" lon="-0.091201"><ele>48.3</ele><time>2026-03-01T09:54:06Z</time></trkpt>
      <trkpt lat="50.809710" lon="-0.091911"><ele>47.2</ele><time>2026-03-01T09:54:26Z</time></trkpt>
      <trkpt lat="50.810065" lon="-0.092626"><ele>46.2</ele><time>2026-03-01T09:54:47Z</time></trkpt>
      <trkpt lat="50.810429" lon="-0.093345"><ele>45.3</ele><time>2026-03-01T09:55:07Z</time></trkpt>
      <trkpt lat="50.810803" lon="-0.094071"><ele>44.4</ele><time>2026-03-01T09:55:28Z</time></trkpt>
      <trkpt lat="50.811185" lon="-0.094801"><ele>43.6</ele><time>2026-03-01T09:55:49Z</time></trkpt>
      <trkpt lat="50.811575" lon="-0.095538"><ele>42.8</ele><time>2026-03-01T09:56:10Z</time></trkpt>
      <trkpt lat="50.811974" lon="-0.096281"><ele>42.1</ele><time>2026-03-01T09:56:32Z</time></trkpt>
      <trkpt lat="50.812380" lon="-0.097029"><ele>41.4</ele><time>2026-03-01T09:56:53Z</time></trkpt>
      <trkpt lat="50.812793" lon="-0.097784"><ele>40.7</ele><time>2026-03-01T09:57:15Z</time></trkpt>
      <trkpt lat="50.813214" lon="-0.098544"><ele>40.1</ele><time>2026-03-01T09:57:36Z</time></trkpt>
      <trkpt lat="50.813640" lon="-0.099311"><ele>39.4</ele><time>2026-03-01T09:57:58Z</time></trkpt>
      <trkpt lat="50.814073" lon="-0.100083"><ele>38.8</ele><time>2026-03-01T09:58:19Z</time></trkpt>
      <trkpt lat="50.814512" lon="-0.100860"><ele>38.2</ele><time>2026-03-01T09:58:40Z</time></trkpt>
      <trkpt lat="50.814956" lon="-0.101643"><ele>37.5</ele><time>2026-03-01T09:59:01Z</time></trkpt>
      <trkpt lat="50.815404" lon="-0.102431"><ele>36.9</ele><time>2026-03-01T09:59:22Z</time></trkpt>
      <trkpt lat="50.815856" lon="-0.103223"><ele>36.2</ele><time>2026-03-01T09:59:43Z</time></trkpt>
      <trkpt lat="50.816312" lon="-0.104020"><ele>35.6</ele><time>2026-03-01T10:00:03Z</time></trkpt>
      <trkpt lat="50.816771" lon="-0.104821"><ele>34.9</ele><time>2026-03-01T10:00:23Z</time></trkpt>
      <trkpt lat="50.817233" lon="-0.105625"><ele>34.2</ele><time>2026-03-01T10:00:43Z</time></trkpt>
      <trkpt lat="50.817696" lon="-0.106432"><ele>33.5</ele><time>2026-03-01T10:01:03Z</time></trkpt>
      <trkpt lat="50.818161" lon="-0.107241"><ele>32.9</ele><time>2026-03-01T10:01:22Z</time></trkpt>
      <trkpt lat="50.818627" lon="-0.108053"><ele>32.2</ele><time>2026-03-01T10:01:41Z</time></trkpt>
      <trkpt lat="50.819094" lon="-0.108867"><ele>31.6</ele><time>2026-03-01T10:02:00Z</time></trkpt>
      <trkpt lat="50.819560" lon="-0.109682"><ele>31.0</ele><time>2026-03-01T10:02:18Z</time></trkpt>
      <trkpt lat="50.820026" lon="-0.110497"><ele>30.5</ele><time>2026-03-01T10:02:36Z</time></trkpt>
      <trkpt lat="50.820491" lon="-0.111313"><ele>30.0</ele><time>2026-03-01T10:02:54Z</time></trkpt>
      <trkpt lat="50.820955" lon="-0.112130"><ele>29.6</ele><time>2026-03-01T10:03:11Z</time></trkpt>
      <trkpt lat="50.821417" lon="-0.112946"><ele>29.3</ele><time>2026-03-01T10:03:29Z</time></trkpt>
      <trkpt lat="50.821877" lon="-0.113761"><ele>29.0</ele><time>2026-03-01T10:03:46Z</time></trkpt>
      <trkpt lat="50.822334" lon="-0.114576"><ele>28.9</ele><time>2026-03-01T10:04:03Z</time></trkpt>
      <trkpt lat="50.822788" lon="-0.115389"><ele>28.8</ele><time>2026-03-01T10:04:20Z</time></trkpt>
      <trkpt lat="50.823239" lon="-0.116201"><ele>28.8</ele><time>2026-03-01T10:04:37Z</time></trkpt>
      <trkpt lat="50.823687" lon="-0.117011"><ele>28.9</ele><time>2026-03-01T10:04:54Z</time></trkpt>
      <trkpt lat="50.824130" lon="-0.117819"><ele>29.1</ele><time>2026-03-01T10:05:11Z</time></trkpt>
      <trkpt lat="50.824570" lon="-0.118626"><ele>29.4</ele><time>2026-03-01T10:05:28Z</time></trkpt>
      <trkpt lat="50.825005" lon="-0.119430"><ele>29.7</ele><time>2026-03-01T10:05:45Z</time></trkpt>
      <trkpt lat="50.825436" lon="-0.120233"><ele>30.1</ele><time>2026-03-01T10:06:03Z</time></trkpt>
      <trkpt lat="50.825862" lon="-0.121033"><ele>30.6</ele><time>2026-03-01T10:06:20Z</time></trkpt>
      <trkpt lat="50.826282" lon="-0.121831"><ele>31.1</ele><time>2026-03-01T10:06:37Z</time></trkpt>
      <trkpt lat="50.826698" lon="-0.122627"><ele>31.7</ele><time>2026-03-01T10:06:55Z</time></trkpt>
      <trkpt lat="50.827108" lon="-0.123422"><ele>32.3</ele><time>2026-03-01T10:07:13Z</time></trkpt>
      <trkpt lat="50.827512" lon="-0.124214"><ele>32.9</ele><time>2026-03-01T10:07:31Z</time></trkpt>
      <trkpt lat="50.827911" lon="-0.125005"><ele>33.5</ele><time>2026-03-01T10:07:50Z</time></trkpt>
      <trkpt lat="50.828304" lon="-0.125795"><ele>34.2</ele><time>2026-03-01T10:08:08Z</time></trkpt>
      <trkpt lat="50.828690" lon="-0.126583"><ele>34.8</ele><time>2026-03-01T10:08:27Z</time></trkpt>
      <trkpt lat="50.829071" lon="-0.127370"><ele>35.4</ele><time>2026-03-01T10:08:46Z</time></trkpt>
      <trkpt lat="50.829444" lon="-0.128156"><ele>36.0</ele><time>2026-03-01T10:09:06Z</time></trkpt>
      <trkpt lat="50.829811" lon="-0.128941"><ele>36.6</ele><time>2026-03-01T10:09:25Z</time></trkpt>
      <trkpt lat="50.830171" lon="-0.129726"><ele>37.2</ele><time>2026-03-01T10:09:45Z</time></trkpt>
      <trkpt lat="50.830524" lon="-0.130511"><ele>37.8</ele><time>2026-03-01T10:10:05Z</time></trkpt>
      <trkpt lat="50.830870" lon="-0.131296"><ele>38.4</ele><time>2026-03-01T10:10:25Z</time></trkpt>
      <trkpt lat="50.831208" lon="-0.132081"><ele>39.0</ele><time>2026-03-01T10:10:45Z</time></trkpt>
      <trkpt lat="50.831537" lon="-0.132866"><ele>39.6</ele><time>2026-03-01T10:11:06Z</time></trkpt>
      <trkpt lat="50.831859" lon="-0.133652"><ele>40.2</ele><time>2026-03-01T10:11:26Z</time></trkpt>
      <trkpt lat="50.832172" lon="-0.134438"><ele>40.9</ele><time>2026-03-01T10:11:46Z</time></trkpt>
      <trkpt lat="50.832477" lon="-0.135225"><ele>41.6</ele><time>2026-03-01T10:12:07Z</time></trkpt>
      <trkpt lat="50.832772" lon="-0.136014"><ele>42.3</ele><time>2026-03-01T10:12:27Z</time></trkpt>
      <trkpt lat="50.833058" lon="-0.136803"><ele>43.1</ele><time>2026-03-01T10:12:47Z</time></trkpt>
      <trkpt lat="50.833334" lon="-0.137593"><ele>43.9</ele><time>2026-03-01T10:13:07Z</time></trkpt>
      <trkpt lat="50.833600" lon="-0.138384"><ele>44.8</ele><time>2026-03-01T10:13:27Z</time></trkpt>
      <trkpt lat="50.833856" lon="-0.139176"><ele>45.8</ele><time>2026-03-01T10:13:47Z</time></trkpt>
      <trkpt lat="50.834100" lon="-0.139969"><ele>46.8</ele><time>2026-03-01T10:14:07Z</time></trkpt>
      <trkpt lat="50.834334" lon="-0.140763"><ele>47.9</ele><time>2026-03-01T10:14:26Z</time></trkpt>
      <trkpt lat="50.834556" lon="-0.141557"><ele>49.1</ele><time>2026-03-01T10:14:45Z</time></trkpt>
      <trkpt lat="50.834766" lon="-0.142352"><ele>50.4</ele><time>2026-03-01T10:15:04Z</time></trkpt>
      <trkpt lat="50.834965" lon="-0.143148"><ele>51.7</ele><time>2026-03-01T10:15:22Z</time></trkpt>
      <trkpt lat="50.835150" lon="-0.143943"><ele>53.1</ele><time>2026-03-01T10:15:40Z</time></trkpt>
      <trkpt lat="50.835323" lon="-0.144739"><ele>54.6</ele><time>2026-03-01T10:15:58Z</time></trkpt>
      <trkpt lat="50.835483" lon="-0.145535"><ele>56.0</ele><time>2026-03-01T10:16:15Z</time></trkpt>
      <trkpt lat="50.835629" lon="-0.146330"><ele>57.6</ele><time>2026-03-01T10:16:31Z</time></trkpt>
      <trkpt lat="50.835762" lon="-0.147124"><ele>59.1</ele><time>2026-03-01T10:16:48Z</time></trkpt>
      <trkpt lat="50.835882" lon="-0.147917"><ele>60.6</ele><time>2026-03-01T10:17:04Z</time></trkpt>
      <trkpt lat="50.835987" lon="-0.148709"><ele>62.2</ele><time>2026-03-01T10:17:19Z</time></trkpt>
      <trkpt lat="50.836078" lon="-0.149499"><ele>63.7</ele><time>2026-03-01T10:17:34Z</time></trkpt>
      <trkpt lat="50.836155" lon="-0.150287"><ele>65.2</ele><time>2026-03-01T10:17:49Z</time></trkpt>
      <trkpt lat="50.836217" lon="-0.151073"><ele>66.7</ele><time>2026-03-01T10:18:03Z</time></trkpt>
      <trkpt lat="50.836265" lon="-0.151856"><ele>68.2</ele><time>2026-03-01T10:18:17Z</time></trkpt>
      <trkpt lat="50.836299" lon="-0.152637"><ele>69.6</ele><time>2026-03-01T10:18:31Z</time></trkpt>
      <trkpt lat="50.836318" lon="-0.153415"><ele>71.0</ele><time>2026-03-01T10:18:44Z</time></trkpt>
      <trkpt lat="50.836323" lon="-0.154189"><ele>72.3</ele><time>2026-03-01T10:18:57Z</time></trkpt>
      <trkpt lat="50.836313" lon="-0.154960"><ele>73.6</ele><time>2026-03-01T10:19:10Z</time></trkpt>
      <trkpt lat="50.836290" lon="-0.155728"><ele>74.9</ele><time>2026-03-01T10:19:23Z</time></trkpt>
      <trkpt lat="50.836252" lon="-0.156492"><ele>76.1</ele><time>2026-03-01T10:19:35Z</time></trkpt>
      <trkpt lat="50.836200" lon="-0.157253"><ele>77.3</ele><time>2026-03-01T10:19:47Z</time></trkpt>
      <trkpt lat="50.836135" lon="-0.158009"><ele>78.5</ele><time>2026-03-01T10:19:59Z</time></trkpt>
      <trkpt lat="50.836056" lon="-0.158762"><ele>79.7</ele><time>2026-03-01T10:20:11Z</time></trkpt>
      <trkpt lat="50.835964" lon="-0.159512"><ele>80.8</ele><time>2026-03-01T10:20:23Z</time></trkpt>
      <trkpt lat="50.835860" lon="-0.160257"><ele>82.0</ele><time>2026-03-01T10:20:35Z</time></trkpt>
      <trkpt lat="50.835742" lon="-0.161000"><ele>83.2</ele><time>2026-03-01T10:20:47Z</time></trkpt>
      <trkpt lat="50.835612" lon="-0.161739"><ele>84.4</ele><time>2026-03-01T10:20:59Z</time></trkpt>
      <trkpt lat="50.835471" lon="-0.162475"><ele>85.7</ele><time>2026-03-01T10:21:12Z</time></trkpt>
      <trkpt lat="50.835317" lon="-0.163208"><ele>87.0</ele><time>2026-03-01T10:21:24Z</time></trkpt>
      <trkpt lat="50.835152" lon="-0.163939"><ele>88.3</ele><time>2026-03-01T10:21:37Z</time></trkpt>
      <trkpt lat="50.834976" lon="-0.164668"><ele>89.6</ele><time>2026-03-01T10:21:49Z</time></trkpt>
      <trkpt lat="50.834790" lon="-0.165395"><ele>91.0</ele><time>2026-03-01T10:22:03Z</time></trkpt>
      <trkpt lat="50.834593" lon="-0.166120"><ele>92.5</ele><time>2026-03-01T10:22:16Z</time></trkpt>
      <trkpt lat="50.834386" lon="-0.166845"><ele>93.9</ele><time>2026-03-01T10:22:30Z</time></trkpt>
      <trkpt lat="50.834169" lon="-0.167570"><ele>95.4</ele><time>2026-03-01T10:22:44Z</time></trkpt>
      <trkpt lat="50.833943" lon="-0.168294"><ele>96.9</ele><time>2026-03-01T10:22:59Z</time></trkpt>
      <trkpt lat="50.833707" lon="-0.169020"><ele>98.4</ele><time>2026-03-01T10:23:14Z</time></trkpt>
      <trkpt lat="50.833463" lon="-0.169746"><ele>99.9</ele><time>2026-03-01T10:23:29Z</time></trkpt>
      <trkpt lat="50.833210" lon="-0.170474"><ele>101.4</ele><time>2026-03-01T10:23:45Z</time></trkpt>
      <trkpt lat="50.832949" lon="-0.171204"><ele>102.8</ele><time>2026-03-01T10:24:01Z</time></trkpt>
      <trkpt lat="50.832679" lon="-0.171937"><ele>104.3</ele><time>2026-03-01T10:24:18Z</time></trkpt>
      <trkpt lat="50.832402" lon="-0.172672"><ele>105.7</ele><time>2026-03-01T10:24:35Z</time></trkpt>
      <trkpt lat="50.832117" lon="-0.173412"><ele>107.0</ele><time>2026-03-01T10:24:53Z</time></trkpt>
      <trkpt lat="50.831824" lon="-0.174155"><ele>108.3</ele><time>2026-03-01T10:25:11Z</time></trkpt>
      <trkpt lat="50.831523" lon="-0.174903"><ele>109.5</ele><time>2026-03-01T10:25:30Z</time></trkpt>
      <trkpt lat="50.831215" lon="-0.175655"><ele>110.6</ele><time>2026-03-01T10:25:49Z</time></trkpt>
      <trkpt lat="50.830900" lon="-0.176413"><ele>111.7</ele><time>2026-03-01T10:26:09Z</time></trkpt>
      <trkpt lat="50.830578" lon="-0.177176"><ele>112.7</ele><time>2026-03-01T10:26:29Z</time></trkpt>
      <trkpt lat="50.830248" lon="-0.177944"><ele>113.6</ele><time>2026-03-01T10:26:49Z</time></trkpt>
      <trkpt lat="50.829912" lon="-0.178719"><ele>114.4</ele><time>2026-03-01T10:27:10Z</time></trkpt>
      <trkpt lat="50.829569" lon="-0.179499"><ele>115.2</ele><time>2026-03-01T10:27:31Z</time></trkpt>
      <trkpt lat="50.829219" lon="-0.180285"><ele>115.9</ele><time>2026-03-01T10:27:53Z</time></trkpt>
      <trkpt lat="50.828862" lon="-0.181078"><ele>116.6</ele><time>2026-03-01T10:28:14Z</time></trkpt>
      <trkpt lat="50.828498" lon="-0.181876"><ele>117.2</ele><time>2026-03-01T10:28:36Z</time></trkpt>
      <trkpt lat="50.828128" lon="-0.182680"><ele>117.7</ele><time>2026-03-01T10:28:58Z</time></trkpt>
      <trkpt lat="50.827752" lon="-0.183490"><ele>118.3</ele><time>2026-03-01T10:29:21Z</time></trkpt>
      <trkpt lat="50.827369" lon="-0.184305"><ele>118.8</ele><time>2026-03-01T10:29:43Z</time></trkpt>
      <trkpt lat="50.826980" lon="-0.185126"><ele>119.3</ele><time>2026-03-01T10:30:05Z</time></trkpt>
      <trkpt lat="50.826584" lon="-0.185951"><ele>119.8</ele><time>2026-03-01T10:30:28Z</time></trkpt>
      <trkpt lat="50.826183" lon="-0.186781"><ele>120.3</ele><time>2026-03-01T10:30:50Z</time></trkpt>
      <trkpt lat="50.825776" lon="-0.187614"><ele>120.8</ele><time>2026-03-01T10:31:12Z</time></trkpt>
      <trkpt lat="50.825363" lon="-0.188452"><ele>121.3</ele><time>2026-03-01T10:31:34Z</time></trkpt>
      <trkpt lat="50.824945" lon="-0.189292"><ele>121.8</ele><time>2026-03-01T10:31:56Z</time></trkpt>
      <trkpt lat="50.824522" lon="-0.190135"><ele>122.4</ele><time>2026-03-01T10:32:17Z</time></trkpt>
      <trkpt lat="50.824094" lon="-0.190979"><ele>122.9</ele><time>2026-03-01T10:32:39Z</time></trkpt>
      <trkpt lat="50.823661" lon="-0.191825"><ele>123.4</ele><time>2026-03-01T10:33:00Z</time></trkpt>
      <trkpt lat="50.823224" lon="-0.192671"><ele>124.0</ele><time>2026-03-01T10:33:21Z</time></trkpt>
      <trkpt lat="50.822784" lon="-0.193517"><ele>124.5</ele><time>2026-03-01T10:33:41Z</time></trkpt>
      <trkpt lat="50.822339" lon="-0.194363"><ele>125.0</ele><time>2026-03-01T10:34:01Z</time></trkpt>
      <trkpt lat="50.821892" lon="-0.195207"><ele>125.4</ele><time>2026-03-01T10:34:21Z</time></trkpt>
      <trkpt lat="50.821441" lon="-0.196050"><ele>125.9</ele><time>2026-03-01T10:34:40Z</time></trkpt>
      <trkpt lat="50.820988" lon="-0.196890"><ele>126.2</ele><time>2026-03-01T10:34:59Z</time></trkpt>
      <trkpt lat="50.820534" lon="-0.197727"><ele>126.6</ele><time>2026-03-01T10:35:18Z</time></trkpt>
      <trkpt lat="50.820078" lon="-0.198560"><ele>126.8</ele><time>2026-03-01T10:35:37Z</time></trkpt>
      <trkpt lat="50.819620" lon="-0.199390"><ele>127.0</ele><time>2026-03-01T10:35:55Z</time></trkpt>
    </trkseg>
  </trk>
</gpx>
