<?xml version="1.0" encoding="UTF-8"?>
<gpx creator="route-posters-sample" version="1.1" xmlns="http://www.topografix.com/GPX/1/1">
  <metadata><time>2026-04-19T08:05:00Z</time></metadata>
  <trk>
    <name>Chilterns gravel loop</name>
    <type>cycling</type>
    <trkseg>
      <trkpt lat="51.690000" lon="-0.636930"><ele>30.0</ele><time>2026-04-19T08:05:00Z</time></trkpt>
      <trkpt lat="51.691256" lon="-0.637109"><ele>30.4</ele><time>2026-04-19T08:05:24Z</time></trkpt>
      <trkpt lat="51.692509" lon="-0.637308"><ele>31.1</ele><time>2026-04-19T08:05:49Z</time></trkpt>
      <trkpt lat="51.693758" lon="-0.637526"><ele>32.1</ele><time>2026-04-19T08:06:14Z</time></trkpt>
      <trkpt lat="51.695004" lon="-0.637763"><ele>33.4</ele><time>2026-04-19T08:06:40Z</time></trkpt>
      <trkpt lat="51.696246" lon="-0.638018"><ele>34.9</ele><time>2026-04-19T08:07:06Z</time></trkpt>
      <trkpt lat="51.697486" lon="-0.638291"><ele>36.8</ele><time>2026-04-19T08:07:32Z</time></trkpt>
      <trkpt lat="51.698724" lon="-0.638582"><ele>38.9</ele><time>2026-04-19T08:07:59Z</time></trkpt>
      <trkpt lat="51.699959" lon="-0.638891"><ele>41.2</ele><time>2026-04-19T08:08:26Z</time></trkpt>
      <trkpt lat="51.701192" lon="-0.639219"><ele>43.8</ele><time>2026-04-19T08:08:53Z</time></trkpt>
      <trkpt lat="51.702424" lon="-0.639566"><ele>46.7</ele><time>2026-04-19T08:09:21Z</time></trkpt>
      <trkpt lat="51.703655" lon="-0.639933"><ele>49.8</ele><time>2026-04-19T08:09:48Z</time></trkpt>
      <trkpt lat="51.704884" lon="-0.640319"><ele>53.2</ele><time>2026-04-19T08:10:16Z</time></trkpt>
      <trkpt lat="51.706111" lon="-0.640727"><ele>56.8</ele><time>2026-04-19T08:10:44Z</time></trkpt>
      <trkpt lat="51.707338" lon="-0.641157"><ele>60.8</ele><time>2026-04-19T08:11:12Z</time></trkpt>
      <trkpt lat="51.708564" lon="-0.641610"><ele>64.9</ele><time>2026-04-19T08:11:40Z</time></trkpt>
      <trkpt lat="51.709788" lon="-0.642087"><ele>69.4</ele><time>2026-04-19T08:12:08Z</time></trkpt>
      <trkpt lat="51.711011" lon="-0.642589"><ele>74.2</ele><time>2026-04-19T08:12:36Z</time></trkpt>
      <trkpt lat="51.712232" lon="-0.643118"><ele>79.2</ele><time>2026-04-19T08:13:04Z</time></trkpt>
      <trkpt lat="51.713452" lon="-0.643676"><ele>84.5</ele><time>2026-04-19T08:13:32Z</time></trkpt>
      <trkpt lat="51.714669" lon="-0.644262"><ele>90.1</ele><time>2026-04-19T08:13:59Z</time></trkpt>
      <trkpt lat="51.715883" lon="-0.644880"><ele>96.0</ele><time>2026-04-19T08:14:27Z</time></trkpt>
      <trkpt lat="51.717095" lon="-0.645529"><ele>102.3</ele><time>2026-04-19T08:14:54Z</time></trkpt>
      <trkpt lat="51.718302" lon="-0.646213"><ele>108.8</ele><time>2026-04-19T08:15:20Z</time></trkpt>
      <trkpt lat="51.719504" lon="-0.646931"><ele>115.6</ele><time>2026-04-19T08:15:47Z</time></trkpt>
      <trkpt lat="51.720702" lon="-0.647686"><ele>122.7</ele><time>2026-04-19T08:16:13Z</time></trkpt>
      <trkpt lat="51.721893" lon="-0.648478"><ele>130.0</ele><time>2026-04-19T08:16:38Z</time></trkpt>
      <trkpt lat="51.723077" lon="-0.649310"><ele>137.7</ele><time>2026-04-19T08:17:03Z</time></trkpt>
      <trkpt lat="51.724253" lon="-0.650181"><ele>145.6</ele><time>2026-04-19T08:17:28Z</time></trkpt>
      <trkpt lat="51.725420" lon="-0.651094"><ele>153.7</ele><time>2026-04-19T08:17:52Z</time></trkpt>
      <trkpt lat="51.726577" lon="-0.652048"><ele>162.1</ele><time>2026-04-19T08:18:16Z</time></trkpt>
      <trkpt lat="51.727722" lon="-0.653046"><ele>170.6</ele><time>2026-04-19T08:18:40Z</time></trkpt>
      <trkpt lat="51.728855" lon="-0.654087"><ele>179.4</ele><time>2026-04-19T08:19:03Z</time></trkpt>
      <trkpt lat="51.729975" lon="-0.655172"><ele>188.3</ele><time>2026-04-19T08:19:26Z</time></trkpt>
      <trkpt lat="51.731080" lon="-0.656302"><ele>197.5</ele><time>2026-04-19T08:19:48Z</time></trkpt>
      <trkpt lat="51.732168" lon="-0.657477"><ele>206.7</ele><time>2026-04-19T08:20:10Z</time></trkpt>
      <trkpt lat="51.733240" lon="-0.658697"><ele>216.1</ele><time>2026-04-19T08:20:32Z</time></trkpt>
      <trkpt lat="51.734293" lon="-0.659963"><ele>225.6</ele><time>2026-04-19T08:20:53Z</time></trkpt>
      <trkpt lat="51.735326" lon="-0.661273"><ele>235.2</ele><time>2026-04-19T08:21:14Z</time></trkpt>
      <trkpt lat="51.736339" lon="-0.662628"><ele>244.9</ele><time>2026-04-19T08:21:35Z</time></trkpt>
      <trkpt lat="51.737329" lon="-0.664027"><ele>254.7</ele><time>2026-04-19T08:21:56Z</time></trkpt>
      <trkpt lat="51.738297" lon="-0.665470"><ele>264.5</ele><time>2026-04-19T08:22:17Z</time></trkpt>
      <trkpt lat="51.739240" lon="-0.666956"><ele>274.4</ele><time>2026-04-19T08:22:37Z</time></trkpt>
      <trkpt lat="51.740158" lon="-0.668483"><ele>284.4</ele><time>2026-04-19T08:22:58Z</time></trkpt>
      <trkpt lat="51.741050" lon="-0.670052"><ele>294.4</ele><time>2026-04-19T08:23:19Z</time></trkpt>
      <trkpt lat="51.741915" lon="-0.671660"><ele>304.5</ele><time>2026-04-19T08:23:40Z</time></trkpt>
      <trkpt lat="51.742752" lon="-0.673306"><ele>314.6</ele><time>2026-04-19T08:24:01Z</time></trkpt>
      <trkpt lat="51.743560" lon="-0.674990"><ele>324.8</ele><time>2026-04-19T08:24:22Z</time></trkpt>
      <trkpt lat="51.744339" lon="-0.676709"><ele>335.1</ele><time>2026-04-19T08:24:44Z</time></trkpt>
      <trkpt lat="51.745089" lon="-0.678462"><ele>345.4</ele><time>2026-04-19T08:25:06Z</time></trkpt>
      <trkpt lat="51.745808" lon="-0.680247"><ele>355.7</ele><time>2026-04-19T08:25:28Z</time></trkpt>
      <trkpt lat="51.746497" lon="-0.682063"><ele>366.1</ele><time>2026-04-19T08:25:50Z</time></trkpt>
      <trkpt lat="51.747154" lon="-0.683907"><ele>376.6</ele><time>2026-04-19T08:26:13Z</time></trkpt>
      <trkpt lat="51.747781" lon="-0.685778"><ele>387.1</ele><time>2026-04-19T08:26:37Z</time></trkpt>
      <trkpt lat="51.748377" lon="-0.687673"><ele>397.7</ele><time>2026-04-19T08:27:00Z</time></trkpt>
      <trkpt lat="51.748941" lon="-0.689592"><ele>408.3</ele><time>2026-04-19T08:27:25Z</time></trkpt>
      <trkpt lat="51.749475" lon="-0.691532"><ele>418.9</ele><time>2026-04-19T08:27:50Z</time></trkpt>
      <trkpt lat="51.749977" lon="-0.693491"><ele>429.6</ele><time>2026-04-19T08:28:15Z</time></trkpt>
      <trkpt lat="51.750449" lon="-0.695468"><ele>440.2</ele><time>2026-04-19T08:28:40Z</time></trkpt>
      <trkpt lat="51.750891" lon="-0.697460"><ele>450.9</ele><time>2026-04-19T08:29:06Z</time></trkpt>
      <trkpt lat="51.751304" lon="-0.699465"><ele>461.5</ele><time>2026-04-19T08:29:33Z</time></trkpt>
      <trkpt lat="51.751687" lon="-0.701483"><ele>472.1</ele><time>2026-04-19T08:30:00Z</time></trkpt>
      <trkpt lat="51.752042" lon="-0.703511"><ele>482.7</ele><time>2026-04-19T08:30:27Z</time></trkpt>
      <trkpt lat="51.752369" lon="-0.705548"><ele>493.2</ele><time>2026-04-19T08:30:55Z</time></trkpt>
      <trkpt lat="51.752669" lon="-0.707593"><ele>503.5</ele><time>2026-04-19T08:31:23Z</time></trkpt>
      <trkpt lat="51.752942" lon="-0.709643"><ele>513.8</ele><time>2026-04-19T08:31:51Z</time></trkpt>
      <trkpt lat="51.753190" lon="-0.711698"><ele>524.0</ele><time>2026-04-19T08:32:19Z</time></trkpt>
      <trkpt lat="51.753414" lon="-0.713757"><ele>534.0</ele><time>2026-04-19T08:32:48Z</time></trkpt>
      <trkpt lat="51.753613" lon="-0.715818"><ele>543.8</ele><time>2026-04-19T08:33:16Z</time></trkpt>
      <trkpt lat="51.753789" lon="-0.717881"><ele>553.5</ele><time>2026-04-19T08:33:45Z</time></trkpt>
      <trkpt lat="51.753944" lon="-0.719944"><ele>562.9</ele><time>2026-04-19T08:34:14Z</time></trkpt>
      <trkpt lat="51.754077" lon="-0.722007"><ele>572.2</ele><time>2026-04-19T08:34:43Z</time></trkpt>
      <trkpt lat="51.754190" lon="-0.724070"><ele>581.3</ele><time>2026-04-19T08:35:11Z</time></trkpt>
      <trkpt lat="51.754283" lon="-0.726132"><ele>590.2</ele><time>2026-04-19T08:35:40Z</time></trkpt>
      <trkpt lat="51.754357" lon="-0.728192"><ele>598.8</ele><time>2026-04-19T08:36:08Z</time></trkpt>
      <trkpt lat="51.754414" lon="-0.730250"><ele>607.2</ele><time>2026-04-19T08:36:36Z</time></trkpt>
      <trkpt lat="51.754453" lon="-0.732307"><ele>615.4</ele><time>2026-04-19T08:37:04Z</time></trkpt>
      <trkpt lat="51.754476" lon="-0.734361"><ele>623.4</ele><time>2026-04-19T08:37:31Z</time></trkpt>
      <trkpt lat="51.754482" lon="-0.736413"><ele>631.2</ele><time>2026-04-19T08:37:58Z</time></trkpt>
      <trkpt lat="51.754474" lon="-0.738464"><ele>638.7</ele><time>2026-04-19T08:38:25Z</time></trkpt>
      <trkpt lat="51.754450" lon="-0.740512"><ele>646.1</ele><time>2026-04-19T08:38:51Z</time></trkpt>
      <trkpt lat="51.754411" lon="-0.742559"><ele>653.2</ele><time>2026-04-19T08:39:17Z</time></trkpt>
      <trkpt lat="51.754358" lon="-0.744604"><ele>660.1</ele><time>2026-04-19T08:39:42Z</time></trkpt>
      <trkpt lat="51.754291" lon="-0.746648"><ele>666.9</ele><time>2026-04-19T08:40:07Z</time></trkpt>
      <trkpt lat="51.754210" lon="-0.748691"><ele>673.4</ele><time>2026-04-19T08:40:32Z</time></trkpt>
      <trkpt lat="51.754115" lon="-0.750733"><ele>679.7</ele><time>2026-04-19T08:40:56Z</time></trkpt>
      <trkpt lat="51.754006" lon="-0.752775"><ele>685.8</ele><time>2026-04-19T08:41:19Z</time></trkpt>
      <trkpt lat="51.753883" lon="-0.754817"><ele>691.7</ele><time>2026-04-19T08:41:43Z</time></trkpt>
      <trkpt lat="51.753746" lon="-0.756858"><ele>697.3</ele><time>2026-04-19T08:42:05Z</time></trkpt>
      <trkpt lat="51.753594" lon="-0.758900"><ele>702.8</ele><time>2026-04-19T08:42:28Z</time></trkpt>
      <trkpt lat="51.753427" lon="-0.760942"><ele>708.0</ele><time>2026-04-19T08:42:50Z</time></trkpt>
      <trkpt lat="51.753245" lon="-0.762984"><ele>713.0</ele><time>2026-04-19T08:43:11Z</time></trkpt>
      <trkpt lat="51.753046" lon="-0.765026"><ele>717.7</ele><time>2026-04-19T08:43:33Z</time></trkpt>
      <trkpt lat="51.752832" lon="-0.767069"><ele>722.1</ele><time>2026-04-19T08:43:54Z</time></trkpt>
      <trkpt lat="51.752600" lon="-0.769111"><ele>726.3</ele><time>2026-04-19T08:44:14Z</time></trkpt>
      <trkpt lat="51.752350" lon="-0.771154"><ele>730.2</ele><time>2026-04-19T08:44:35Z</time></trkpt>
      <trkpt lat="51.752082" lon="-0.773195"><ele>733.8</ele><time>2026-04-19T08:44:56Z</time></trkpt>
      <trkpt lat="51.751795" lon="-0.775235"><ele>737.0</ele><time>2026-04-19T08:45:16Z</time></trkpt>
      <trkpt lat="51.751487" lon="-0.777273"><ele>740.0</ele><time>2026-04-19T08:45:37Z</time></trkpt>
      <trkpt lat="51.751158" lon="-0.779308"><ele>742.6</ele><time>2026-04-19T08:45:57Z</time></trkpt>
      <trkpt lat="51.750808" lon="-0.781340"><ele>744.8</ele><time>2026-04-19T08:46:18Z</time></trkpt>
      <trkpt lat="51.750435" lon="-0.783367"><ele>746.7</ele><time>2026-04-19T08:46:38Z</time></trkpt>
      <trkpt lat="51.750039" lon="-0.785388"><ele>748.3</ele><time>2026-04-19T08:46:59Z</time></trkpt>
      <trkpt lat="51.749618" lon="-0.787402"><ele>749.4</ele><time>2026-04-19T08:47:20Z</time></trkpt>
      <trkpt lat="51.749172" lon="-0.789407"><ele>750.3</ele><time>2026-04-19T08:47:42Z</time></trkpt>
      <trkpt lat="51.748701" lon="-0.791403"><ele>750.7</ele><time>2026-04-19T08:48:03Z</time></trkpt>
      <trkpt lat="51.748202" lon="-0.793387"><ele>750.8</ele><time>2026-04-19T08:48:25Z</time></trkpt>
      <trkpt lat="51.747677" lon="-0.795358"><ele>750.6</ele><time>2026-04-19T08:48:48Z</time></trkpt>
      <trkpt lat="51.747124" lon="-0.797314"><ele>750.0</ele><time>2026-04-19T08:49:11Z</time></trkpt>
      <trkpt lat="51.746542" lon="-0.799253"><ele>749.1</ele><time>2026-04-19T08:49:34Z</time></trkpt>
      <trkpt lat="51.745931" lon="-0.801174"><ele>747.9</ele><time>2026-04-19T08:49:58Z</time></trkpt>
      <trkpt lat="51.745292" lon="-0.803073"><ele>746.3</ele><time>2026-04-19T08:50:23Z</time></trkpt>
      <trkpt lat="51.744622" lon="-0.804950"><ele>744.5</ele><time>2026-04-19T08:50:48Z</time></trkpt>
      <trkpt lat="51.743923" lon="-0.806802"><ele>742.4</ele><time>2026-04-19T08:51:13Z</time></trkpt>
      <trkpt lat="51.743193" lon="-0.808627"><ele>739.9</ele><time>2026-04-19T08:51:39Z</time></trkpt>
      <trkpt lat="51.742434" lon="-0.810422"><ele>737.2</ele><time>2026-04-19T08:52:06Z</time></trkpt>
      <trkpt lat="51.741644" lon="-0.812187"><ele>734.3</ele><time>2026-04-19T08:52:33Z</time></trkpt>
      <trkpt lat="51.740825" lon="-0.813918"><ele>731.1</ele><time>2026-04-19T08:53:01Z</time></trkpt>
      <trkpt lat="51.739975" lon="-0.815614"><ele>727.6</ele><time>2026-04-19T08:53:29Z</time></trkpt>
      <trkpt lat="51.739097" lon="-0.817273"><ele>723.9</ele><time>2026-04-19T08:53:57Z</time></trkpt>
      <trkpt lat="51.738189" lon="-0.818892"><ele>720.0</ele><time>2026-04-19T08:54:26Z</time></trkpt>
      <trkpt lat="51.737253" lon="-0.820470"><ele>715.8</ele><time>2026-04-19T08:54:55Z</time></trkpt>
      <trkpt lat="51.736290" lon="-0.822006"><ele>711.3</ele><time>2026-04-19T08:55:25Z</time></trkpt>
      <trkpt lat="51.735299" lon="-0.823496"><ele>706.6</ele><time>2026-04-19T08:55:54Z</time></trkpt>
      <trkpt lat="51.734282" lon="-0.824940"><ele>701.7</ele><time>2026-04-19T08:56:24Z</time></trkpt>
      <trkpt lat="51.733239" lon="-0.826337"><ele>696.5</ele><time>2026-04-19T08:56:54Z</time></trkpt>
      <trkpt lat="51.732172" lon="-0.827684"><ele>691.0</ele><time>2026-04-19T08:57:25Z</time></trkpt>
      <trkpt lat="51.731081" lon="-0.828981"><ele>685.3</ele><time>2026-04-19T08:57:55Z</time></trkpt>
      <trkpt lat="51.729969" lon="-0.830227"><ele>679.3</ele><time>2026-04-19T08:58:25Z</time></trkpt>
      <trkpt lat="51.728834" lon="-0.831421"><ele>673.0</ele><time>2026-04-19T08:58:55Z</time></trkpt>
      <trkpt lat="51.727680" lon="-0.832562"><ele>666.4</ele><time>2026-04-19T08:59:25Z</time></trkpt>
      <trkpt lat="51.726507" lon="-0.833649"><ele>659.6</ele><time>2026-04-19T08:59:55Z</time></trkpt>
      <trkpt lat="51.725316" lon="-0.834682"><ele>652.5</ele><time>2026-04-19T09:00:25Z</time></trkpt>
      <trkpt lat="51.724108" lon="-0.835661"><ele>645.1</ele><time>2026-04-19T09:00:54Z</time></trkpt>
      <trkpt lat="51.722886" lon="-0.836586"><ele>637.5</ele><time>2026-04-19T09:01:23Z</time></trkpt>
      <trkpt lat="51.721650" lon="-0.837456"><ele>629.6</ele><time>2026-04-19T09:01:51Z</time></trkpt>
      <trkpt lat="51.720401" lon="-0.838273"><ele>621.4</ele><time>2026-04-19T09:02:20Z</time></trkpt>
      <trkpt lat="51.719141" lon="-0.839036"><ele>613.0</ele><time>2026-04-19T09:02:47Z</time></trkpt>
      <trkpt lat="51.717871" lon="-0.839745"><ele>604.4</ele><time>2026-04-19T09:03:14Z</time></trkpt>
      <trkpt lat="51.716593" lon="-0.840403"><ele>595.5</ele><time>2026-04-19T09:03:41Z</time></trkpt>
      <trkpt lat="51.715307" lon="-0.841008"><ele>586.4</ele><time>2026-04-19T09:04:07Z</time></trkpt>
      <trkpt lat="51.714014" lon="-0.841563"><ele>577.2</ele><time>2026-04-19T09:04:33Z</time></trkpt>
      <trkpt lat="51.712717" lon="-0.842068"><ele>567.8</ele><time>2026-04-19T09:04:58Z</time></trkpt>
      <trkpt lat="51.711415" lon="-0.842525"><ele>558.2</ele><time>2026-04-19T09:05:23Z</time></trkpt>
      <trkpt lat="51.710110" lon="-0.842935"><ele>548.6</ele><time>2026-04-19T09:05:47Z</time></trkpt>
      <trkpt lat="51.708803" lon="-0.843298"><ele>538.8</ele><time>2026-04-19T09:06:10Z</time></trkpt>
      <trkpt lat="51.707494" lon="-0.843617"><ele>528.9</ele><time>2026-04-19T09:06:33Z</time></trkpt>
      <trkpt lat="51.706185" lon="-0.843893"><ele>518.9</ele><time>2026-04-19T09:06:56Z</time></trkpt>
      <trkpt lat="51.704877" lon="-0.844127"><ele>508.8</ele><time>2026-04-19T09:07:18Z</time></trkpt>
      <trkpt lat="51.703569" lon="-0.844321"><ele>498.7</ele><time>2026-04-19T09:07:40Z</time></trkpt>
      <trkpt lat="51.702262" lon="-0.844477"><ele>488.5</ele><time>2026-04-19T09:08:01Z</time></trkpt>
      <trkpt lat="51.700958" lon="-0.844595"><ele>478.3</ele><time>2026-04-19T09:08:22Z</time></trkpt>
      <trkpt lat="51.699656" lon="-0.844678"><ele>468.1</ele><time>2026-04-19T09:08:43Z</time></trkpt>
      <trkpt lat="51.698357" lon="-0.844727"><ele>457.8</ele><time>2026-04-19T09:09:03Z</time></trkpt>
      <trkpt lat="51.697062" lon="-0.844743"><ele>447.5</ele><time>2026-04-19T09:09:24Z</time></trkpt>
      <trkpt lat="51.695769" lon="-0.844728"><ele>437.2</ele><time>2026-04-19T09:09:44Z</time></trkpt>
      <trkpt lat="51.694481" lon="-0.844682"><ele>426.9</ele><time>2026-04-19T09:10:04Z</time></trkpt>
      <trkpt lat="51.693196" lon="-0.844608"><ele>416.5</ele><time>2026-04-19T09:10:25Z</time></trkpt>
      <trkpt lat="51.691915" lon="-0.844506"><ele>406.2</ele><time>2026-04-19T09:10:45Z</time></trkpt>
      <trkpt lat="51.690637" lon="-0.844378"><ele>395.8</ele><time>2026-04-19T09:11:05Z</time></trkpt>
      <trkpt lat="51.689364" lon="-0.844223"><ele>385.3</ele><time>2026-04-19T09:11:26Z</time></trkpt>
      <trkpt lat="51.688094" lon="-0.844044"><ele>374.9</ele><time>2026-04-19T09:11:47Z</time></trkpt>
      <trkpt lat="51.686828" lon="-0.843840"><ele>364.4</ele><time>2026-04-19T09:12:08Z</time></trkpt>
      <trkpt lat="51.685565" lon="-0.843613"><ele>354.0</ele><time>2026-04-19T09:12:29Z</time></trkpt>
      <trkpt lat="51.684306" lon="-0.843362"><ele>343.5</ele><time>2026-04-19T09:12:51Z</time></trkpt>
      <trkpt lat="51.683050" lon="-0.843089"><ele>333.0</ele><time>2026-04-19T09:13:13Z</time></trkpt>
      <trkpt lat="51.681797" lon="-0.842792"><ele>322.5</ele><time>2026-04-19T09:13:35Z</time></trkpt>
      <trkpt lat="51.680547" lon="-0.842473"><ele>312.0</ele><time>2026-04-19T09:13:58Z</time></trkpt>
      <trkpt lat="51.679300" lon="-0.842130"><ele>301.5</ele><time>2026-04-19T09:14:22Z</time></trkpt>
      <trkpt lat="51.678056" lon="-0.841765"><ele>291.1</ele><time>2026-04-19T09:14:45Z</time></trkpt>
      <trkpt lat="51.676814" lon="-0.841376"><ele>280.7</ele><time>2026-04-19T09:15:10Z</time></trkpt>
      <trkpt lat="51.675576" lon="-0.840963"><ele>270.4</ele><time>2026-04-19T09:15:34Z</time></trkpt>
      <trkpt lat="51.674339" lon="-0.840525"><ele>260.2</ele><time>2026-04-19T09:15:59Z</time></trkpt>
      <trkpt lat="51.673106" lon="-0.840062"><ele>250.1</ele><time>2026-04-19T09:16:25Z</time></trkpt>
      <trkpt lat="51.671875" lon="-0.839574"><ele>240.2</ele><time>2026-04-19T09:16:51Z</time></trkpt>
      <trkpt lat="51.670647" lon="-0.839058"><ele>230.3</ele><time>2026-04-19T09:17:18Z</time></trkpt>
      <trkpt lat="51.669423" lon="-0.838515"><ele>220.7</ele><time>2026-04-19T09:17:45Z</time></trkpt>
      <trkpt lat="51.668201" lon="-0.837943"><ele>211.2</ele><time>2026-04-19T09:18:12Z</time></trkpt>
      <trkpt lat="51.666984" lon="-0.837341"><ele>201.8</ele><time>2026-04-19T09:18:39Z</time></trkpt>
      <trkpt lat="51.665770" lon="-0.836709"><ele>192.7</ele><time>2026-04-19T09:19:07Z</time></trkpt>
      <trkpt lat="51.664561" lon="-0.836045"><ele>183.9</ele><time>2026-04-19T09:19:35Z</time></trkpt>
      <trkpt lat="51.663357" lon="-0.835348"><ele>175.2</ele><time>2026-04-19T09:20:04Z</time></trkpt>
      <trkpt lat="51.662159" lon="-0.834616"><ele>166.8</ele><time>2026-04-19T09:20:32Z</time></trkpt>
      <trkpt lat="51.660967" lon="-0.833850"><ele>158.6</ele><time>2026-04-19T09:21:01Z</time></trkpt>
      <trkpt lat="51.659782" lon="-0.833048"><ele>150.6</ele><time>2026-04-19T09:21:30Z</time></trkpt>
      <trkpt lat="51.658605" lon="-0.832208"><ele>142.9</ele><time>2026-04-19T09:21:58Z</time></trkpt>
      <trkpt lat="51.657436" lon="-0.831330"><ele>135.5</ele><time>2026-04-19T09:22:27Z</time></trkpt>
      <trkpt lat="51.656276" lon="-0.830414"><ele>128.3</ele><time>2026-04-19T09:22:56Z</time></trkpt>
      <trkpt lat="51.655127" lon="-0.829458"><ele>121.3</ele><time>2026-04-19T09:23:24Z</time></trkpt>
      <trkpt lat="51.653989" lon="-0.828461"><ele>114.6</ele><time>2026-04-19T09:23:52Z</time></trkpt>
      <trkpt lat="51.652864" lon="-0.827424"><ele>108.1</ele><time>2026-04-19T09:24:20Z</time></trkpt>
      <trkpt lat="51.651752" lon="-0.826344"><ele>101.9</ele><time>2026-04-19T09:24:48Z</time></trkpt>
      <trkpt lat="51.650654" lon="-0.825223"><ele>95.8</ele><time>2026-04-19T09:25:15Z</time></trkpt>
      <trkpt lat="51.649571" lon="-0.824060"><ele>90.0</ele><time>2026-04-19T09:25:42Z</time></trkpt>
      <trkpt lat="51.648505" lon="-0.822855"><ele>84.4</ele><time>2026-04-19T09:26:09Z</time></trkpt>
      <trkpt lat="51.647456" lon="-0.821607"><ele>79.1</ele><time>2026-04-19T09:26:35Z</time></trkpt>
      <trkpt lat="51.646426" lon="-0.820317"><ele>74.0</ele><time>2026-04-19T09:27:01Z</time></trkpt>
      <trkpt lat="51.645415" lon="-0.818985"><ele>69.1</ele><time>2026-04-19T09:27:26Z</time></trkpt>
      <trkpt lat="51.644425" lon="-0.817612"><ele>64.4</ele><time>2026-04-19T09:27:51Z</time></trkpt>
      <trkpt lat="51.643456" lon="-0.816198"><ele>60.0</ele><time>2026-04-19T09:28:15Z</time></trkpt>
      <trkpt lat="51.642510" lon="-0.814743"><ele>55.8</ele><time>2026-04-19T09:28:39Z</time></trkpt>
      <trkpt lat="51.641588" lon="-0.813249"><ele>51.9</ele><time>2026-04-19T09:29:03Z</time></trkpt>
      <trkpt lat="51.640690" lon="-0.811716"><ele>48.2</ele><time>2026-04-19T09:29:26Z</time></trkpt>
      <trkpt lat="51.639816" lon="-0.810146"><ele>44.9</ele><time>2026-04-19T09:29:48Z</time></trkpt>
      <trkpt lat="51.638969" lon="-0.808539"><ele>41.8</ele><time>2026-04-19T09:30:10Z</time></trkpt>
      <trkpt lat="51.638148" lon="-0.806897"><ele>39.0</ele><time>2026-04-19T09:30:32Z</time></trkpt>
      <trkpt lat="51.637354" lon="-0.805220"><ele>36.5</ele><time>2026-04-19T09:30:54Z</time></trkpt>
      <trkpt lat="51.636587" lon="-0.803512"><ele>34.4</ele><time>2026-04-19T09:31:15Z</time></trkpt>
      <trkpt lat="51.635849" lon="-0.801772"><ele>32.6</ele><time>2026-04-19T09:31:36Z</time></trkpt>
      <trkpt lat="51.635139" lon="-0.800003"><ele>31.1</ele><time>2026-04-19T09:31:57Z</time></trkpt>
      <trkpt lat="51.634457" lon="-0.798206"><ele>30.0</ele><time>2026-04-19T09:32:17Z</time></trkpt>
      <trkpt lat="51.633804" lon="-0.796383"><ele>29.3</ele><time>2026-04-19T09:32:38Z</time></trkpt>
      <trkpt lat="51.633180" lon="-0.794536"><ele>28.9</ele><time>2026-04-19T09:32:59Z</time></trkpt>
      <trkpt lat="51.632584" lon="-0.792665"><ele>28.8</ele><time>2026-04-19T09:33:19Z</time></trkpt>
      <trkpt lat="51.632018" lon="-0.790774"><ele>29.2</ele><time>2026-04-19T09:33:40Z</time></trkpt>
      <trkpt lat="51.631480" lon="-0.788863"><ele>29.9</ele><time>2026-04-19T09:34:00Z</time></trkpt>
      <trkpt lat="51.630970" lon="-0.786934"><ele>30.9</ele><time>2026-04-19T09:34:21Z</time></trkpt>
      <trkpt lat="51.630488" lon="-0.784990"><ele>32.3</ele><time>2026-04-19T09:34:42Z</time></trkpt>
      <trkpt lat="51.630034" lon="-0.783030"><ele>34.0</ele><time>2026-04-19T09:35:04Z</time></trkpt>
      <trkpt lat="51.629606" lon="-0.781058"><ele>36.1</ele><time>2026-04-19T09:35:25Z</time></trkpt>
      <trkpt lat="51.629205" lon="-0.779074"><ele>38.4</ele><time>2026-04-19T09:35:47Z</time></trkpt>
      <trkpt lat="51.628831" lon="-0.777080"><ele>41.1</ele><time>2026-04-19T09:36:09Z</time></trkpt>
      <trkpt lat="51.628481" lon="-0.775078"><ele>44.1</ele><time>2026-04-19T09:36:32Z</time></trkpt>
      <trkpt lat="51.628156" lon="-0.773068"><ele>47.3</ele><time>2026-04-19T09:36:55Z</time></trkpt>
      <trkpt lat="51.627855" lon="-0.771051"><ele>50.9</ele><time>2026-04-19T09:37:19Z</time></trkpt>
      <trkpt lat="51.627577" lon="-0.769029"><ele>54.7</ele><time>2026-04-19T09:37:42Z</time></trkpt>
      <trkpt lat="51.627321" lon="-0.767003"><ele>58.7</ele><time>2026-04-19T09:38:07Z</time></trkpt>
      <trkpt lat="51.627087" lon="-0.764973"><ele>63.0</ele><time>2026-04-19T09:38:32Z</time></trkpt>
      <trkpt lat="51.626874" lon="-0.762941"><ele>67.5</ele><time>2026-04-19T09:38:57Z</time></trkpt>
      <trkpt lat="51.626680" lon="-0.760906"><ele>72.3</ele><time>2026-04-19T09:39:22Z</time></trkpt>
      <trkpt lat="51.626507" lon="-0.758870"><ele>77.3</ele><time>2026-04-19T09:39:48Z</time></trkpt>
      <trkpt lat="51.626351" lon="-0.756832"><ele>82.5</ele><time>2026-04-19T09:40:15Z</time></trkpt>
      <trkpt lat="51.626214" lon="-0.754794"><ele>87.9</ele><time>2026-04-19T09:40:42Z</time></trkpt>
      <trkpt lat="51.626093" lon="-0.752755"><ele>93.6</ele><time>2026-04-19T09:41:09Z</time></trkpt>
      <trkpt lat="51.625989" lon="-0.750716"><ele>99.6</ele><time>2026-04-19T09:41:36Z</time></trkpt>
      <trkpt lat="51.625901" lon="-0.748676"><ele>105.7</ele><time>2026-04-19T09:42:04Z</time></trkpt>
      <trkpt lat="51.625829" lon="-0.746635"><ele>112.1</ele><time>2026-04-19T09:42:32Z</time></trkpt>
      <trkpt lat="51.625772" lon="-0.744595"><ele>118.8</ele><time>2026-04-19T09:43:00Z</time></trkpt>
      <trkpt lat="51.625729" lon="-0.742553"><ele>125.7</ele><time>2026-04-19T09:43:28Z</time></trkpt>
      <trkpt lat="51.625701" lon="-0.740511"><ele>132.8</ele><time>2026-04-19T09:43:56Z</time></trkpt>
      <trkpt lat="51.625687" lon="-0.738467"><ele>140.2</ele><time>2026-04-19T09:44:24Z</time></trkpt>
      <trkpt lat="51.625687" lon="-0.736423"><ele>147.9</ele><time>2026-04-19T09:44:53Z</time></trkpt>
      <trkpt lat="51.625701" lon="-0.734376"><ele>155.8</ele><time>2026-04-19T09:45:21Z</time></trkpt>
      <trkpt lat="51.625729" lon="-0.732328"><ele>164.0</ele><time>2026-04-19T09:45:49Z</time></trkpt>
      <trkpt lat="51.625771" lon="-0.730278"><ele>172.4</ele><time>2026-04-19T09:46:17Z</time></trkpt>
      <trkpt lat="51.625828" lon="-0.728226"><ele>181.0</ele><time>2026-04-19T09:46:45Z</time></trkpt>
      <trkpt lat="51.625899" lon="-0.726171"><ele>189.9</ele><time>2026-04-19T09:47:13Z</time></trkpt>
      <trkpt lat="51.625985" lon="-0.724113"><ele>199.0</ele><time>2026-04-19T09:47:40Z</time></trkpt>
      <trkpt lat="51.626087" lon="-0.722053"><ele>208.2</ele><time>2026-04-19T09:48:08Z</time></trkpt>
      <trkpt lat="51.626205" lon="-0.719991"><ele>217.7</ele><time>2026-04-19T09:48:35Z</time></trkpt>
      <trkpt lat="51.626339" lon="-0.717925"><ele>227.4</ele><time>2026-04-19T09:49:01Z</time></trkpt>
      <trkpt lat="51.626491" lon="-0.715857"><ele>237.2</ele><time>2026-04-19T09:49:27Z</time></trkpt>
      <trkpt lat="51.626660" lon="-0.713787"><ele>247.1</ele><time>2026-04-19T09:49:53Z</time></trkpt>
      <trkpt lat="51.626849" lon="-0.711716"><ele>257.1</ele><time>2026-04-19T09:50:19Z</time></trkpt>
      <trkpt lat="51.627056" lon="-0.709643"><ele>267.3</ele><time>2026-04-19T09:50:44Z</time></trkpt>
      <trkpt lat="51.627285" lon="-0.707569"><ele>277.5</ele><time>2026-04-19T09:51:08Z</time></trkpt>
      <trkpt lat="51.627534" lon="-0.705495"><ele>287.8</ele><time>2026-04-19T09:51:32Z</time></trkpt>
      <trkpt lat="51.627806" lon="-0.703422"><ele>298.2</ele><time>2026-04-19T09:51:56Z</time></trkpt>
      <trkpt lat="51.628100" lon="-0.701351"><ele>308.6</ele><time>2026-04-19T09:52:20Z</time></trkpt>
      <trkpt lat="51.628419" lon="-0.699282"><ele>319.0</ele><time>2026-04-19T09:52:43Z</time></trkpt>
      <trkpt lat="51.628763" lon="-0.697218"><ele>329.4</ele><time>2026-04-19T09:53:05Z</time></trkpt>
      <trkpt lat="51.629132" lon="-0.695159"><ele>339.9</ele><time>2026-04-19T09:53:28Z</time></trkpt>
      <trkpt lat="51.629528" lon="-0.693108"><ele>350.3</ele><time>2026-04-19T09:53:50Z</time></trkpt>
      <trkpt lat="51.629952" lon="-0.691064"><ele>360.8</ele><time>2026-04-19T09:54:12Z</time></trkpt>
      <trkpt lat="51.630403" lon="-0.689032"><ele>371.2</ele><time>2026-04-19T09:54:33Z</time></trkpt>
      <trkpt lat="51.630884" lon="-0.687011"><ele>381.6</ele><time>2026-04-19T09:54:55Z</time></trkpt>
      <trkpt lat="51.631395" lon="-0.685004"><ele>392.0</ele><time>2026-04-19T09:55:16Z</time></trkpt>
      <trkpt lat="51.631935" lon="-0.683013"><ele>402.4</ele><time>2026-04-19T09:55:38Z</time></trkpt>
      <trkpt lat="51.632507" lon="-0.681041"><ele>412.8</ele><time>2026-04-19T09:55:59Z</time></trkpt>
      <trkpt lat="51.633110" lon="-0.679088"><ele>423.2</ele><time>2026-04-19T09:56:20Z</time></trkpt>
      <trkpt lat="51.633744" lon="-0.677159"><ele>433.5</ele><time>2026-04-19T09:56:41Z</time></trkpt>
      <trkpt lat="51.634411" lon="-0.675253"><ele>443.9</ele><time>2026-04-19T09:57:03Z</time></trkpt>
      <trkpt lat="51.635109" lon="-0.673375"><ele>454.2</ele><time>2026-04-19T09:57:25Z</time></trkpt>
      <trkpt lat="51.635840" lon="-0.671526"><ele>464.5</ele><time>2026-04-19T09:57:47Z</time></trkpt>
      <trkpt lat="51.636603" lon="-0.669708"><ele>474.8</ele><time>2026-04-19T09:58:09Z</time></trkpt>
      <trkpt lat="51.637398" lon="-0.667925"><ele>485.1</ele><time>2026-04-19T09:58:31Z</time></trkpt>
      <trkpt lat="51.638224" lon="-0.666177"><ele>495.3</ele><time>2026-04-19T09:58:54Z</time></trkpt>
      <trkpt lat="51.639082" lon="-0.664467"><ele>505.5</ele><time>2026-04-19T09:59:17Z</time></trkpt>
      <trkpt lat="51.639972" lon="-0.662797"><ele>515.7</ele><time>2026-04-19T09:59:41Z</time></trkpt>
      <trkpt lat="51.640891" lon="-0.661170"><ele>525.7</ele><time>2026-04-19T10:00:05Z</time></trkpt>
      <trkpt lat="51.641840" lon="-0.659587"><ele>535.7</ele><time>2026-04-19T10:00:30Z</time></trkpt>
      <trkpt lat="51.642819" lon="-0.658051"><ele>545.6</ele><time>2026-04-19T10:00:55Z</time></trkpt>
      <trkpt lat="51.643825" lon="-0.656562"><ele>555.3</ele><time>2026-04-19T10:01:21Z</time></trkpt>
      <trkpt lat="51.644859" lon="-0.655122"><ele>564.9</ele><time>2026-04-19T10:01:47Z</time></trkpt>
      <trkpt lat="51.645919" lon="-0.653734"><ele>574.4</ele><time>2026-04-19T10:02:13Z</time></trkpt>
      <trkpt lat="51.647004" lon="-0.652397"><ele>583.7</ele><time>2026-04-19T10:02:40Z</time></trkpt>
      <trkpt lat="51.648113" lon="-0.651115"><ele>592.8</ele><time>2026-04-19T10:03:08Z</time></trkpt>
      <trkpt lat="51.649245" lon="-0.649886"><ele>601.6</ele><time>2026-04-19T10:03:36Z</time></trkpt>
      <trkpt lat="51.650398" lon="-0.648713"><ele>610.3</ele><time>2026-04-19T10:04:05Z</time></trkpt>
      <trkpt lat="51.651571" lon="-0.647595"><ele>618.7</ele><time>2026-04-19T10:04:33Z</time></trkpt>
      <trkpt lat="51.652764" lon="-0.646534"><ele>626.9</ele><time>2026-04-19T10:05:02Z</time></trkpt>
      <trkpt lat="51.653973" lon="-0.645530"><ele>634.9</ele><time>2026-04-19T10:05:32Z</time></trkpt>
      <trkpt lat="51.655199" lon="-0.644582"><ele>642.6</ele><time>2026-04-19T10:06:02Z</time></trkpt>
      <trkpt lat="51.656439" lon="-0.643691"><ele>650.0</ele><time>2026-04-19T10:06:32Z</time></trkpt>
      <trkpt lat="51.657692" lon="-0.642857"><ele>657.1</ele><time>2026-04-19T10:07:02Z</time></trkpt>
      <trkpt lat="51.658957" lon="-0.642078"><ele>664.0</ele><time>2026-04-19T10:07:32Z</time></trkpt>
      <trkpt lat="51.660232" lon="-0.641355"><ele>670.6</ele><time>2026-04-19T10:08:02Z</time></trkpt>
      <trkpt lat="51.661516" lon="-0.640686"><ele>676.9</ele><time>2026-04-19T10:08:32Z</time></trkpt>
      <trkpt lat="51.662808" lon="-0.640071"><ele>683.0</ele><time>2026-04-19T10:09:02Z</time></trkpt>
      <trkpt lat="51.664106" lon="-0.639509"><ele>688.8</ele><time>2026-04-19T10:09:32Z</time></trkpt>
      <trkpt lat="51.665409" lon="-0.638998"><ele>694.4</ele><time>2026-04-19T10:10:02Z</time></trkpt>
      <trkpt lat="51.666716" lon="-0.638537"><ele>699.7</ele><time>2026-04-19T10:10:31Z</time></trkpt>
      <trkpt lat="51.668026" lon="-0.638125"><ele>704.8</ele><time>2026-04-19T10:11:00Z</time></trkpt>
      <trkpt lat="51.669338" lon="-0.637760"><ele>709.6</ele><time>2026-04-19T10:11:29Z</time></trkpt>
      <trkpt lat="51.670650" lon="-0.637441"><ele>714.1</ele><time>2026-04-19T10:11:57Z</time></trkpt>
      <trkpt lat="51.671962" lon="-0.637165"><ele>718.5</ele><time>2026-04-19T10:12:25Z</time></trkpt>
      <trkpt lat="51.673273" lon="-0.636932"><ele>722.6</ele><time>2026-04-19T10:12:53Z</time></trkpt>
      <trkpt lat="51.674582" lon="-0.636738"><ele>726.4</ele><time>2026-04-19T10:13:20Z</time></trkpt>
      <trkpt lat="51.675888" lon="-0.636584"><ele>730.0</ele><time>2026-04-19T10:13:46Z</time></trkpt>
      <trkpt lat="51.677192" lon="-0.636466"><ele>733.4</ele><time>2026-04-19T10:14:12Z</time></trkpt>
      <trkpt lat="51.678493" lon="-0.636382"><ele>736.5</ele><time>2026-04-19T10:14:37Z</time></trkpt>
      <trkpt lat="51.679789" lon="-0.636332"><ele>739.3</ele><time>2026-04-19T10:15:02Z</time></trkpt>
      <trkpt lat="51.681081" lon="-0.636314"><ele>741.8</ele><time>2026-04-19T10:15:26Z</time></trkpt>
      <trkpt lat="51.682369" lon="-0.636324"><ele>744.1</ele><time>2026-04-19T10:15:49Z</time></trkpt>
      <trkpt lat="51.683652" lon="-0.636364"><ele>746.0</ele><time>2026-04-19T10:16:12Z</time></trkpt>
      <trkpt lat="51.684931" lon="-0.636429"><ele>747.7</ele><time>2026-04-19T10:16:35Z</time></trkpt>
      <trkpt lat="51.686205" lon="-0.636520"><ele>749.0</ele><time>2026-04-19T10:16:57Z</time></trkpt>
      <trkpt lat="51.687474" lon="-0.636634"><ele>750.0</ele><time>2026-04-19T10:17:19Z</time></trkpt>
      <trkpt lat="51.688739" lon="-0.636771"><ele>750.7</ele><time>2026-04-19T10:17:40Z</time></trkpt>
      <trkpt lat="51.690000" lon="-0.636930"><ele>751.0</ele><time>2026-04-19T10:18:01Z</time></trkpt>
    </trkseg>
  </trk>
</gpx>
