<?xml version="1.0" encoding="UTF-8"?>
<gpx creator="route-posters-sample" version="1.1" xmlns="http://www.topografix.com/GPX/1/1">
  <metadata><time>2026-05-02T10:15:00Z</time></metadata>
  <trk>
    <name>Jurassic Coast hike</name>
    <type>hiking</type>
    <trkseg>
      <trkpt lat="50.609980" lon="-2.526478"><ele>30.0</ele><time>2026-05-02T10:15:00Z</time></trkpt>
      <trkpt lat="50.610697" lon="-2.526062"><ele>30.4</ele><time>2026-05-02T10:15:54Z</time></trkpt>
      <trkpt lat="50.611411" lon="-2.525661"><ele>31.2</ele><time>2026-05-02T10:16:50Z</time></trkpt>
      <trkpt lat="50.612120" lon="-2.525274"><ele>32.3</ele><time>2026-05-02T10:17:46Z</time></trkpt>
      <trkpt lat="50.612824" lon="-2.524902"><ele>33.7</ele><time>2026-05-02T10:18:42Z</time></trkpt>
      <trkpt lat="50.613522" lon="-2.524542"><ele>35.4</ele><time>2026-05-02T10:19:39Z</time></trkpt>
      <trkpt lat="50.614212" lon="-2.524193"><ele>37.5</ele><time>2026-05-02T10:20:36Z</time></trkpt>
      <trkpt lat="50.614893" lon="-2.523854"><ele>39.8</ele><time>2026-05-02T10:21:32Z</time></trkpt>
      <trkpt lat="50.615565" lon="-2.523523"><ele>42.5</ele><time>2026-05-02T10:22:29Z</time></trkpt>
      <trkpt lat="50.616226" lon="-2.523200"><ele>45.4</ele><time>2026-05-02T10:23:25Z</time></trkpt>
      <trkpt lat="50.616875" lon="-2.522883"><ele>48.6</ele><time>2026-05-02T10:24:20Z</time></trkpt>
      <trkpt lat="50.617511" lon="-2.522570"><ele>52.2</ele><time>2026-05-02T10:25:15Z</time></trkpt>
      <trkpt lat="50.618132" lon="-2.522260"><ele>56.0</ele><time>2026-05-02T10:26:08Z</time></trkpt>
      <trkpt lat="50.618737" lon="-2.521952"><ele>60.1</ele><time>2026-05-02T10:27:01Z</time></trkpt>
      <trkpt lat="50.619326" lon="-2.521645"><ele>64.6</ele><time>2026-05-02T10:27:52Z</time></trkpt>
      <trkpt lat="50.619896" lon="-2.521337"><ele>69.3</ele><time>2026-05-02T10:28:42Z</time></trkpt>
      <trkpt lat="50.620446" lon="-2.521026"><ele>74.3</ele><time>2026-05-02T10:29:31Z</time></trkpt>
      <trkpt lat="50.620975" lon="-2.520713"><ele>79.7</ele><time>2026-05-02T10:30:17Z</time></trkpt>
      <trkpt lat="50.621483" lon="-2.520395"><ele>85.4</ele><time>2026-05-02T10:31:02Z</time></trkpt>
      <trkpt lat="50.621966" lon="-2.520072"><ele>91.4</ele><time>2026-05-02T10:31:44Z</time></trkpt>
      <trkpt lat="50.622425" lon="-2.519742"><ele>97.8</ele><time>2026-05-02T10:32:25Z</time></trkpt>
      <trkpt lat="50.622857" lon="-2.519406"><ele>104.4</ele><time>2026-05-02T10:33:03Z</time></trkpt>
      <trkpt lat="50.623263" lon="-2.519061"><ele>111.4</ele><time>2026-05-02T10:33:39Z</time></trkpt>
      <trkpt lat="50.623640" lon="-2.518708"><ele>118.8</ele><time>2026-05-02T10:34:13Z</time></trkpt>
      <trkpt lat="50.623987" lon="-2.518346"><ele>126.4</ele><time>2026-05-02T10:34:45Z</time></trkpt>
      <trkpt lat="50.624305" lon="-2.517974"><ele>134.4</ele><time>2026-05-02T10:35:15Z</time></trkpt>
      <trkpt lat="50.624591" lon="-2.517593"><ele>142.7</ele><time>2026-05-02T10:35:42Z</time></trkpt>
      <trkpt lat="50.624845" lon="-2.517201"><ele>151.2</ele><time>2026-05-02T10:36:08Z</time></trkpt>
      <trkpt lat="50.625067" lon="-2.516800"><ele>160.1</ele><time>2026-05-02T10:36:32Z</time></trkpt>
      <trkpt lat="50.625255" lon="-2.516388"><ele>169.2</ele><time>2026-05-02T10:36:54Z</time></trkpt>
      <trkpt lat="50.625410" lon="-2.515966"><ele>178.6</ele><time>2026-05-02T10:37:15Z</time></trkpt>
      <trkpt lat="50.625531" lon="-2.515534"><ele>188.2</ele><time>2026-05-02T10:37:36Z</time></trkpt>
      <trkpt lat="50.625618" lon="-2.515092"><ele>198.1</ele><time>2026-05-02T10:37:55Z</time></trkpt>
      <trkpt lat="50.625670" lon="-2.514641"><ele>208.1</ele><time>2026-05-02T10:38:14Z</time></trkpt>
      <trkpt lat="50.625689" lon="-2.514181"><ele>218.3</ele><time>2026-05-02T10:38:32Z</time></trkpt>
      <trkpt lat="50.625673" lon="-2.513713"><ele>228.7</ele><time>2026-05-02T10:38:51Z</time></trkpt>
      <trkpt lat="50.625623" lon="-2.513237"><ele>239.2</ele><time>2026-05-02T10:39:09Z</time></trkpt>
      <trkpt lat="50.625540" lon="-2.512753"><ele>249.9</ele><time>2026-05-02T10:39:28Z</time></trkpt>
      <trkpt lat="50.625425" lon="-2.512263"><ele>260.7</ele><time>2026-05-02T10:39:48Z</time></trkpt>
      <trkpt lat="50.625276" lon="-2.511767"><ele>271.6</ele><time>2026-05-02T10:40:09Z</time></trkpt>
      <trkpt lat="50.625097" lon="-2.511266"><ele>282.6</ele><time>2026-05-02T10:40:30Z</time></trkpt>
      <trkpt lat="50.624886" lon="-2.510761"><ele>293.7</ele><time>2026-05-02T10:40:53Z</time></trkpt>
      <trkpt lat="50.624645" lon="-2.510252"><ele>304.8</ele><time>2026-05-02T10:41:16Z</time></trkpt>
      <trkpt lat="50.624376" lon="-2.509740"><ele>316.1</ele><time>2026-05-02T10:41:41Z</time></trkpt>
      <trkpt lat="50.624078" lon="-2.509226"><ele>327.4</ele><time>2026-05-02T10:42:07Z</time></trkpt>
      <trkpt lat="50.623754" lon="-2.508711"><ele>338.7</ele><time>2026-05-02T10:42:34Z</time></trkpt>
      <trkpt lat="50.623403" lon="-2.508195"><ele>350.2</ele><time>2026-05-02T10:43:02Z</time></trkpt>
      <trkpt lat="50.623028" lon="-2.507679"><ele>361.6</ele><time>2026-05-02T10:43:32Z</time></trkpt>
      <trkpt lat="50.622630" lon="-2.507165"><ele>373.2</ele><time>2026-05-02T10:44:03Z</time></trkpt>
      <trkpt lat="50.622209" lon="-2.506651"><ele>384.8</ele><time>2026-05-02T10:44:36Z</time></trkpt>
      <trkpt lat="50.621767" lon="-2.506140"><ele>396.5</ele><time>2026-05-02T10:45:10Z</time></trkpt>
      <trkpt lat="50.621306" lon="-2.505632"><ele>408.3</ele><time>2026-05-02T10:45:46Z</time></trkpt>
      <trkpt lat="50.620827" lon="-2.505127"><ele>420.0</ele><time>2026-05-02T10:46:23Z</time></trkpt>
      <trkpt lat="50.620330" lon="-2.504625"><ele>431.9</ele><time>2026-05-02T10:47:02Z</time></trkpt>
      <trkpt lat="50.619818" lon="-2.504128"><ele>443.8</ele><time>2026-05-02T10:47:42Z</time></trkpt>
      <trkpt lat="50.619292" lon="-2.503635"><ele>455.7</ele><time>2026-05-02T10:48:24Z</time></trkpt>
      <trkpt lat="50.618752" lon="-2.503147"><ele>467.7</ele><time>2026-05-02T10:49:08Z</time></trkpt>
      <trkpt lat="50.618202" lon="-2.502664"><ele>479.7</ele><time>2026-05-02T10:49:53Z</time></trkpt>
      <trkpt lat="50.617641" lon="-2.502186"><ele>491.7</ele><time>2026-05-02T10:50:39Z</time></trkpt>
      <trkpt lat="50.617071" lon="-2.501713"><ele>503.6</ele><time>2026-05-02T10:51:26Z</time></trkpt>
      <trkpt lat="50.616493" lon="-2.501245"><ele>515.6</ele><time>2026-05-02T10:52:15Z</time></trkpt>
      <trkpt lat="50.615910" lon="-2.500783"><ele>527.5</ele><time>2026-05-02T10:53:05Z</time></trkpt>
      <trkpt lat="50.615322" lon="-2.500326"><ele>539.3</ele><time>2026-05-02T10:53:56Z</time></trkpt>
      <trkpt lat="50.614731" lon="-2.499874"><ele>551.1</ele><time>2026-05-02T10:54:48Z</time></trkpt>
      <trkpt lat="50.614138" lon="-2.499426"><ele>562.7</ele><time>2026-05-02T10:55:40Z</time></trkpt>
      <trkpt lat="50.613544" lon="-2.498984"><ele>574.2</ele><time>2026-05-02T10:56:33Z</time></trkpt>
      <trkpt lat="50.612952" lon="-2.498546"><ele>585.6</ele><time>2026-05-02T10:57:26Z</time></trkpt>
      <trkpt lat="50.612362" lon="-2.498112"><ele>596.8</ele><time>2026-05-02T10:58:19Z</time></trkpt>
      <trkpt lat="50.611776" lon="-2.497682"><ele>607.9</ele><time>2026-05-02T10:59:13Z</time></trkpt>
      <trkpt lat="50.611195" lon="-2.497255"><ele>618.8</ele><time>2026-05-02T11:00:06Z</time></trkpt>
      <trkpt lat="50.610621" lon="-2.496831"><ele>629.4</ele><time>2026-05-02T11:00:58Z</time></trkpt>
      <trkpt lat="50.610056" lon="-2.496410"><ele>639.8</ele><time>2026-05-02T11:01:50Z</time></trkpt>
      <trkpt lat="50.609500" lon="-2.495992"><ele>650.1</ele><time>2026-05-02T11:02:41Z</time></trkpt>
      <trkpt lat="50.608956" lon="-2.495575"><ele>660.0</ele><time>2026-05-02T11:03:31Z</time></trkpt>
      <trkpt lat="50.608425" lon="-2.495160"><ele>669.8</ele><time>2026-05-02T11:04:19Z</time></trkpt>
      <trkpt lat="50.607908" lon="-2.494745"><ele>679.3</ele><time>2026-05-02T11:05:07Z</time></trkpt>
      <trkpt lat="50.607407" lon="-2.494332"><ele>688.5</ele><time>2026-05-02T11:05:52Z</time></trkpt>
      <trkpt lat="50.606923" lon="-2.493918"><ele>697.6</ele><time>2026-05-02T11:06:36Z</time></trkpt>
      <trkpt lat="50.606458" lon="-2.493505"><ele>706.3</ele><time>2026-05-02T11:07:19Z</time></trkpt>
      <trkpt lat="50.606013" lon="-2.493091"><ele>714.9</ele><time>2026-05-02T11:07:59Z</time></trkpt>
      <trkpt lat="50.605590" lon="-2.492676"><ele>723.1</ele><time>2026-05-02T11:08:37Z</time></trkpt>
      <trkpt lat="50.605190" lon="-2.492260"><ele>731.2</ele><time>2026-05-02T11:09:13Z</time></trkpt>
      <trkpt lat="50.604815" lon="-2.491843"><ele>739.0</ele><time>2026-05-02T11:09:48Z</time></trkpt>
      <trkpt lat="50.604465" lon="-2.491424"><ele>746.6</ele><time>2026-05-02T11:10:20Z</time></trkpt>
      <trkpt lat="50.604141" lon="-2.491003"><ele>753.9</ele><time>2026-05-02T11:10:50Z</time></trkpt>
      <trkpt lat="50.603846" lon="-2.490580"><ele>761.0</ele><time>2026-05-02T11:11:18Z</time></trkpt>
      <trkpt lat="50.603580" lon="-2.490155"><ele>767.9</ele><time>2026-05-02T11:11:44Z</time></trkpt>
      <trkpt lat="50.603343" lon="-2.489727"><ele>774.5</ele><time>2026-05-02T11:12:08Z</time></trkpt>
      <trkpt lat="50.603138" lon="-2.489298"><ele>780.9</ele><time>2026-05-02T11:12:31Z</time></trkpt>
      <trkpt lat="50.602964" lon="-2.488865"><ele>787.0</ele><time>2026-05-02T11:12:52Z</time></trkpt>
      <trkpt lat="50.602823" lon="-2.488430"><ele>792.9</ele><time>2026-05-02T11:13:12Z</time></trkpt>
      <trkpt lat="50.602715" lon="-2.487993"><ele>798.4</ele><time>2026-05-02T11:13:31Z</time></trkpt>
      <trkpt lat="50.602640" lon="-2.487553"><ele>803.7</ele><time>2026-05-02T11:13:48Z</time></trkpt>
      <trkpt lat="50.602599" lon="-2.487111"><ele>808.7</ele><time>2026-05-02T11:14:06Z</time></trkpt>
      <trkpt lat="50.602593" lon="-2.486667"><ele>813.3</ele><time>2026-05-02T11:14:23Z</time></trkpt>
      <trkpt lat="50.602620" lon="-2.486220"><ele>817.7</ele><time>2026-05-02T11:14:40Z</time></trkpt>
      <trkpt lat="50.602683" lon="-2.485771"><ele>821.7</ele><time>2026-05-02T11:14:57Z</time></trkpt>
      <trkpt lat="50.602780" lon="-2.485321"><ele>825.3</ele><time>2026-05-02T11:15:15Z</time></trkpt>
      <trkpt lat="50.602911" lon="-2.484868"><ele>828.6</ele><time>2026-05-02T11:15:33Z</time></trkpt>
      <trkpt lat="50.603077" lon="-2.484414"><ele>831.5</ele><time>2026-05-02T11:15:52Z</time></trkpt>
      <trkpt lat="50.603276" lon="-2.483959"><ele>834.0</ele><time>2026-05-02T11:16:13Z</time></trkpt>
      <trkpt lat="50.603509" lon="-2.483502"><ele>836.2</ele><time>2026-05-02T11:16:35Z</time></trkpt>
      <trkpt lat="50.603775" lon="-2.483044"><ele>837.9</ele><time>2026-05-02T11:16:58Z</time></trkpt>
      <trkpt lat="50.604073" lon="-2.482585"><ele>839.2</ele><time>2026-05-02T11:17:23Z</time></trkpt>
      <trkpt lat="50.604403" lon="-2.482126"><ele>840.2</ele><time>2026-05-02T11:17:49Z</time></trkpt>
      <trkpt lat="50.604764" lon="-2.481666"><ele>840.7</ele><time>2026-05-02T11:18:17Z</time></trkpt>
      <trkpt lat="50.605154" lon="-2.481206"><ele>840.8</ele><time>2026-05-02T11:18:48Z</time></trkpt>
      <trkpt lat="50.605574" lon="-2.480745"><ele>840.6</ele><time>2026-05-02T11:19:20Z</time></trkpt>
      <trkpt lat="50.606022" lon="-2.480285"><ele>840.0</ele><time>2026-05-02T11:19:54Z</time></trkpt>
      <trkpt lat="50.606498" lon="-2.479824"><ele>839.0</ele><time>2026-05-02T11:20:30Z</time></trkpt>
      <trkpt lat="50.606999" lon="-2.479364"><ele>837.6</ele><time>2026-05-02T11:21:09Z</time></trkpt>
      <trkpt lat="50.607525" lon="-2.478904"><ele>835.9</ele><time>2026-05-02T11:21:50Z</time></trkpt>
      <trkpt lat="50.608075" lon="-2.478445"><ele>833.9</ele><time>2026-05-02T11:22:33Z</time></trkpt>
      <trkpt lat="50.608648" lon="-2.477986"><ele>831.5</ele><time>2026-05-02T11:23:18Z</time></trkpt>
      <trkpt lat="50.609242" lon="-2.477528"><ele>828.8</ele><time>2026-05-02T11:24:06Z</time></trkpt>
      <trkpt lat="50.609856" lon="-2.477070"><ele>825.8</ele><time>2026-05-02T11:24:55Z</time></trkpt>
      <trkpt lat="50.610489" lon="-2.476613"><ele>822.5</ele><time>2026-05-02T11:25:47Z</time></trkpt>
      <trkpt lat="50.611139" lon="-2.476156"><ele>818.9</ele><time>2026-05-02T11:26:41Z</time></trkpt>
      <trkpt lat="50.611805" lon="-2.475700"><ele>815.0</ele><time>2026-05-02T11:27:37Z</time></trkpt>
      <trkpt lat="50.612486" lon="-2.475245"><ele>810.8</ele><time>2026-05-02T11:28:35Z</time></trkpt>
      <trkpt lat="50.613180" lon="-2.474790"><ele>806.3</ele><time>2026-05-02T11:29:34Z</time></trkpt>
      <trkpt lat="50.613885" lon="-2.474336"><ele>801.6</ele><time>2026-05-02T11:30:35Z</time></trkpt>
      <trkpt lat="50.614601" lon="-2.473883"><ele>796.6</ele><time>2026-05-02T11:31:37Z</time></trkpt>
      <trkpt lat="50.615325" lon="-2.473430"><ele>791.3</ele><time>2026-05-02T11:32:41Z</time></trkpt>
      <trkpt lat="50.616057" lon="-2.472977"><ele>785.7</ele><time>2026-05-02T11:33:45Z</time></trkpt>
      <trkpt lat="50.616794" lon="-2.472524"><ele>779.8</ele><time>2026-05-02T11:34:51Z</time></trkpt>
      <trkpt lat="50.617534" lon="-2.472072"><ele>773.6</ele><time>2026-05-02T11:35:56Z</time></trkpt>
      <trkpt lat="50.618278" lon="-2.471620"><ele>767.1</ele><time>2026-05-02T11:37:02Z</time></trkpt>
      <trkpt lat="50.619022" lon="-2.471168"><ele>760.4</ele><time>2026-05-02T11:38:08Z</time></trkpt>
      <trkpt lat="50.619765" lon="-2.470716"><ele>753.3</ele><time>2026-05-02T11:39:14Z</time></trkpt>
      <trkpt lat="50.620506" lon="-2.470265"><ele>745.9</ele><time>2026-05-02T11:40:20Z</time></trkpt>
      <trkpt lat="50.621242" lon="-2.469813"><ele>738.2</ele><time>2026-05-02T11:41:24Z</time></trkpt>
      <trkpt lat="50.621973" lon="-2.469361"><ele>730.2</ele><time>2026-05-02T11:42:28Z</time></trkpt>
      <trkpt lat="50.622696" lon="-2.468909"><ele>721.9</ele><time>2026-05-02T11:43:31Z</time></trkpt>
      <trkpt lat="50.623410" lon="-2.468457"><ele>713.3</ele><time>2026-05-02T11:44:32Z</time></trkpt>
      <trkpt lat="50.624114" lon="-2.468004"><ele>704.4</ele><time>2026-05-02T11:45:32Z</time></trkpt>
      <trkpt lat="50.624805" lon="-2.467552"><ele>695.2</ele><time>2026-05-02T11:46:30Z</time></trkpt>
      <trkpt lat="50.625483" lon="-2.467100"><ele>685.8</ele><time>2026-05-02T11:47:26Z</time></trkpt>
      <trkpt lat="50.626145" lon="-2.466647"><ele>676.1</ele><time>2026-05-02T11:48:20Z</time></trkpt>
      <trkpt lat="50.626790" lon="-2.466194"><ele>666.1</ele><time>2026-05-02T11:49:12Z</time></trkpt>
      <trkpt lat="50.627416" lon="-2.465742"><ele>656.0</ele><time>2026-05-02T11:50:02Z</time></trkpt>
      <trkpt lat="50.628023" lon="-2.465289"><ele>645.6</ele><time>2026-05-02T11:50:50Z</time></trkpt>
      <trkpt lat="50.628608" lon="-2.464836"><ele>635.0</ele><time>2026-05-02T11:51:35Z</time></trkpt>
      <trkpt lat="50.629171" lon="-2.464384"><ele>624.3</ele><time>2026-05-02T11:52:18Z</time></trkpt>
      <trkpt lat="50.629710" lon="-2.463931"><ele>613.5</ele><time>2026-05-02T11:52:59Z</time></trkpt>
      <trkpt lat="50.630225" lon="-2.463479"><ele>602.4</ele><time>2026-05-02T11:53:38Z</time></trkpt>
      <trkpt lat="50.630713" lon="-2.463028"><ele>591.3</ele><time>2026-05-02T11:54:15Z</time></trkpt>
      <trkpt lat="50.631174" lon="-2.462577"><ele>580.1</ele><time>2026-05-02T11:54:49Z</time></trkpt>
      <trkpt lat="50.631607" lon="-2.462126"><ele>568.8</ele><time>2026-05-02T11:55:21Z</time></trkpt>
      <trkpt lat="50.632011" lon="-2.461676"><ele>557.4</ele><time>2026-05-02T11:55:52Z</time></trkpt>
      <trkpt lat="50.632385" lon="-2.461227"><ele>546.0</ele><time>2026-05-02T11:56:20Z</time></trkpt>
      <trkpt lat="50.632730" lon="-2.460778"><ele>534.5</ele><time>2026-05-02T11:56:47Z</time></trkpt>
      <trkpt lat="50.633043" lon="-2.460330"><ele>523.0</ele><time>2026-05-02T11:57:12Z</time></trkpt>
      <trkpt lat="50.633325" lon="-2.459883"><ele>511.4</ele><time>2026-05-02T11:57:35Z</time></trkpt>
      <trkpt lat="50.633576" lon="-2.459437"><ele>499.8</ele><time>2026-05-02T11:57:58Z</time></trkpt>
      <trkpt lat="50.633795" lon="-2.458992"><ele>488.2</ele><time>2026-05-02T11:58:18Z</time></trkpt>
      <trkpt lat="50.633982" lon="-2.458548"><ele>476.5</ele><time>2026-05-02T11:58:38Z</time></trkpt>
      <trkpt lat="50.634137" lon="-2.458105"><ele>464.9</ele><time>2026-05-02T11:58:57Z</time></trkpt>
      <trkpt lat="50.634260" lon="-2.457662"><ele>453.2</ele><time>2026-05-02T11:59:15Z</time></trkpt>
      <trkpt lat="50.634351" lon="-2.457221"><ele>441.4</ele><time>2026-05-02T11:59:32Z</time></trkpt>
      <trkpt lat="50.634410" lon="-2.456780"><ele>429.7</ele><time>2026-05-02T11:59:49Z</time></trkpt>
      <trkpt lat="50.634437" lon="-2.456339"><ele>417.9</ele><time>2026-05-02T12:00:06Z</time></trkpt>
      <trkpt lat="50.634434" lon="-2.455900"><ele>406.1</ele><time>2026-05-02T12:00:23Z</time></trkpt>
      <trkpt lat="50.634399" lon="-2.455461"><ele>394.3</ele><time>2026-05-02T12:00:41Z</time></trkpt>
      <trkpt lat="50.634334" lon="-2.455022"><ele>382.5</ele><time>2026-05-02T12:00:59Z</time></trkpt>
      <trkpt lat="50.634239" lon="-2.454583"><ele>370.7</ele><time>2026-05-02T12:01:18Z</time></trkpt>
      <trkpt lat="50.634114" lon="-2.454144"><ele>358.9</ele><time>2026-05-02T12:01:38Z</time></trkpt>
      <trkpt lat="50.633961" lon="-2.453705"><ele>347.1</ele><time>2026-05-02T12:01:59Z</time></trkpt>
      <trkpt lat="50.633779" lon="-2.453265"><ele>335.3</ele><time>2026-05-02T12:02:22Z</time></trkpt>
      <trkpt lat="50.633570" lon="-2.452825"><ele>323.6</ele><time>2026-05-02T12:02:47Z</time></trkpt>
      <trkpt lat="50.633333" lon="-2.452384"><ele>312.0</ele><time>2026-05-02T12:03:13Z</time></trkpt>
      <trkpt lat="50.633070" lon="-2.451942"><ele>300.4</ele><time>2026-05-02T12:03:40Z</time></trkpt>
      <trkpt lat="50.632781" lon="-2.451499"><ele>289.0</ele><time>2026-05-02T12:04:10Z</time></trkpt>
      <trkpt lat="50.632468" lon="-2.451054"><ele>277.7</ele><time>2026-05-02T12:04:42Z</time></trkpt>
      <trkpt lat="50.632130" lon="-2.450607"><ele>266.5</ele><time>2026-05-02T12:05:15Z</time></trkpt>
      <trkpt lat="50.631769" lon="-2.450158"><ele>255.4</ele><time>2026-05-02T12:05:51Z</time></trkpt>
      <trkpt lat="50.631385" lon="-2.449707"><ele>244.6</ele><time>2026-05-02T12:06:29Z</time></trkpt>
      <trkpt lat="50.630979" lon="-2.449254"><ele>233.9</ele><time>2026-05-02T12:07:08Z</time></trkpt>
      <trkpt lat="50.630552" lon="-2.448798"><ele>223.5</ele><time>2026-05-02T12:07:50Z</time></trkpt>
      <trkpt lat="50.630105" lon="-2.448339"><ele>213.2</ele><time>2026-05-02T12:08:33Z</time></trkpt>
      <trkpt lat="50.629639" lon="-2.447877"><ele>203.2</ele><time>2026-05-02T12:09:18Z</time></trkpt>
      <trkpt lat="50.629154" lon="-2.447413"><ele>193.5</ele><time>2026-05-02T12:10:05Z</time></trkpt>
      <trkpt lat="50.628653" lon="-2.446945"><ele>184.0</ele><time>2026-05-02T12:10:53Z</time></trkpt>
      <trkpt lat="50.628135" lon="-2.446474"><ele>174.8</ele><time>2026-05-02T12:11:42Z</time></trkpt>
      <trkpt lat="50.627602" lon="-2.446000"><ele>165.8</ele><time>2026-05-02T12:12:33Z</time></trkpt>
      <trkpt lat="50.627055" lon="-2.445524"><ele>157.2</ele><time>2026-05-02T12:13:25Z</time></trkpt>
      <trkpt lat="50.626496" lon="-2.445044"><ele>148.8</ele><time>2026-05-02T12:14:17Z</time></trkpt>
      <trkpt lat="50.625925" lon="-2.444561"><ele>140.6</ele><time>2026-05-02T12:15:10Z</time></trkpt>
      <trkpt lat="50.625344" lon="-2.444075"><ele>132.8</ele><time>2026-05-02T12:16:04Z</time></trkpt>
      <trkpt lat="50.624755" lon="-2.443587"><ele>125.2</ele><time>2026-05-02T12:16:58Z</time></trkpt>
      <trkpt lat="50.624158" lon="-2.443097"><ele>117.8</ele><time>2026-05-02T12:17:52Z</time></trkpt>
      <trkpt lat="50.623557" lon="-2.442605"><ele>110.8</ele><time>2026-05-02T12:18:45Z</time></trkpt>
      <trkpt lat="50.622951" lon="-2.442110"><ele>104.0</ele><time>2026-05-02T12:19:39Z</time></trkpt>
      <trkpt lat="50.622343" lon="-2.441615"><ele>97.4</ele><time>2026-05-02T12:20:31Z</time></trkpt>
      <trkpt lat="50.621735" lon="-2.441118"><ele>91.1</ele><time>2026-05-02T12:21:23Z</time></trkpt>
      <trkpt lat="50.621128" lon="-2.440621"><ele>85.1</ele><time>2026-05-02T12:22:14Z</time></trkpt>
      <trkpt lat="50.620524" lon="-2.440124"><ele>79.3</ele><time>2026-05-02T12:23:04Z</time></trkpt>
      <trkpt lat="50.619926" lon="-2.439627"><ele>73.8</ele><time>2026-05-02T12:23:53Z</time></trkpt>
      <trkpt lat="50.619335" lon="-2.439132"><ele>68.6</ele><time>2026-05-02T12:24:40Z</time></trkpt>
      <trkpt lat="50.618753" lon="-2.438637"><ele>63.6</ele><time>2026-05-02T12:25:25Z</time></trkpt>
      <trkpt lat="50.618183" lon="-2.438144"><ele>58.9</ele><time>2026-05-02T12:26:10Z</time></trkpt>
      <trkpt lat="50.617625" lon="-2.437654"><ele>54.5</ele><time>2026-05-02T12:26:52Z</time></trkpt>
      <trkpt lat="50.617082" lon="-2.437167"><ele>50.5</ele><time>2026-05-02T12:27:33Z</time></trkpt>
      <trkpt lat="50.616557" lon="-2.436684"><ele>46.7</ele><time>2026-05-02T12:28:12Z</time></trkpt>
      <trkpt lat="50.616050" lon="-2.436205"><ele>43.3</ele><time>2026-05-02T12:28:49Z</time></trkpt>
      <trkpt lat="50.615564" lon="-2.435730"><ele>40.2</ele><time>2026-05-02T12:29:24Z</time></trkpt>
      <trkpt lat="50.615101" lon="-2.435261"><ele>37.4</ele><time>2026-05-02T12:29:58Z</time></trkpt>
      <trkpt lat="50.614662" lon="-2.434797"><ele>35.0</ele><time>2026-05-02T12:30:30Z</time></trkpt>
      <trkpt lat="50.614249" lon="-2.434339"><ele>33.0</ele><time>2026-05-02T12:31:00Z</time></trkpt>
      <trkpt lat="50.613862" lon="-2.433888"><ele>31.4</ele><time>2026-05-02T12:31:28Z</time></trkpt>
      <trkpt lat="50.613505" lon="-2.433444"><ele>30.2</ele><time>2026-05-02T12:31:55Z</time></trkpt>
      <trkpt lat="50.613178" lon="-2.433007"><ele>29.3</ele><time>2026-05-02T12:32:20Z</time></trkpt>
      <trkpt lat="50.612882" lon="-2.432577"><ele>28.9</ele><time>2026-05-02T12:32:43Z</time></trkpt>
      <trkpt lat="50.612617" lon="-2.432155"><ele>28.8</ele><time>2026-05-02T12:33:05Z</time></trkpt>
      <trkpt lat="50.612386" lon="-2.431742"><ele>29.2</ele><time>2026-05-02T12:33:26Z</time></trkpt>
      <trkpt lat="50.612189" lon="-2.431336"><ele>30.0</ele><time>2026-05-02T12:33:45Z</time></trkpt>
      <trkpt lat="50.612025" lon="-2.430938"><ele>31.1</ele><time>2026-05-02T12:34:03Z</time></trkpt>
      <trkpt lat="50.611896" lon="-2.430548"><ele>32.7</ele><time>2026-05-02T12:34:20Z</time></trkpt>
      <trkpt lat="50.611802" lon="-2.430166"><ele>34.6</ele><time>2026-05-02T12:34:35Z</time></trkpt>
      <trkpt lat="50.611743" lon="-2.429791"><ele>36.9</ele><time>2026-05-02T12:34:51Z</time></trkpt>
      <trkpt lat="50.611719" lon="-2.429424"><ele>39.5</ele><time>2026-05-02T12:35:05Z</time></trkpt>
      <trkpt lat="50.611729" lon="-2.429063"><ele>42.5</ele><time>2026-05-02T12:35:20Z</time></trkpt>
      <trkpt lat="50.611774" lon="-2.428709"><ele>45.8</ele><time>2026-05-02T12:35:35Z</time></trkpt>
      <trkpt lat="50.611852" lon="-2.428362"><ele>49.4</ele><time>2026-05-02T12:35:50Z</time></trkpt>
      <trkpt lat="50.611964" lon="-2.428019"><ele>53.4</ele><time>2026-05-02T12:36:07Z</time></trkpt>
      <trkpt lat="50.612109" lon="-2.427682"><ele>57.6</ele><time>2026-05-02T12:36:25Z</time></trkpt>
      <trkpt lat="50.612286" lon="-2.427348"><ele>62.1</ele><time>2026-05-02T12:36:44Z</time></trkpt>
      <trkpt lat="50.612494" lon="-2.427018"><ele>67.0</ele><time>2026-05-02T12:37:05Z</time></trkpt>
      <trkpt lat="50.612733" lon="-2.426690"><ele>72.1</ele><time>2026-05-02T12:37:28Z</time></trkpt>
      <trkpt lat="50.613001" lon="-2.426364"><ele>77.4</ele><time>2026-05-02T12:37:54Z</time></trkpt>
      <trkpt lat="50.613297" lon="-2.426038"><ele>83.0</ele><time>2026-05-02T12:38:21Z</time></trkpt>
      <trkpt lat="50.613622" lon="-2.425712"><ele>88.9</ele><time>2026-05-02T12:38:50Z</time></trkpt>
      <trkpt lat="50.613972" lon="-2.425385"><ele>95.1</ele><time>2026-05-02T12:39:22Z</time></trkpt>
      <trkpt lat="50.614349" lon="-2.425055"><ele>101.5</ele><time>2026-05-02T12:39:56Z</time></trkpt>
      <trkpt lat="50.614751" lon="-2.424723"><ele>108.2</ele><time>2026-05-02T12:40:33Z</time></trkpt>
      <trkpt lat="50.615176" lon="-2.424385"><ele>115.2</ele><time>2026-05-02T12:41:11Z</time></trkpt>
      <trkpt lat="50.615624" lon="-2.424043"><ele>122.4</ele><time>2026-05-02T12:41:52Z</time></trkpt>
      <trkpt lat="50.616094" lon="-2.423694"><ele>129.9</ele><time>2026-05-02T12:42:34Z</time></trkpt>
      <trkpt lat="50.616585" lon="-2.423338"><ele>137.7</ele><time>2026-05-02T12:43:19Z</time></trkpt>
      <trkpt lat="50.617097" lon="-2.422973"><ele>145.8</ele><time>2026-05-02T12:44:05Z</time></trkpt>
      <trkpt lat="50.617628" lon="-2.422600"><ele>154.1</ele><time>2026-05-02T12:44:53Z</time></trkpt>
      <trkpt lat="50.618178" lon="-2.422216"><ele>162.7</ele><time>2026-05-02T12:45:43Z</time></trkpt>
      <trkpt lat="50.618746" lon="-2.421821"><ele>171.7</ele><time>2026-05-02T12:46:35Z</time></trkpt>
      <trkpt lat="50.619331" lon="-2.421416"><ele>180.8</ele><time>2026-05-02T12:47:27Z</time></trkpt>
      <trkpt lat="50.619933" lon="-2.420997"><ele>190.3</ele><time>2026-05-02T12:48:21Z</time></trkpt>
      <trkpt lat="50.620551" lon="-2.420567"><ele>200.0</ele><time>2026-05-02T12:49:16Z</time></trkpt>
      <trkpt lat="50.621184" lon="-2.420123"><ele>210.0</ele><time>2026-05-02T12:50:12Z</time></trkpt>
      <trkpt lat="50.621832" lon="-2.419665"><ele>220.2</ele><time>2026-05-02T12:51:08Z</time></trkpt>
      <trkpt lat="50.622494" lon="-2.419194"><ele>230.6</ele><time>2026-05-02T12:52:05Z</time></trkpt>
      <trkpt lat="50.623169" lon="-2.418709"><ele>241.2</ele><time>2026-05-02T12:53:03Z</time></trkpt>
      <trkpt lat="50.623857" lon="-2.418210"><ele>252.1</ele><time>2026-05-02T12:54:01Z</time></trkpt>
      <trkpt lat="50.624556" lon="-2.417697"><ele>263.1</ele><time>2026-05-02T12:54:59Z</time></trkpt>
      <trkpt lat="50.625266" lon="-2.417170"><ele>274.2</ele><time>2026-05-02T12:55:57Z</time></trkpt>
      <trkpt lat="50.625986" lon="-2.416630"><ele>285.5</ele><time>2026-05-02T12:56:55Z</time></trkpt>
      <trkpt lat="50.626714" lon="-2.416077"><ele>296.9</ele><time>2026-05-02T12:57:52Z</time></trkpt>
      <trkpt lat="50.627451" lon="-2.415511"><ele>308.4</ele><time>2026-05-02T12:58:49Z</time></trkpt>
      <trkpt lat="50.628193" lon="-2.414934"><ele>320.0</ele><time>2026-05-02T12:59:46Z</time></trkpt>
      <trkpt lat="50.628941" lon="-2.414346"><ele>331.6</ele><time>2026-05-02T13:00:42Z</time></trkpt>
      <trkpt lat="50.629693" lon="-2.413747"><ele>343.3</ele><time>2026-05-02T13:01:38Z</time></trkpt>
      <trkpt lat="50.630446" lon="-2.413139"><ele>355.0</ele><time>2026-05-02T13:02:33Z</time></trkpt>
      <trkpt lat="50.631201" lon="-2.412523"><ele>366.7</ele><time>2026-05-02T13:03:27Z</time></trkpt>
      <trkpt lat="50.631954" lon="-2.411899"><ele>378.5</ele><time>2026-05-02T13:04:20Z</time></trkpt>
      <trkpt lat="50.632704" lon="-2.411270"><ele>390.2</ele><time>2026-05-02T13:05:12Z</time></trkpt>
      <trkpt lat="50.633450" lon="-2.410636"><ele>402.0</ele><time>2026-05-02T13:06:03Z</time></trkpt>
      <trkpt lat="50.634188" lon="-2.409999"><ele>413.8</ele><time>2026-05-02T13:06:54Z</time></trkpt>
      <trkpt lat="50.634918" lon="-2.409360"><ele>425.5</ele><time>2026-05-02T13:07:43Z</time></trkpt>
      <trkpt lat="50.635637" lon="-2.408720"><ele>437.2</ele><time>2026-05-02T13:08:32Z</time></trkpt>
      <trkpt lat="50.636342" lon="-2.408081"><ele>449.0</ele><time>2026-05-02T13:09:19Z</time></trkpt>
      <trkpt lat="50.637032" lon="-2.407444"><ele>460.7</ele><time>2026-05-02T13:10:06Z</time></trkpt>
      <trkpt lat="50.637705" lon="-2.406811"><ele>472.4</ele><time>2026-05-02T13:10:52Z</time></trkpt>
      <trkpt lat="50.638358" lon="-2.406183"><ele>484.1</ele><time>2026-05-02T13:11:36Z</time></trkpt>
      <trkpt lat="50.638989" lon="-2.405561"><ele>495.7</ele><time>2026-05-02T13:12:20Z</time></trkpt>
      <trkpt lat="50.639595" lon="-2.404948"><ele>507.4</ele><time>2026-05-02T13:13:03Z</time></trkpt>
      <trkpt lat="50.640176" lon="-2.404343"><ele>519.0</ele><time>2026-05-02T13:13:44Z</time></trkpt>
      <trkpt lat="50.640728" lon="-2.403749"><ele>530.6</ele><time>2026-05-02T13:14:25Z</time></trkpt>
      <trkpt lat="50.641250" lon="-2.403167"><ele>542.1</ele><time>2026-05-02T13:15:04Z</time></trkpt>
      <trkpt lat="50.641740" lon="-2.402597"><ele>553.7</ele><time>2026-05-02T13:15:42Z</time></trkpt>
      <trkpt lat="50.642196" lon="-2.402041"><ele>565.1</ele><time>2026-05-02T13:16:18Z</time></trkpt>
      <trkpt lat="50.642618" lon="-2.401500"><ele>576.5</ele><time>2026-05-02T13:16:53Z</time></trkpt>
      <trkpt lat="50.643002" lon="-2.400974"><ele>587.8</ele><time>2026-05-02T13:17:27Z</time></trkpt>
      <trkpt lat="50.643349" lon="-2.400465"><ele>599.0</ele><time>2026-05-02T13:17:58Z</time></trkpt>
      <trkpt lat="50.643657" lon="-2.399971"><ele>610.1</ele><time>2026-05-02T13:18:28Z</time></trkpt>
      <trkpt lat="50.643925" lon="-2.399495"><ele>621.0</ele><time>2026-05-02T13:18:56Z</time></trkpt>
      <trkpt lat="50.644153" lon="-2.399037"><ele>631.8</ele><time>2026-05-02T13:19:23Z</time></trkpt>
      <trkpt lat="50.644339" lon="-2.398596"><ele>642.4</ele><time>2026-05-02T13:19:47Z</time></trkpt>
      <trkpt lat="50.644485" lon="-2.398172"><ele>652.8</ele><time>2026-05-02T13:20:09Z</time></trkpt>
      <trkpt lat="50.644590" lon="-2.397766"><ele>663.0</ele><time>2026-05-02T13:20:30Z</time></trkpt>
      <trkpt lat="50.644653" lon="-2.397377"><ele>673.0</ele><time>2026-05-02T13:20:50Z</time></trkpt>
      <trkpt lat="50.644676" lon="-2.397004"><ele>682.7</ele><time>2026-05-02T13:21:08Z</time></trkpt>
      <trkpt lat="50.644659" lon="-2.396648"><ele>692.2</ele><time>2026-05-02T13:21:26Z</time></trkpt>
      <trkpt lat="50.644602" lon="-2.396307"><ele>701.4</ele><time>2026-05-02T13:21:44Z</time></trkpt>
      <trkpt lat="50.644506" lon="-2.395981"><ele>710.3</ele><time>2026-05-02T13:22:02Z</time></trkpt>
      <trkpt lat="50.644373" lon="-2.395669"><ele>719.0</ele><time>2026-05-02T13:22:21Z</time></trkpt>
      <trkpt lat="50.644203" lon="-2.395370"><ele>727.3</ele><time>2026-05-02T13:22:42Z</time></trkpt>
      <trkpt lat="50.643998" lon="-2.395082"><ele>735.4</ele><time>2026-05-02T13:23:05Z</time></trkpt>
      <trkpt lat="50.643759" lon="-2.394804"><ele>743.1</ele><time>2026-05-02T13:23:29Z</time></trkpt>
      <trkpt lat="50.643487" lon="-2.394536"><ele>750.6</ele><time>2026-05-02T13:23:56Z</time></trkpt>
      <trkpt lat="50.643185" lon="-2.394275"><ele>757.8</ele><time>2026-05-02T13:24:24Z</time></trkpt>
      <trkpt lat="50.642853" lon="-2.394020"><ele>764.6</ele><time>2026-05-02T13:24:55Z</time></trkpt>
      <trkpt lat="50.642494" lon="-2.393770"><ele>771.2</ele><time>2026-05-02T13:25:27Z</time></trkpt>
      <trkpt lat="50.642109" lon="-2.393523"><ele>777.5</ele><time>2026-05-02T13:26:01Z</time></trkpt>
      <trkpt lat="50.641699" lon="-2.393277"><ele>783.5</ele><time>2026-05-02T13:26:37Z</time></trkpt>
      <trkpt lat="50.641268" lon="-2.393032"><ele>789.2</ele><time>2026-05-02T13:27:14Z</time></trkpt>
      <trkpt lat="50.640815" lon="-2.392784"><ele>794.6</ele><time>2026-05-02T13:27:53Z</time></trkpt>
      <trkpt lat="50.640344" lon="-2.392534"><ele>799.8</ele><time>2026-05-02T13:28:32Z</time></trkpt>
      <trkpt lat="50.639855" lon="-2.392279"><ele>804.7</ele><time>2026-05-02T13:29:12Z</time></trkpt>
      <trkpt lat="50.639350" lon="-2.392017"><ele>809.3</ele><time>2026-05-02T13:29:53Z</time></trkpt>
      <trkpt lat="50.638832" lon="-2.391748"><ele>813.6</ele><time>2026-05-02T13:30:35Z</time></trkpt>
      <trkpt lat="50.638300" lon="-2.391470"><ele>817.7</ele><time>2026-05-02T13:31:16Z</time></trkpt>
      <trkpt lat="50.637758" lon="-2.391182"><ele>821.4</ele><time>2026-05-02T13:31:58Z</time></trkpt>
      <trkpt lat="50.637206" lon="-2.390882"><ele>824.9</ele><time>2026-05-02T13:32:40Z</time></trkpt>
      <trkpt lat="50.636646" lon="-2.390569"><ele>828.0</ele><time>2026-05-02T13:33:22Z</time></trkpt>
      <trkpt lat="50.636079" lon="-2.390243"><ele>830.9</ele><time>2026-05-02T13:34:04Z</time></trkpt>
      <trkpt lat="50.635506" lon="-2.389902"><ele>833.4</ele><time>2026-05-02T13:34:46Z</time></trkpt>
      <trkpt lat="50.634929" lon="-2.389546"><ele>835.6</ele><time>2026-05-02T13:35:27Z</time></trkpt>
      <trkpt lat="50.634349" lon="-2.389174"><ele>837.4</ele><time>2026-05-02T13:36:08Z</time></trkpt>
      <trkpt lat="50.633767" lon="-2.388786"><ele>838.8</ele><time>2026-05-02T13:36:48Z</time></trkpt>
      <trkpt lat="50.633184" lon="-2.388382"><ele>839.9</ele><time>2026-05-02T13:37:29Z</time></trkpt>
      <trkpt lat="50.632601" lon="-2.387960"><ele>840.7</ele><time>2026-05-02T13:38:08Z</time></trkpt>
      <trkpt lat="50.632020" lon="-2.387522"><ele>841.0</ele><time>2026-05-02T13:38:48Z</time></trkpt>
    </trkseg>
  </trk>
</gpx>
