<?xml version="1.0" encoding="UTF-8"?>
<gpx creator="route-posters-sample" version="1.1" xmlns="http://www.topografix.com/GPX/1/1">
  <metadata><time>2026-05-16T07:05:00Z</time></metadata>
  <trk>
    <name>Hyde Park recovery</name>
    <type>running</type>
    <trkseg>
      <trkpt lat="51.507500" lon="-0.152568"><ele>30.0</ele><time>2026-05-16T07:05:00Z</time></trkpt>
      <trkpt lat="51.507652" lon="-0.152584"><ele>30.2</ele><time>2026-05-16T07:05:05Z</time></trkpt>
      <trkpt lat="51.507804" lon="-0.152605"><ele>30.5</ele><time>2026-05-16T07:05:11Z</time></trkpt>
      <trkpt lat="51.507955" lon="-0.152629"><ele>30.7</ele><time>2026-05-16T07:05:16Z</time></trkpt>
      <trkpt lat="51.508106" lon="-0.152658"><ele>30.9</ele><time>2026-05-16T07:05:22Z</time></trkpt>
      <trkpt lat="51.508257" lon="-0.152690"><ele>31.1</ele><time>2026-05-16T07:05:28Z</time></trkpt>
      <trkpt lat="51.508407" lon="-0.152727"><ele>31.3</ele><time>2026-05-16T07:05:34Z</time></trkpt>
      <trkpt lat="51.508557" lon="-0.152766"><ele>31.4</ele><time>2026-05-16T07:05:40Z</time></trkpt>
      <trkpt lat="51.508706" lon="-0.152810"><ele>31.4</ele><time>2026-05-16T07:05:46Z</time></trkpt>
      <trkpt lat="51.508854" lon="-0.152857"><ele>31.5</ele><time>2026-05-16T07:05:52Z</time></trkpt>
      <trkpt lat="51.509002" lon="-0.152907"><ele>31.5</ele><time>2026-05-16T07:05:59Z</time></trkpt>
      <trkpt lat="51.509150" lon="-0.152960"><ele>31.4</ele><time>2026-05-16T07:06:05Z</time></trkpt>
      <trkpt lat="51.509296" lon="-0.153017"><ele>31.4</ele><time>2026-05-16T07:06:11Z</time></trkpt>
      <trkpt lat="51.509443" lon="-0.153077"><ele>31.3</ele><time>2026-05-16T07:06:18Z</time></trkpt>
      <trkpt lat="51.509589" lon="-0.153140"><ele>31.2</ele><time>2026-05-16T07:06:24Z</time></trkpt>
      <trkpt lat="51.509734" lon="-0.153206"><ele>31.0</ele><time>2026-05-16T07:06:30Z</time></trkpt>
      <trkpt lat="51.509879" lon="-0.153275"><ele>30.9</ele><time>2026-05-16T07:06:36Z</time></trkpt>
      <trkpt lat="51.510023" lon="-0.153348"><ele>30.8</ele><time>2026-05-16T07:06:43Z</time></trkpt>
      <trkpt lat="51.510167" lon="-0.153424"><ele>30.7</ele><time>2026-05-16T07:06:49Z</time></trkpt>
      <trkpt lat="51.510311" lon="-0.153502"><ele>30.6</ele><time>2026-05-16T07:06:55Z</time></trkpt>
      <trkpt lat="51.510453" lon="-0.153585"><ele>30.6</ele><time>2026-05-16T07:07:01Z</time></trkpt>
      <trkpt lat="51.510595" lon="-0.153670"><ele>30.6</ele><time>2026-05-16T07:07:07Z</time></trkpt>
      <trkpt lat="51.510737" lon="-0.153759"><ele>30.7</ele><time>2026-05-16T07:07:13Z</time></trkpt>
      <trkpt lat="51.510878" lon="-0.153851"><ele>30.8</ele><time>2026-05-16T07:07:19Z</time></trkpt>
      <trkpt lat="51.511018" lon="-0.153947"><ele>31.0</ele><time>2026-05-16T07:07:25Z</time></trkpt>
      <trkpt lat="51.511157" lon="-0.154047"><ele>31.2</ele><time>2026-05-16T07:07:31Z</time></trkpt>
      <trkpt lat="51.511296" lon="-0.154150"><ele>31.5</ele><time>2026-05-16T07:07:37Z</time></trkpt>
      <trkpt lat="51.511434" lon="-0.154257"><ele>31.8</ele><time>2026-05-16T07:07:42Z</time></trkpt>
      <trkpt lat="51.511571" lon="-0.154368"><ele>32.2</ele><time>2026-05-16T07:07:48Z</time></trkpt>
      <trkpt lat="51.511707" lon="-0.154483"><ele>32.5</ele><time>2026-05-16T07:07:53Z</time></trkpt>
      <trkpt lat="51.511842" lon="-0.154602"><ele>33.0</ele><time>2026-05-16T07:07:58Z</time></trkpt>
      <trkpt lat="51.511975" lon="-0.154725"><ele>33.4</ele><time>2026-05-16T07:08:04Z</time></trkpt>
      <trkpt lat="51.512108" lon="-0.154853"><ele>33.9</ele><time>2026-05-16T07:08:09Z</time></trkpt>
      <trkpt lat="51.512239" lon="-0.154984"><ele>34.3</ele><time>2026-05-16T07:08:14Z</time></trkpt>
      <trkpt lat="51.512369" lon="-0.155120"><ele>34.8</ele><time>2026-05-16T07:08:19Z</time></trkpt>
      <trkpt lat="51.512497" lon="-0.155261"><ele>35.2</ele><time>2026-05-16T07:08:24Z</time></trkpt>
      <trkpt lat="51.512623" lon="-0.155406"><ele>35.6</ele><time>2026-05-16T07:08:28Z</time></trkpt>
      <trkpt lat="51.512747" lon="-0.155556"><ele>35.9</ele><time>2026-05-16T07:08:33Z</time></trkpt>
      <trkpt lat="51.512870" lon="-0.155710"><ele>36.3</ele><time>2026-05-16T07:08:38Z</time></trkpt>
      <trkpt lat="51.512991" lon="-0.155869"><ele>36.5</ele><time>2026-05-16T07:08:42Z</time></trkpt>
      <trkpt lat="51.513109" lon="-0.156033"><ele>36.8</ele><time>2026-05-16T07:08:47Z</time></trkpt>
      <trkpt lat="51.513225" lon="-0.156201"><ele>37.0</ele><time>2026-05-16T07:08:52Z</time></trkpt>
      <trkpt lat="51.513339" lon="-0.156374"><ele>37.1</ele><time>2026-05-16T07:08:56Z</time></trkpt>
      <trkpt lat="51.513450" lon="-0.156551"><ele>37.2</ele><time>2026-05-16T07:09:01Z</time></trkpt>
      <trkpt lat="51.513558" lon="-0.156733"><ele>37.3</ele><time>2026-05-16T07:09:06Z</time></trkpt>
      <trkpt lat="51.513663" lon="-0.156919"><ele>37.3</ele><time>2026-05-16T07:09:10Z</time></trkpt>
      <trkpt lat="51.513766" lon="-0.157110"><ele>37.4</ele><time>2026-05-16T07:09:15Z</time></trkpt>
      <trkpt lat="51.513866" lon="-0.157305"><ele>37.4</ele><time>2026-05-16T07:09:20Z</time></trkpt>
      <trkpt lat="51.513962" lon="-0.157504"><ele>37.4</ele><time>2026-05-16T07:09:24Z</time></trkpt>
      <trkpt lat="51.514055" lon="-0.157707"><ele>37.5</ele><time>2026-05-16T07:09:29Z</time></trkpt>
      <trkpt lat="51.514145" lon="-0.157914"><ele>37.5</ele><time>2026-05-16T07:09:34Z</time></trkpt>
      <trkpt lat="51.514231" lon="-0.158125"><ele>37.6</ele><time>2026-05-16T07:09:39Z</time></trkpt>
      <trkpt lat="51.514314" lon="-0.158339"><ele>37.7</ele><time>2026-05-16T07:09:44Z</time></trkpt>
      <trkpt lat="51.514394" lon="-0.158557"><ele>37.8</ele><time>2026-05-16T07:09:50Z</time></trkpt>
      <trkpt lat="51.514469" lon="-0.158778"><ele>38.0</ele><time>2026-05-16T07:09:55Z</time></trkpt>
      <trkpt lat="51.514541" lon="-0.159002"><ele>38.3</ele><time>2026-05-16T07:10:00Z</time></trkpt>
      <trkpt lat="51.514610" lon="-0.159229"><ele>38.6</ele><time>2026-05-16T07:10:06Z</time></trkpt>
      <trkpt lat="51.514674" lon="-0.159459"><ele>38.9</ele><time>2026-05-16T07:10:11Z</time></trkpt>
      <trkpt lat="51.514735" lon="-0.159692"><ele>39.3</ele><time>2026-05-16T07:10:17Z</time></trkpt>
      <trkpt lat="51.514792" lon="-0.159926"><ele>39.7</ele><time>2026-05-16T07:10:23Z</time></trkpt>
      <trkpt lat="51.514845" lon="-0.160163"><ele>40.2</ele><time>2026-05-16T07:10:29Z</time></trkpt>
      <trkpt lat="51.514895" lon="-0.160401"><ele>40.6</ele><time>2026-05-16T07:10:35Z</time></trkpt>
      <trkpt lat="51.514940" lon="-0.160642"><ele>41.1</ele><time>2026-05-16T07:10:41Z</time></trkpt>
      <trkpt lat="51.514982" lon="-0.160883"><ele>41.6</ele><time>2026-05-16T07:10:47Z</time></trkpt>
      <trkpt lat="51.515021" lon="-0.161126"><ele>42.1</ele><time>2026-05-16T07:10:54Z</time></trkpt>
      <trkpt lat="51.515055" lon="-0.161371"><ele>42.6</ele><time>2026-05-16T07:11:00Z</time></trkpt>
      <trkpt lat="51.515087" lon="-0.161616"><ele>43.0</ele><time>2026-05-16T07:11:06Z</time></trkpt>
      <trkpt lat="51.515114" lon="-0.161862"><ele>43.5</ele><time>2026-05-16T07:11:13Z</time></trkpt>
      <trkpt lat="51.515138" lon="-0.162108"><ele>43.9</ele><time>2026-05-16T07:11:19Z</time></trkpt>
      <trkpt lat="51.515159" lon="-0.162355"><ele>44.2</ele><time>2026-05-16T07:11:26Z</time></trkpt>
      <trkpt lat="51.515177" lon="-0.162602"><ele>44.5</ele><time>2026-05-16T07:11:32Z</time></trkpt>
      <trkpt lat="51.515191" lon="-0.162849"><ele>44.7</ele><time>2026-05-16T07:11:39Z</time></trkpt>
      <trkpt lat="51.515202" lon="-0.163096"><ele>44.9</ele><time>2026-05-16T07:11:45Z</time></trkpt>
      <trkpt lat="51.515210" lon="-0.163343"><ele>45.1</ele><time>2026-05-16T07:11:51Z</time></trkpt>
      <trkpt lat="51.515215" lon="-0.163590"><ele>45.1</ele><time>2026-05-16T07:11:58Z</time></trkpt>
      <trkpt lat="51.515217" lon="-0.163837"><ele>45.2</ele><time>2026-05-16T07:12:04Z</time></trkpt>
      <trkpt lat="51.515217" lon="-0.164083"><ele>45.2</ele><time>2026-05-16T07:12:10Z</time></trkpt>
      <trkpt lat="51.515214" lon="-0.164328"><ele>45.2</ele><time>2026-05-16T07:12:16Z</time></trkpt>
      <trkpt lat="51.515208" lon="-0.164573"><ele>45.2</ele><time>2026-05-16T07:12:23Z</time></trkpt>
      <trkpt lat="51.515199" lon="-0.164817"><ele>45.1</ele><time>2026-05-16T07:12:29Z</time></trkpt>
      <trkpt lat="51.515188" lon="-0.165061"><ele>45.1</ele><time>2026-05-16T07:12:34Z</time></trkpt>
      <trkpt lat="51.515175" lon="-0.165304"><ele>45.0</ele><time>2026-05-16T07:12:40Z</time></trkpt>
      <trkpt lat="51.515159" lon="-0.165546"><ele>45.0</ele><time>2026-05-16T07:12:46Z</time></trkpt>
      <trkpt lat="51.515141" lon="-0.165787"><ele>45.0</ele><time>2026-05-16T07:12:51Z</time></trkpt>
      <trkpt lat="51.515121" lon="-0.166027"><ele>45.0</ele><time>2026-05-16T07:12:57Z</time></trkpt>
      <trkpt lat="51.515099" lon="-0.166267"><ele>45.1</ele><time>2026-05-16T07:13:02Z</time></trkpt>
      <trkpt lat="51.515074" lon="-0.166506"><ele>45.2</ele><time>2026-05-16T07:13:07Z</time></trkpt>
      <trkpt lat="51.515048" lon="-0.166744"><ele>45.4</ele><time>2026-05-16T07:13:13Z</time></trkpt>
      <trkpt lat="51.515019" lon="-0.166981"><ele>45.6</ele><time>2026-05-16T07:13:18Z</time></trkpt>
      <trkpt lat="51.514989" lon="-0.167217"><ele>45.8</ele><time>2026-05-16T07:13:23Z</time></trkpt>
      <trkpt lat="51.514956" lon="-0.167452"><ele>46.1</ele><time>2026-05-16T07:13:27Z</time></trkpt>
      <trkpt lat="51.514922" lon="-0.167686"><ele>46.4</ele><time>2026-05-16T07:13:32Z</time></trkpt>
      <trkpt lat="51.514885" lon="-0.167920"><ele>46.7</ele><time>2026-05-16T07:13:37Z</time></trkpt>
      <trkpt lat="51.514847" lon="-0.168152"><ele>47.0</ele><time>2026-05-16T07:13:41Z</time></trkpt>
      <trkpt lat="51.514806" lon="-0.168384"><ele>47.3</ele><time>2026-05-16T07:13:46Z</time></trkpt>
      <trkpt lat="51.514764" lon="-0.168615"><ele>47.7</ele><time>2026-05-16T07:13:50Z</time></trkpt>
      <trkpt lat="51.514719" lon="-0.168844"><ele>48.0</ele><time>2026-05-16T07:13:55Z</time></trkpt>
      <trkpt lat="51.514672" lon="-0.169073"><ele>48.3</ele><time>2026-05-16T07:13:59Z</time></trkpt>
      <trkpt lat="51.514624" lon="-0.169301"><ele>48.5</ele><time>2026-05-16T07:14:04Z</time></trkpt>
      <trkpt lat="51.514573" lon="-0.169528"><ele>48.8</ele><time>2026-05-16T07:14:08Z</time></trkpt>
      <trkpt lat="51.514520" lon="-0.169753"><ele>48.9</ele><time>2026-05-16T07:14:13Z</time></trkpt>
      <trkpt lat="51.514465" lon="-0.169978"><ele>49.1</ele><time>2026-05-16T07:14:17Z</time></trkpt>
      <trkpt lat="51.514407" lon="-0.170201"><ele>49.1</ele><time>2026-05-16T07:14:21Z</time></trkpt>
      <trkpt lat="51.514347" lon="-0.170423"><ele>49.1</ele><time>2026-05-16T07:14:26Z</time></trkpt>
      <trkpt lat="51.514285" lon="-0.170643"><ele>49.1</ele><time>2026-05-16T07:14:31Z</time></trkpt>
      <trkpt lat="51.514221" lon="-0.170862"><ele>49.0</ele><time>2026-05-16T07:14:35Z</time></trkpt>
      <trkpt lat="51.514154" lon="-0.171079"><ele>48.9</ele><time>2026-05-16T07:14:40Z</time></trkpt>
      <trkpt lat="51.514085" lon="-0.171295"><ele>48.7</ele><time>2026-05-16T07:14:45Z</time></trkpt>
      <trkpt lat="51.514013" lon="-0.171509"><ele>48.4</ele><time>2026-05-16T07:14:50Z</time></trkpt>
      <trkpt lat="51.513939" lon="-0.171721"><ele>48.2</ele><time>2026-05-16T07:14:55Z</time></trkpt>
      <trkpt lat="51.513862" lon="-0.171930"><ele>47.9</ele><time>2026-05-16T07:15:00Z</time></trkpt>
      <trkpt lat="51.513783" lon="-0.172138"><ele>47.7</ele><time>2026-05-16T07:15:05Z</time></trkpt>
      <trkpt lat="51.513701" lon="-0.172343"><ele>47.4</ele><time>2026-05-16T07:15:10Z</time></trkpt>
      <trkpt lat="51.513616" lon="-0.172546"><ele>47.1</ele><time>2026-05-16T07:15:16Z</time></trkpt>
      <trkpt lat="51.513529" lon="-0.172747"><ele>46.9</ele><time>2026-05-16T07:15:21Z</time></trkpt>
      <trkpt lat="51.513439" lon="-0.172944"><ele>46.7</ele><time>2026-05-16T07:15:27Z</time></trkpt>
      <trkpt lat="51.513346" lon="-0.173139"><ele>46.5</ele><time>2026-05-16T07:15:32Z</time></trkpt>
      <trkpt lat="51.513251" lon="-0.173330"><ele>46.4</ele><time>2026-05-16T07:15:38Z</time></trkpt>
      <trkpt lat="51.513153" lon="-0.173519"><ele>46.3</ele><time>2026-05-16T07:15:44Z</time></trkpt>
      <trkpt lat="51.513052" lon="-0.173703"><ele>46.2</ele><time>2026-05-16T07:15:50Z</time></trkpt>
      <trkpt lat="51.512949" lon="-0.173885"><ele>46.2</ele><time>2026-05-16T07:15:56Z</time></trkpt>
      <trkpt lat="51.512843" lon="-0.174063"><ele>46.2</ele><time>2026-05-16T07:16:02Z</time></trkpt>
      <trkpt lat="51.512735" lon="-0.174237"><ele>46.3</ele><time>2026-05-16T07:16:09Z</time></trkpt>
      <trkpt lat="51.512624" lon="-0.174407"><ele>46.3</ele><time>2026-05-16T07:16:15Z</time></trkpt>
      <trkpt lat="51.512511" lon="-0.174573"><ele>46.4</ele><time>2026-05-16T07:16:21Z</time></trkpt>
      <trkpt lat="51.512395" lon="-0.174734"><ele>46.5</ele><time>2026-05-16T07:16:28Z</time></trkpt>
      <trkpt lat="51.512277" lon="-0.174892"><ele>46.6</ele><time>2026-05-16T07:16:34Z</time></trkpt>
      <trkpt lat="51.512156" lon="-0.175045"><ele>46.7</ele><time>2026-05-16T07:16:41Z</time></trkpt>
      <trkpt lat="51.512033" lon="-0.175193"><ele>46.8</ele><time>2026-05-16T07:16:47Z</time></trkpt>
      <trkpt lat="51.511908" lon="-0.175337"><ele>46.8</ele><time>2026-05-16T07:16:53Z</time></trkpt>
      <trkpt lat="51.511781" lon="-0.175475"><ele>46.8</ele><time>2026-05-16T07:17:00Z</time></trkpt>
      <trkpt lat="51.511652" lon="-0.175609"><ele>46.8</ele><time>2026-05-16T07:17:06Z</time></trkpt>
      <trkpt lat="51.511521" lon="-0.175738"><ele>46.7</ele><time>2026-05-16T07:17:12Z</time></trkpt>
      <trkpt lat="51.511389" lon="-0.175863"><ele>46.5</ele><time>2026-05-16T07:17:19Z</time></trkpt>
      <trkpt lat="51.511254" lon="-0.175982"><ele>46.4</ele><time>2026-05-16T07:17:25Z</time></trkpt>
      <trkpt lat="51.511118" lon="-0.176095"><ele>46.1</ele><time>2026-05-16T07:17:31Z</time></trkpt>
      <trkpt lat="51.510980" lon="-0.176204"><ele>45.8</ele><time>2026-05-16T07:17:37Z</time></trkpt>
      <trkpt lat="51.510841" lon="-0.176308"><ele>45.5</ele><time>2026-05-16T07:17:43Z</time></trkpt>
      <trkpt lat="51.510700" lon="-0.176406"><ele>45.1</ele><time>2026-05-16T07:17:49Z</time></trkpt>
      <trkpt lat="51.510558" lon="-0.176499"><ele>44.7</ele><time>2026-05-16T07:17:54Z</time></trkpt>
      <trkpt lat="51.510415" lon="-0.176587"><ele>44.2</ele><time>2026-05-16T07:18:00Z</time></trkpt>
      <trkpt lat="51.510270" lon="-0.176669"><ele>43.8</ele><time>2026-05-16T07:18:05Z</time></trkpt>
      <trkpt lat="51.510125" lon="-0.176746"><ele>43.3</ele><time>2026-05-16T07:18:11Z</time></trkpt>
      <trkpt lat="51.509979" lon="-0.176818"><ele>42.8</ele><time>2026-05-16T07:18:16Z</time></trkpt>
      <trkpt lat="51.509831" lon="-0.176885"><ele>42.4</ele><time>2026-05-16T07:18:21Z</time></trkpt>
      <trkpt lat="51.509683" lon="-0.176947"><ele>41.9</ele><time>2026-05-16T07:18:26Z</time></trkpt>
      <trkpt lat="51.509535" lon="-0.177003"><ele>41.5</ele><time>2026-05-16T07:18:31Z</time></trkpt>
      <trkpt lat="51.509386" lon="-0.177055"><ele>41.2</ele><time>2026-05-16T07:18:36Z</time></trkpt>
      <trkpt lat="51.509236" lon="-0.177101"><ele>40.8</ele><time>2026-05-16T07:18:41Z</time></trkpt>
      <trkpt lat="51.509086" lon="-0.177143"><ele>40.5</ele><time>2026-05-16T07:18:46Z</time></trkpt>
      <trkpt lat="51.508935" lon="-0.177179"><ele>40.3</ele><time>2026-05-16T07:18:50Z</time></trkpt>
      <trkpt lat="51.508784" lon="-0.177210"><ele>40.1</ele><time>2026-05-16T07:18:55Z</time></trkpt>
      <trkpt lat="51.508633" lon="-0.177237"><ele>40.0</ele><time>2026-05-16T07:18:59Z</time></trkpt>
      <trkpt lat="51.508482" lon="-0.177259"><ele>39.8</ele><time>2026-05-16T07:19:04Z</time></trkpt>
      <trkpt lat="51.508331" lon="-0.177276"><ele>39.8</ele><time>2026-05-16T07:19:08Z</time></trkpt>
      <trkpt lat="51.508180" lon="-0.177288"><ele>39.7</ele><time>2026-05-16T07:19:13Z</time></trkpt>
      <trkpt lat="51.508028" lon="-0.177296"><ele>39.7</ele><time>2026-05-16T07:19:17Z</time></trkpt>
      <trkpt lat="51.507877" lon="-0.177299"><ele>39.6</ele><time>2026-05-16T07:19:22Z</time></trkpt>
      <trkpt lat="51.507726" lon="-0.177298"><ele>39.6</ele><time>2026-05-16T07:19:26Z</time></trkpt>
      <trkpt lat="51.507575" lon="-0.177293"><ele>39.6</ele><time>2026-05-16T07:19:31Z</time></trkpt>
      <trkpt lat="51.507425" lon="-0.177283"><ele>39.5</ele><time>2026-05-16T07:19:35Z</time></trkpt>
      <trkpt lat="51.507274" lon="-0.177269"><ele>39.4</ele><time>2026-05-16T07:19:40Z</time></trkpt>
      <trkpt lat="51.507124" lon="-0.177250"><ele>39.3</ele><time>2026-05-16T07:19:45Z</time></trkpt>
      <trkpt lat="51.506975" lon="-0.177227"><ele>39.2</ele><time>2026-05-16T07:19:49Z</time></trkpt>
      <trkpt lat="51.506825" lon="-0.177201"><ele>39.0</ele><time>2026-05-16T07:19:54Z</time></trkpt>
      <trkpt lat="51.506676" lon="-0.177170"><ele>38.7</ele><time>2026-05-16T07:19:59Z</time></trkpt>
      <trkpt lat="51.506528" lon="-0.177135"><ele>38.5</ele><time>2026-05-16T07:20:04Z</time></trkpt>
      <trkpt lat="51.506380" lon="-0.177096"><ele>38.1</ele><time>2026-05-16T07:20:09Z</time></trkpt>
      <trkpt lat="51.506232" lon="-0.177053"><ele>37.7</ele><time>2026-05-16T07:20:14Z</time></trkpt>
      <trkpt lat="51.506085" lon="-0.177006"><ele>37.3</ele><time>2026-05-16T07:20:19Z</time></trkpt>
      <trkpt lat="51.505939" lon="-0.176956"><ele>36.9</ele><time>2026-05-16T07:20:25Z</time></trkpt>
      <trkpt lat="51.505793" lon="-0.176901"><ele>36.4</ele><time>2026-05-16T07:20:30Z</time></trkpt>
      <trkpt lat="51.505648" lon="-0.176843"><ele>35.9</ele><time>2026-05-16T07:20:36Z</time></trkpt>
      <trkpt lat="51.505503" lon="-0.176780"><ele>35.5</ele><time>2026-05-16T07:20:42Z</time></trkpt>
      <trkpt lat="51.505359" lon="-0.176714"><ele>35.0</ele><time>2026-05-16T07:20:47Z</time></trkpt>
      <trkpt lat="51.505216" lon="-0.176644"><ele>34.5</ele><time>2026-05-16T07:20:53Z</time></trkpt>
      <trkpt lat="51.505073" lon="-0.176571"><ele>34.1</ele><time>2026-05-16T07:20:59Z</time></trkpt>
      <trkpt lat="51.504932" lon="-0.176493"><ele>33.7</ele><time>2026-05-16T07:21:05Z</time></trkpt>
      <trkpt lat="51.504791" lon="-0.176412"><ele>33.3</ele><time>2026-05-16T07:21:11Z</time></trkpt>
      <trkpt lat="51.504651" lon="-0.176327"><ele>33.0</ele><time>2026-05-16T07:21:17Z</time></trkpt>
      <trkpt lat="51.504511" lon="-0.176238"><ele>32.7</ele><time>2026-05-16T07:21:23Z</time></trkpt>
      <trkpt lat="51.504373" lon="-0.176146"><ele>32.5</ele><time>2026-05-16T07:21:30Z</time></trkpt>
      <trkpt lat="51.504236" lon="-0.176049"><ele>32.3</ele><time>2026-05-16T07:21:36Z</time></trkpt>
      <trkpt lat="51.504099" lon="-0.175949"><ele>32.2</ele><time>2026-05-16T07:21:42Z</time></trkpt>
      <trkpt lat="51.503964" lon="-0.175845"><ele>32.1</ele><time>2026-05-16T07:21:48Z</time></trkpt>
      <trkpt lat="51.503829" lon="-0.175737"><ele>32.1</ele><time>2026-05-16T07:21:55Z</time></trkpt>
      <trkpt lat="51.503696" lon="-0.175626"><ele>32.1</ele><time>2026-05-16T07:22:01Z</time></trkpt>
      <trkpt lat="51.503564" lon="-0.175510"><ele>32.1</ele><time>2026-05-16T07:22:07Z</time></trkpt>
      <trkpt lat="51.503433" lon="-0.175391"><ele>32.2</ele><time>2026-05-16T07:22:13Z</time></trkpt>
      <trkpt lat="51.503303" lon="-0.175268"><ele>32.2</ele><time>2026-05-16T07:22:20Z</time></trkpt>
      <trkpt lat="51.503175" lon="-0.175141"><ele>32.3</ele><time>2026-05-16T07:22:26Z</time></trkpt>
      <trkpt lat="51.503048" lon="-0.175010"><ele>32.4</ele><time>2026-05-16T07:22:32Z</time></trkpt>
      <trkpt lat="51.502923" lon="-0.174875"><ele>32.4</ele><time>2026-05-16T07:22:38Z</time></trkpt>
      <trkpt lat="51.502799" lon="-0.174736"><ele>32.4</ele><time>2026-05-16T07:22:43Z</time></trkpt>
      <trkpt lat="51.502676" lon="-0.174593"><ele>32.4</ele><time>2026-05-16T07:22:49Z</time></trkpt>
      <trkpt lat="51.502555" lon="-0.174447"><ele>32.4</ele><time>2026-05-16T07:22:55Z</time></trkpt>
      <trkpt lat="51.502436" lon="-0.174296"><ele>32.3</ele><time>2026-05-16T07:23:01Z</time></trkpt>
      <trkpt lat="51.502319" lon="-0.174142"><ele>32.1</ele><time>2026-05-16T07:23:06Z</time></trkpt>
      <trkpt lat="51.502204" lon="-0.173983"><ele>32.0</ele><time>2026-05-16T07:23:11Z</time></trkpt>
      <trkpt lat="51.502090" lon="-0.173821"><ele>31.8</ele><time>2026-05-16T07:23:17Z</time></trkpt>
      <trkpt lat="51.501979" lon="-0.173655"><ele>31.5</ele><time>2026-05-16T07:23:22Z</time></trkpt>
      <trkpt lat="51.501869" lon="-0.173485"><ele>31.2</ele><time>2026-05-16T07:23:27Z</time></trkpt>
      <trkpt lat="51.501762" lon="-0.173312"><ele>31.0</ele><time>2026-05-16T07:23:32Z</time></trkpt>
      <trkpt lat="51.501657" lon="-0.173134"><ele>30.7</ele><time>2026-05-16T07:23:37Z</time></trkpt>
      <trkpt lat="51.501555" lon="-0.172953"><ele>30.3</ele><time>2026-05-16T07:23:42Z</time></trkpt>
      <trkpt lat="51.501454" lon="-0.172768"><ele>30.0</ele><time>2026-05-16T07:23:47Z</time></trkpt>
      <trkpt lat="51.501357" lon="-0.172580"><ele>29.8</ele><time>2026-05-16T07:23:51Z</time></trkpt>
      <trkpt lat="51.501262" lon="-0.172388"><ele>29.5</ele><time>2026-05-16T07:23:56Z</time></trkpt>
      <trkpt lat="51.501169" lon="-0.172193"><ele>29.3</ele><time>2026-05-16T07:24:00Z</time></trkpt>
      <trkpt lat="51.501080" lon="-0.171994"><ele>29.1</ele><time>2026-05-16T07:24:05Z</time></trkpt>
      <trkpt lat="51.500993" lon="-0.171792"><ele>28.9</ele><time>2026-05-16T07:24:09Z</time></trkpt>
      <trkpt lat="51.500909" lon="-0.171587"><ele>28.8</ele><time>2026-05-16T07:24:14Z</time></trkpt>
      <trkpt lat="51.500828" lon="-0.171378"><ele>28.8</ele><time>2026-05-16T07:24:18Z</time></trkpt>
      <trkpt lat="51.500750" lon="-0.171167"><ele>28.8</ele><time>2026-05-16T07:24:23Z</time></trkpt>
      <trkpt lat="51.500675" lon="-0.170953"><ele>28.9</ele><time>2026-05-16T07:24:28Z</time></trkpt>
      <trkpt lat="51.500603" lon="-0.170736"><ele>29.0</ele><time>2026-05-16T07:24:32Z</time></trkpt>
      <trkpt lat="51.500535" lon="-0.170516"><ele>29.2</ele><time>2026-05-16T07:24:37Z</time></trkpt>
      <trkpt lat="51.500469" lon="-0.170294"><ele>29.4</ele><time>2026-05-16T07:24:41Z</time></trkpt>
      <trkpt lat="51.500407" lon="-0.170069"><ele>29.7</ele><time>2026-05-16T07:24:46Z</time></trkpt>
      <trkpt lat="51.500349" lon="-0.169842"><ele>29.9</ele><time>2026-05-16T07:24:51Z</time></trkpt>
      <trkpt lat="51.500293" lon="-0.169613"><ele>30.2</ele><time>2026-05-16T07:24:56Z</time></trkpt>
      <trkpt lat="51.500242" lon="-0.169382"><ele>30.5</ele><time>2026-05-16T07:25:01Z</time></trkpt>
      <trkpt lat="51.500193" lon="-0.169150"><ele>30.8</ele><time>2026-05-16T07:25:06Z</time></trkpt>
      <trkpt lat="51.500148" lon="-0.168915"><ele>31.1</ele><time>2026-05-16T07:25:11Z</time></trkpt>
      <trkpt lat="51.500107" lon="-0.168679"><ele>31.4</ele><time>2026-05-16T07:25:16Z</time></trkpt>
      <trkpt lat="51.500069" lon="-0.168442"><ele>31.6</ele><time>2026-05-16T07:25:21Z</time></trkpt>
      <trkpt lat="51.500035" lon="-0.168203"><ele>31.8</ele><time>2026-05-16T07:25:27Z</time></trkpt>
      <trkpt lat="51.500004" lon="-0.167964"><ele>32.0</ele><time>2026-05-16T07:25:32Z</time></trkpt>
      <trkpt lat="51.499976" lon="-0.167723"><ele>32.1</ele><time>2026-05-16T07:25:38Z</time></trkpt>
      <trkpt lat="51.499952" lon="-0.167482"><ele>32.2</ele><time>2026-05-16T07:25:43Z</time></trkpt>
      <trkpt lat="51.499931" lon="-0.167240"><ele>32.2</ele><time>2026-05-16T07:25:49Z</time></trkpt>
      <trkpt lat="51.499914" lon="-0.166998"><ele>32.2</ele><time>2026-05-16T07:25:55Z</time></trkpt>
      <trkpt lat="51.499900" lon="-0.166756"><ele>32.2</ele><time>2026-05-16T07:26:01Z</time></trkpt>
      <trkpt lat="51.499889" lon="-0.166513"><ele>32.2</ele><time>2026-05-16T07:26:07Z</time></trkpt>
      <trkpt lat="51.499881" lon="-0.166270"><ele>32.1</ele><time>2026-05-16T07:26:13Z</time></trkpt>
      <trkpt lat="51.499877" lon="-0.166028"><ele>32.0</ele><time>2026-05-16T07:26:19Z</time></trkpt>
      <trkpt lat="51.499876" lon="-0.165785"><ele>32.0</ele><time>2026-05-16T07:26:26Z</time></trkpt>
      <trkpt lat="51.499878" lon="-0.165543"><ele>31.9</ele><time>2026-05-16T07:26:32Z</time></trkpt>
      <trkpt lat="51.499883" lon="-0.165301"><ele>31.9</ele><time>2026-05-16T07:26:38Z</time></trkpt>
      <trkpt lat="51.499891" lon="-0.165060"><ele>31.8</ele><time>2026-05-16T07:26:44Z</time></trkpt>
      <trkpt lat="51.499901" lon="-0.164820"><ele>31.9</ele><time>2026-05-16T07:26:51Z</time></trkpt>
      <trkpt lat="51.499915" lon="-0.164580"><ele>31.9</ele><time>2026-05-16T07:26:57Z</time></trkpt>
      <trkpt lat="51.499931" lon="-0.164341"><ele>32.0</ele><time>2026-05-16T07:27:03Z</time></trkpt>
      <trkpt lat="51.499950" lon="-0.164102"><ele>32.2</ele><time>2026-05-16T07:27:09Z</time></trkpt>
      <trkpt lat="51.499971" lon="-0.163865"><ele>32.4</ele><time>2026-05-16T07:27:15Z</time></trkpt>
      <trkpt lat="51.499995" lon="-0.163629"><ele>32.7</ele><time>2026-05-16T07:27:22Z</time></trkpt>
      <trkpt lat="51.500021" lon="-0.163393"><ele>33.0</ele><time>2026-05-16T07:27:28Z</time></trkpt>
      <trkpt lat="51.500050" lon="-0.163159"><ele>33.3</ele><time>2026-05-16T07:27:34Z</time></trkpt>
      <trkpt lat="51.500081" lon="-0.162925"><ele>33.7</ele><time>2026-05-16T07:27:39Z</time></trkpt>
      <trkpt lat="51.500114" lon="-0.162693"><ele>34.2</ele><time>2026-05-16T07:27:45Z</time></trkpt>
      <trkpt lat="51.500150" lon="-0.162461"><ele>34.6</ele><time>2026-05-16T07:27:51Z</time></trkpt>
      <trkpt lat="51.500187" lon="-0.162231"><ele>35.1</ele><time>2026-05-16T07:27:57Z</time></trkpt>
      <trkpt lat="51.500227" lon="-0.162002"><ele>35.6</ele><time>2026-05-16T07:28:02Z</time></trkpt>
      <trkpt lat="51.500268" lon="-0.161774"><ele>36.1</ele><time>2026-05-16T07:28:08Z</time></trkpt>
      <trkpt lat="51.500312" lon="-0.161547"><ele>36.5</ele><time>2026-05-16T07:28:13Z</time></trkpt>
      <trkpt lat="51.500358" lon="-0.161321"><ele>37.0</ele><time>2026-05-16T07:28:18Z</time></trkpt>
      <trkpt lat="51.500405" lon="-0.161097"><ele>37.4</ele><time>2026-05-16T07:28:23Z</time></trkpt>
      <trkpt lat="51.500454" lon="-0.160873"><ele>37.8</ele><time>2026-05-16T07:28:28Z</time></trkpt>
      <trkpt lat="51.500506" lon="-0.160650"><ele>38.1</ele><time>2026-05-16T07:28:33Z</time></trkpt>
      <trkpt lat="51.500559" lon="-0.160429"><ele>38.4</ele><time>2026-05-16T07:28:38Z</time></trkpt>
      <trkpt lat="51.500614" lon="-0.160208"><ele>38.6</ele><time>2026-05-16T07:28:43Z</time></trkpt>
      <trkpt lat="51.500671" lon="-0.159989"><ele>38.8</ele><time>2026-05-16T07:28:47Z</time></trkpt>
      <trkpt lat="51.500730" lon="-0.159771"><ele>39.0</ele><time>2026-05-16T07:28:52Z</time></trkpt>
      <trkpt lat="51.500790" lon="-0.159554"><ele>39.1</ele><time>2026-05-16T07:28:56Z</time></trkpt>
      <trkpt lat="51.500853" lon="-0.159338"><ele>39.2</ele><time>2026-05-16T07:29:01Z</time></trkpt>
      <trkpt lat="51.500918" lon="-0.159123"><ele>39.3</ele><time>2026-05-16T07:29:05Z</time></trkpt>
      <trkpt lat="51.500984" lon="-0.158910"><ele>39.3</ele><time>2026-05-16T07:29:10Z</time></trkpt>
      <trkpt lat="51.501053" lon="-0.158698"><ele>39.3</ele><time>2026-05-16T07:29:14Z</time></trkpt>
      <trkpt lat="51.501123" lon="-0.158487"><ele>39.3</ele><time>2026-05-16T07:29:18Z</time></trkpt>
      <trkpt lat="51.501196" lon="-0.158278"><ele>39.4</ele><time>2026-05-16T07:29:23Z</time></trkpt>
      <trkpt lat="51.501271" lon="-0.158070"><ele>39.4</ele><time>2026-05-16T07:29:27Z</time></trkpt>
      <trkpt lat="51.501348" lon="-0.157863"><ele>39.5</ele><time>2026-05-16T07:29:32Z</time></trkpt>
      <trkpt lat="51.501427" lon="-0.157659"><ele>39.6</ele><time>2026-05-16T07:29:36Z</time></trkpt>
      <trkpt lat="51.501509" lon="-0.157456"><ele>39.8</ele><time>2026-05-16T07:29:41Z</time></trkpt>
      <trkpt lat="51.501593" lon="-0.157255"><ele>40.0</ele><time>2026-05-16T07:29:45Z</time></trkpt>
      <trkpt lat="51.501679" lon="-0.157056"><ele>40.2</ele><time>2026-05-16T07:29:50Z</time></trkpt>
      <trkpt lat="51.501768" lon="-0.156859"><ele>40.5</ele><time>2026-05-16T07:29:55Z</time></trkpt>
      <trkpt lat="51.501859" lon="-0.156665"><ele>40.8</ele><time>2026-05-16T07:30:00Z</time></trkpt>
      <trkpt lat="51.501952" lon="-0.156473"><ele>41.2</ele><time>2026-05-16T07:30:04Z</time></trkpt>
      <trkpt lat="51.502048" lon="-0.156284"><ele>41.6</ele><time>2026-05-16T07:30:10Z</time></trkpt>
      <trkpt lat="51.502147" lon="-0.156097"><ele>42.0</ele><time>2026-05-16T07:30:15Z</time></trkpt>
      <trkpt lat="51.502248" lon="-0.155914"><ele>42.5</ele><time>2026-05-16T07:30:20Z</time></trkpt>
      <trkpt lat="51.502351" lon="-0.155734"><ele>43.0</ele><time>2026-05-16T07:30:25Z</time></trkpt>
      <trkpt lat="51.502458" lon="-0.155557"><ele>43.4</ele><time>2026-05-16T07:30:31Z</time></trkpt>
      <trkpt lat="51.502566" lon="-0.155384"><ele>43.9</ele><time>2026-05-16T07:30:36Z</time></trkpt>
      <trkpt lat="51.502678" lon="-0.155214"><ele>44.4</ele><time>2026-05-16T07:30:42Z</time></trkpt>
      <trkpt lat="51.502792" lon="-0.155049"><ele>44.8</ele><time>2026-05-16T07:30:48Z</time></trkpt>
      <trkpt lat="51.502908" lon="-0.154887"><ele>45.2</ele><time>2026-05-16T07:30:54Z</time></trkpt>
      <trkpt lat="51.503027" lon="-0.154730"><ele>45.5</ele><time>2026-05-16T07:31:00Z</time></trkpt>
      <trkpt lat="51.503148" lon="-0.154578"><ele>45.8</ele><time>2026-05-16T07:31:06Z</time></trkpt>
      <trkpt lat="51.503272" lon="-0.154430"><ele>46.1</ele><time>2026-05-16T07:31:12Z</time></trkpt>
      <trkpt lat="51.503398" lon="-0.154287"><ele>46.3</ele><time>2026-05-16T07:31:18Z</time></trkpt>
      <trkpt lat="51.503526" lon="-0.154149"><ele>46.4</ele><time>2026-05-16T07:31:25Z</time></trkpt>
      <trkpt lat="51.503657" lon="-0.154016"><ele>46.5</ele><time>2026-05-16T07:31:31Z</time></trkpt>
      <trkpt lat="51.503790" lon="-0.153889"><ele>46.6</ele><time>2026-05-16T07:31:37Z</time></trkpt>
      <trkpt lat="51.503924" lon="-0.153767"><ele>46.6</ele><time>2026-05-16T07:31:44Z</time></trkpt>
      <trkpt lat="51.504061" lon="-0.153650"><ele>46.6</ele><time>2026-05-16T07:31:50Z</time></trkpt>
      <trkpt lat="51.504200" lon="-0.153539"><ele>46.5</ele><time>2026-05-16T07:31:57Z</time></trkpt>
      <trkpt lat="51.504340" lon="-0.153434"><ele>46.4</ele><time>2026-05-16T07:32:03Z</time></trkpt>
      <trkpt lat="51.504482" lon="-0.153335"><ele>46.3</ele><time>2026-05-16T07:32:10Z</time></trkpt>
      <trkpt lat="51.504626" lon="-0.153242"><ele>46.3</ele><time>2026-05-16T07:32:16Z</time></trkpt>
      <trkpt lat="51.504771" lon="-0.153155"><ele>46.2</ele><time>2026-05-16T07:32:22Z</time></trkpt>
      <trkpt lat="51.504917" lon="-0.153073"><ele>46.1</ele><time>2026-05-16T07:32:29Z</time></trkpt>
      <trkpt lat="51.505065" lon="-0.152998"><ele>46.1</ele><time>2026-05-16T07:32:35Z</time></trkpt>
      <trkpt lat="51.505213" lon="-0.152929"><ele>46.1</ele><time>2026-05-16T07:32:41Z</time></trkpt>
      <trkpt lat="51.505363" lon="-0.152865"><ele>46.1</ele><time>2026-05-16T07:32:47Z</time></trkpt>
      <trkpt lat="51.505513" lon="-0.152808"><ele>46.1</ele><time>2026-05-16T07:32:53Z</time></trkpt>
      <trkpt lat="51.505665" lon="-0.152757"><ele>46.3</ele><time>2026-05-16T07:32:59Z</time></trkpt>
      <trkpt lat="51.505816" lon="-0.152711"><ele>46.4</ele><time>2026-05-16T07:33:05Z</time></trkpt>
      <trkpt lat="51.505969" lon="-0.152671"><ele>46.6</ele><time>2026-05-16T07:33:11Z</time></trkpt>
      <trkpt lat="51.506122" lon="-0.152637"><ele>46.8</ele><time>2026-05-16T07:33:16Z</time></trkpt>
      <trkpt lat="51.506275" lon="-0.152609"><ele>47.0</ele><time>2026-05-16T07:33:22Z</time></trkpt>
      <trkpt lat="51.506428" lon="-0.152586"><ele>47.3</ele><time>2026-05-16T07:33:27Z</time></trkpt>
      <trkpt lat="51.506581" lon="-0.152568"><ele>47.6</ele><time>2026-05-16T07:33:32Z</time></trkpt>
      <trkpt lat="51.506735" lon="-0.152556"><ele>47.9</ele><time>2026-05-16T07:33:38Z</time></trkpt>
      <trkpt lat="51.506888" lon="-0.152549"><ele>48.1</ele><time>2026-05-16T07:33:43Z</time></trkpt>
      <trkpt lat="51.507041" lon="-0.152547"><ele>48.4</ele><time>2026-05-16T07:33:48Z</time></trkpt>
      <trkpt lat="51.507195" lon="-0.152549"><ele>48.6</ele><time>2026-05-16T07:33:53Z</time></trkpt>
      <trkpt lat="51.507347" lon="-0.152556"><ele>48.8</ele><time>2026-05-16T07:33:57Z</time></trkpt>
      <trkpt lat="51.507500" lon="-0.152568"><ele>49.0</ele><time>2026-05-16T07:34:02Z</time></trkpt>
    </trkseg>
  </trk>
</gpx>
