<?xml version="1.0" encoding="UTF-8"?>
<gpx creator="route-posters-sample" version="1.1" xmlns="http://www.topografix.com/GPX/1/1">
  <metadata><time>2026-03-15T09:20:00Z</time></metadata>
  <trk>
    <name>Kinder Scout trail run</name>
    <type>running</type>
    <trkseg>
      <trkpt lat="53.375270" lon="-1.937254"><ele>30.0</ele><time>2026-03-15T09:20:00Z</time></trkpt>
      <trkpt lat="53.375904" lon="-1.936855"><ele>30.4</ele><time>2026-03-15T09:20:28Z</time></trkpt>
      <trkpt lat="53.376537" lon="-1.936456"><ele>31.0</ele><time>2026-03-15T09:20:57Z</time></trkpt>
      <trkpt lat="53.377168" lon="-1.936058"><ele>31.9</ele><time>2026-03-15T09:21:26Z</time></trkpt>
      <trkpt lat="53.377794" lon="-1.935660"><ele>33.1</ele><time>2026-03-15T09:21:56Z</time></trkpt>
      <trkpt lat="53.378415" lon="-1.935263"><ele>34.5</ele><time>2026-03-15T09:22:26Z</time></trkpt>
      <trkpt lat="53.379029" lon="-1.934865"><ele>36.1</ele><time>2026-03-15T09:22:55Z</time></trkpt>
      <trkpt lat="53.379636" lon="-1.934469"><ele>38.0</ele><time>2026-03-15T09:23:26Z</time></trkpt>
      <trkpt lat="53.380233" lon="-1.934072"><ele>40.1</ele><time>2026-03-15T09:23:55Z</time></trkpt>
      <trkpt lat="53.380819" lon="-1.933677"><ele>42.4</ele><time>2026-03-15T09:24:25Z</time></trkpt>
      <trkpt lat="53.381393" lon="-1.933281"><ele>45.0</ele><time>2026-03-15T09:24:55Z</time></trkpt>
      <trkpt lat="53.381954" lon="-1.932886"><ele>47.7</ele><time>2026-03-15T09:25:24Z</time></trkpt>
      <trkpt lat="53.382501" lon="-1.932491"><ele>50.7</ele><time>2026-03-15T09:25:53Z</time></trkpt>
      <trkpt lat="53.383032" lon="-1.932096"><ele>53.9</ele><time>2026-03-15T09:26:21Z</time></trkpt>
      <trkpt lat="53.383546" lon="-1.931702"><ele>57.4</ele><time>2026-03-15T09:26:48Z</time></trkpt>
      <trkpt lat="53.384043" lon="-1.931308"><ele>61.1</ele><time>2026-03-15T09:27:14Z</time></trkpt>
      <trkpt lat="53.384521" lon="-1.930915"><ele>65.0</ele><time>2026-03-15T09:27:40Z</time></trkpt>
      <trkpt lat="53.384979" lon="-1.930521"><ele>69.2</ele><time>2026-03-15T09:28:05Z</time></trkpt>
      <trkpt lat="53.385416" lon="-1.930128"><ele>73.7</ele><time>2026-03-15T09:28:28Z</time></trkpt>
      <trkpt lat="53.385831" lon="-1.929736"><ele>78.4</ele><time>2026-03-15T09:28:51Z</time></trkpt>
      <trkpt lat="53.386224" lon="-1.929343"><ele>83.4</ele><time>2026-03-15T09:29:12Z</time></trkpt>
      <trkpt lat="53.386593" lon="-1.928951"><ele>88.6</ele><time>2026-03-15T09:29:32Z</time></trkpt>
      <trkpt lat="53.386938" lon="-1.928559"><ele>94.1</ele><time>2026-03-15T09:29:51Z</time></trkpt>
      <trkpt lat="53.387259" lon="-1.928168"><ele>99.9</ele><time>2026-03-15T09:30:09Z</time></trkpt>
      <trkpt lat="53.387553" lon="-1.927776"><ele>105.9</ele><time>2026-03-15T09:30:26Z</time></trkpt>
      <trkpt lat="53.387822" lon="-1.927385"><ele>112.2</ele><time>2026-03-15T09:30:42Z</time></trkpt>
      <trkpt lat="53.388064" lon="-1.926994"><ele>118.8</ele><time>2026-03-15T09:30:56Z</time></trkpt>
      <trkpt lat="53.388279" lon="-1.926604"><ele>125.6</ele><time>2026-03-15T09:31:09Z</time></trkpt>
      <trkpt lat="53.388466" lon="-1.926214"><ele>132.6</ele><time>2026-03-15T09:31:22Z</time></trkpt>
      <trkpt lat="53.388625" lon="-1.925824"><ele>139.9</ele><time>2026-03-15T09:31:33Z</time></trkpt>
      <trkpt lat="53.388757" lon="-1.925434"><ele>147.3</ele><time>2026-03-15T09:31:44Z</time></trkpt>
      <trkpt lat="53.388860" lon="-1.925044"><ele>155.0</ele><time>2026-03-15T09:31:54Z</time></trkpt>
      <trkpt lat="53.388935" lon="-1.924655"><ele>162.8</ele><time>2026-03-15T09:32:03Z</time></trkpt>
      <trkpt lat="53.388981" lon="-1.924266"><ele>170.8</ele><time>2026-03-15T09:32:12Z</time></trkpt>
      <trkpt lat="53.388999" lon="-1.923877"><ele>178.9</ele><time>2026-03-15T09:32:20Z</time></trkpt>
      <trkpt lat="53.388988" lon="-1.923488"><ele>187.2</ele><time>2026-03-15T09:32:29Z</time></trkpt>
      <trkpt lat="53.388949" lon="-1.923100"><ele>195.5</ele><time>2026-03-15T09:32:37Z</time></trkpt>
      <trkpt lat="53.388882" lon="-1.922711"><ele>204.0</ele><time>2026-03-15T09:32:46Z</time></trkpt>
      <trkpt lat="53.388788" lon="-1.922323"><ele>212.5</ele><time>2026-03-15T09:32:54Z</time></trkpt>
      <trkpt lat="53.388665" lon="-1.921935"><ele>221.1</ele><time>2026-03-15T09:33:03Z</time></trkpt>
      <trkpt lat="53.388516" lon="-1.921547"><ele>229.8</ele><time>2026-03-15T09:33:13Z</time></trkpt>
      <trkpt lat="53.388341" lon="-1.921159"><ele>238.6</ele><time>2026-03-15T09:33:23Z</time></trkpt>
      <trkpt lat="53.388139" lon="-1.920771"><ele>247.4</ele><time>2026-03-15T09:33:33Z</time></trkpt>
      <trkpt lat="53.387911" lon="-1.920383"><ele>256.2</ele><time>2026-03-15T09:33:44Z</time></trkpt>
      <trkpt lat="53.387659" lon="-1.919996"><ele>265.1</ele><time>2026-03-15T09:33:56Z</time></trkpt>
      <trkpt lat="53.387383" lon="-1.919608"><ele>274.0</ele><time>2026-03-15T09:34:08Z</time></trkpt>
      <trkpt lat="53.387084" lon="-1.919220"><ele>283.0</ele><time>2026-03-15T09:34:21Z</time></trkpt>
      <trkpt lat="53.386762" lon="-1.918832"><ele>292.1</ele><time>2026-03-15T09:34:35Z</time></trkpt>
      <trkpt lat="53.386418" lon="-1.918444"><ele>301.1</ele><time>2026-03-15T09:34:50Z</time></trkpt>
      <trkpt lat="53.386054" lon="-1.918056"><ele>310.3</ele><time>2026-03-15T09:35:05Z</time></trkpt>
      <trkpt lat="53.385670" lon="-1.917668"><ele>319.5</ele><time>2026-03-15T09:35:22Z</time></trkpt>
      <trkpt lat="53.385268" lon="-1.917280"><ele>328.7</ele><time>2026-03-15T09:35:39Z</time></trkpt>
      <trkpt lat="53.384848" lon="-1.916891"><ele>338.0</ele><time>2026-03-15T09:35:57Z</time></trkpt>
      <trkpt lat="53.384412" lon="-1.916502"><ele>347.3</ele><time>2026-03-15T09:36:16Z</time></trkpt>
      <trkpt lat="53.383960" lon="-1.916113"><ele>356.7</ele><time>2026-03-15T09:36:36Z</time></trkpt>
      <trkpt lat="53.383494" lon="-1.915724"><ele>366.1</ele><time>2026-03-15T09:36:56Z</time></trkpt>
      <trkpt lat="53.383016" lon="-1.915334"><ele>375.6</ele><time>2026-03-15T09:37:18Z</time></trkpt>
      <trkpt lat="53.382526" lon="-1.914944"><ele>385.1</ele><time>2026-03-15T09:37:40Z</time></trkpt>
      <trkpt lat="53.382026" lon="-1.914553"><ele>394.6</ele><time>2026-03-15T09:38:04Z</time></trkpt>
      <trkpt lat="53.381517" lon="-1.914162"><ele>404.0</ele><time>2026-03-15T09:38:28Z</time></trkpt>
      <trkpt lat="53.381000" lon="-1.913771"><ele>413.5</ele><time>2026-03-15T09:38:53Z</time></trkpt>
      <trkpt lat="53.380478" lon="-1.913379"><ele>423.0</ele><time>2026-03-15T09:39:18Z</time></trkpt>
      <trkpt lat="53.379951" lon="-1.912986"><ele>432.4</ele><time>2026-03-15T09:39:44Z</time></trkpt>
      <trkpt lat="53.379420" lon="-1.912593"><ele>441.7</ele><time>2026-03-15T09:40:11Z</time></trkpt>
      <trkpt lat="53.378888" lon="-1.912199"><ele>451.0</ele><time>2026-03-15T09:40:38Z</time></trkpt>
      <trkpt lat="53.378355" lon="-1.911804"><ele>460.1</ele><time>2026-03-15T09:41:05Z</time></trkpt>
      <trkpt lat="53.377823" lon="-1.911409"><ele>469.2</ele><time>2026-03-15T09:41:33Z</time></trkpt>
      <trkpt lat="53.377294" lon="-1.911013"><ele>478.1</ele><time>2026-03-15T09:42:00Z</time></trkpt>
      <trkpt lat="53.376769" lon="-1.910616"><ele>486.8</ele><time>2026-03-15T09:42:28Z</time></trkpt>
      <trkpt lat="53.376249" lon="-1.910219"><ele>495.4</ele><time>2026-03-15T09:42:56Z</time></trkpt>
      <trkpt lat="53.375736" lon="-1.909820"><ele>503.9</ele><time>2026-03-15T09:43:23Z</time></trkpt>
      <trkpt lat="53.375231" lon="-1.909421"><ele>512.1</ele><time>2026-03-15T09:43:50Z</time></trkpt>
      <trkpt lat="53.374736" lon="-1.909021"><ele>520.2</ele><time>2026-03-15T09:44:16Z</time></trkpt>
      <trkpt lat="53.374252" lon="-1.908620"><ele>528.0</ele><time>2026-03-15T09:44:42Z</time></trkpt>
      <trkpt lat="53.373780" lon="-1.908217"><ele>535.7</ele><time>2026-03-15T09:45:07Z</time></trkpt>
      <trkpt lat="53.373322" lon="-1.907814"><ele>543.2</ele><time>2026-03-15T09:45:32Z</time></trkpt>
      <trkpt lat="53.372879" lon="-1.907410"><ele>550.5</ele><time>2026-03-15T09:45:56Z</time></trkpt>
      <trkpt lat="53.372452" lon="-1.907005"><ele>557.5</ele><time>2026-03-15T09:46:19Z</time></trkpt>
      <trkpt lat="53.372043" lon="-1.906599"><ele>564.4</ele><time>2026-03-15T09:46:41Z</time></trkpt>
      <trkpt lat="53.371653" lon="-1.906192"><ele>571.1</ele><time>2026-03-15T09:47:01Z</time></trkpt>
      <trkpt lat="53.371282" lon="-1.905783"><ele>577.6</ele><time>2026-03-15T09:47:21Z</time></trkpt>
      <trkpt lat="53.370933" lon="-1.905374"><ele>583.9</ele><time>2026-03-15T09:47:40Z</time></trkpt>
      <trkpt lat="53.370605" lon="-1.904963"><ele>590.0</ele><time>2026-03-15T09:47:58Z</time></trkpt>
      <trkpt lat="53.370301" lon="-1.904552"><ele>596.0</ele><time>2026-03-15T09:48:14Z</time></trkpt>
      <trkpt lat="53.370020" lon="-1.904139"><ele>601.8</ele><time>2026-03-15T09:48:30Z</time></trkpt>
      <trkpt lat="53.369764" lon="-1.903725"><ele>607.4</ele><time>2026-03-15T09:48:45Z</time></trkpt>
      <trkpt lat="53.369534" lon="-1.903310"><ele>612.8</ele><time>2026-03-15T09:48:58Z</time></trkpt>
      <trkpt lat="53.369331" lon="-1.902894"><ele>618.0</ele><time>2026-03-15T09:49:11Z</time></trkpt>
      <trkpt lat="53.369154" lon="-1.902477"><ele>623.1</ele><time>2026-03-15T09:49:23Z</time></trkpt>
      <trkpt lat="53.369006" lon="-1.902059"><ele>627.9</ele><time>2026-03-15T09:49:34Z</time></trkpt>
      <trkpt lat="53.368885" lon="-1.901640"><ele>632.6</ele><time>2026-03-15T09:49:44Z</time></trkpt>
      <trkpt lat="53.368794" lon="-1.901220"><ele>637.0</ele><time>2026-03-15T09:49:54Z</time></trkpt>
      <trkpt lat="53.368731" lon="-1.900798"><ele>641.2</ele><time>2026-03-15T09:50:03Z</time></trkpt>
      <trkpt lat="53.368699" lon="-1.900376"><ele>645.2</ele><time>2026-03-15T09:50:12Z</time></trkpt>
      <trkpt lat="53.368695" lon="-1.899952"><ele>648.9</ele><time>2026-03-15T09:50:21Z</time></trkpt>
      <trkpt lat="53.368722" lon="-1.899528"><ele>652.4</ele><time>2026-03-15T09:50:30Z</time></trkpt>
      <trkpt lat="53.368779" lon="-1.899103"><ele>655.6</ele><time>2026-03-15T09:50:39Z</time></trkpt>
      <trkpt lat="53.368866" lon="-1.898676"><ele>658.5</ele><time>2026-03-15T09:50:48Z</time></trkpt>
      <trkpt lat="53.368983" lon="-1.898249"><ele>661.2</ele><time>2026-03-15T09:50:57Z</time></trkpt>
      <trkpt lat="53.369130" lon="-1.897821"><ele>663.5</ele><time>2026-03-15T09:51:07Z</time></trkpt>
      <trkpt lat="53.369306" lon="-1.897392"><ele>665.5</ele><time>2026-03-15T09:51:18Z</time></trkpt>
      <trkpt lat="53.369512" lon="-1.896963"><ele>667.2</ele><time>2026-03-15T09:51:29Z</time></trkpt>
      <trkpt lat="53.369747" lon="-1.896533"><ele>668.6</ele><time>2026-03-15T09:51:41Z</time></trkpt>
      <trkpt lat="53.370010" lon="-1.896102"><ele>669.6</ele><time>2026-03-15T09:51:54Z</time></trkpt>
      <trkpt lat="53.370301" lon="-1.895670"><ele>670.4</ele><time>2026-03-15T09:52:08Z</time></trkpt>
      <trkpt lat="53.370620" lon="-1.895238"><ele>670.8</ele><time>2026-03-15T09:52:22Z</time></trkpt>
      <trkpt lat="53.370966" lon="-1.894805"><ele>670.8</ele><time>2026-03-15T09:52:38Z</time></trkpt>
      <trkpt lat="53.371337" lon="-1.894371"><ele>670.6</ele><time>2026-03-15T09:52:54Z</time></trkpt>
      <trkpt lat="53.371734" lon="-1.893938"><ele>670.1</ele><time>2026-03-15T09:53:12Z</time></trkpt>
      <trkpt lat="53.372156" lon="-1.893504"><ele>669.2</ele><time>2026-03-15T09:53:31Z</time></trkpt>
      <trkpt lat="53.372600" lon="-1.893069"><ele>668.1</ele><time>2026-03-15T09:53:51Z</time></trkpt>
      <trkpt lat="53.373067" lon="-1.892634"><ele>666.7</ele><time>2026-03-15T09:54:12Z</time></trkpt>
      <trkpt lat="53.373556" lon="-1.892199"><ele>665.0</ele><time>2026-03-15T09:54:34Z</time></trkpt>
      <trkpt lat="53.374065" lon="-1.891764"><ele>663.1</ele><time>2026-03-15T09:54:57Z</time></trkpt>
      <trkpt lat="53.374592" lon="-1.891328"><ele>661.0</ele><time>2026-03-15T09:55:22Z</time></trkpt>
      <trkpt lat="53.375138" lon="-1.890893"><ele>658.6</ele><time>2026-03-15T09:55:48Z</time></trkpt>
      <trkpt lat="53.375701" lon="-1.890457"><ele>655.9</ele><time>2026-03-15T09:56:15Z</time></trkpt>
      <trkpt lat="53.376279" lon="-1.890022"><ele>653.1</ele><time>2026-03-15T09:56:43Z</time></trkpt>
      <trkpt lat="53.376871" lon="-1.889586"><ele>650.0</ele><time>2026-03-15T09:57:12Z</time></trkpt>
      <trkpt lat="53.377476" lon="-1.889151"><ele>646.7</ele><time>2026-03-15T09:57:42Z</time></trkpt>
      <trkpt lat="53.378093" lon="-1.888716"><ele>643.2</ele><time>2026-03-15T09:58:12Z</time></trkpt>
      <trkpt lat="53.378719" lon="-1.888281"><ele>639.5</ele><time>2026-03-15T09:58:44Z</time></trkpt>
      <trkpt lat="53.379354" lon="-1.887846"><ele>635.5</ele><time>2026-03-15T09:59:16Z</time></trkpt>
      <trkpt lat="53.379996" lon="-1.887412"><ele>631.4</ele><time>2026-03-15T09:59:49Z</time></trkpt>
      <trkpt lat="53.380643" lon="-1.886978"><ele>627.0</ele><time>2026-03-15T10:00:23Z</time></trkpt>
      <trkpt lat="53.381295" lon="-1.886544"><ele>622.4</ele><time>2026-03-15T10:00:56Z</time></trkpt>
      <trkpt lat="53.381950" lon="-1.886111"><ele>617.6</ele><time>2026-03-15T10:01:30Z</time></trkpt>
      <trkpt lat="53.382606" lon="-1.885678"><ele>612.5</ele><time>2026-03-15T10:02:04Z</time></trkpt>
      <trkpt lat="53.383261" lon="-1.885246"><ele>607.2</ele><time>2026-03-15T10:02:38Z</time></trkpt>
      <trkpt lat="53.383915" lon="-1.884815"><ele>601.6</ele><time>2026-03-15T10:03:12Z</time></trkpt>
      <trkpt lat="53.384566" lon="-1.884384"><ele>595.8</ele><time>2026-03-15T10:03:46Z</time></trkpt>
      <trkpt lat="53.385212" lon="-1.883953"><ele>589.8</ele><time>2026-03-15T10:04:19Z</time></trkpt>
      <trkpt lat="53.385853" lon="-1.883524"><ele>583.5</ele><time>2026-03-15T10:04:51Z</time></trkpt>
      <trkpt lat="53.386486" lon="-1.883095"><ele>576.9</ele><time>2026-03-15T10:05:23Z</time></trkpt>
      <trkpt lat="53.387110" lon="-1.882666"><ele>570.1</ele><time>2026-03-15T10:05:55Z</time></trkpt>
      <trkpt lat="53.387724" lon="-1.882239"><ele>563.1</ele><time>2026-03-15T10:06:25Z</time></trkpt>
      <trkpt lat="53.388326" lon="-1.881812"><ele>555.8</ele><time>2026-03-15T10:06:55Z</time></trkpt>
      <trkpt lat="53.388916" lon="-1.881386"><ele>548.3</ele><time>2026-03-15T10:07:23Z</time></trkpt>
      <trkpt lat="53.389493" lon="-1.880961"><ele>540.6</ele><time>2026-03-15T10:07:51Z</time></trkpt>
      <trkpt lat="53.390054" lon="-1.880537"><ele>532.7</ele><time>2026-03-15T10:08:17Z</time></trkpt>
      <trkpt lat="53.390598" lon="-1.880113"><ele>524.7</ele><time>2026-03-15T10:08:42Z</time></trkpt>
      <trkpt lat="53.391125" lon="-1.879690"><ele>516.4</ele><time>2026-03-15T10:09:07Z</time></trkpt>
      <trkpt lat="53.391634" lon="-1.879268"><ele>508.0</ele><time>2026-03-15T10:09:30Z</time></trkpt>
      <trkpt lat="53.392123" lon="-1.878847"><ele>499.5</ele><time>2026-03-15T10:09:52Z</time></trkpt>
      <trkpt lat="53.392592" lon="-1.878427"><ele>490.9</ele><time>2026-03-15T10:10:12Z</time></trkpt>
      <trkpt lat="53.393040" lon="-1.878007"><ele>482.1</ele><time>2026-03-15T10:10:32Z</time></trkpt>
      <trkpt lat="53.393465" lon="-1.877588"><ele>473.3</ele><time>2026-03-15T10:10:51Z</time></trkpt>
      <trkpt lat="53.393867" lon="-1.877170"><ele>464.4</ele><time>2026-03-15T10:11:08Z</time></trkpt>
      <trkpt lat="53.394245" lon="-1.876753"><ele>455.5</ele><time>2026-03-15T10:11:25Z</time></trkpt>
      <trkpt lat="53.394599" lon="-1.876336"><ele>446.5</ele><time>2026-03-15T10:11:40Z</time></trkpt>
      <trkpt lat="53.394928" lon="-1.875920"><ele>437.5</ele><time>2026-03-15T10:11:55Z</time></trkpt>
      <trkpt lat="53.395231" lon="-1.875505"><ele>428.4</ele><time>2026-03-15T10:12:08Z</time></trkpt>
      <trkpt lat="53.395507" lon="-1.875091"><ele>419.3</ele><time>2026-03-15T10:12:21Z</time></trkpt>
      <trkpt lat="53.395757" lon="-1.874677"><ele>410.2</ele><time>2026-03-15T10:12:33Z</time></trkpt>
      <trkpt lat="53.395980" lon="-1.874264"><ele>401.1</ele><time>2026-03-15T10:12:44Z</time></trkpt>
      <trkpt lat="53.396176" lon="-1.873851"><ele>391.9</ele><time>2026-03-15T10:12:55Z</time></trkpt>
      <trkpt lat="53.396344" lon="-1.873439"><ele>382.8</ele><time>2026-03-15T10:13:05Z</time></trkpt>
      <trkpt lat="53.396484" lon="-1.873027"><ele>373.6</ele><time>2026-03-15T10:13:15Z</time></trkpt>
      <trkpt lat="53.396596" lon="-1.872616"><ele>364.4</ele><time>2026-03-15T10:13:24Z</time></trkpt>
      <trkpt lat="53.396680" lon="-1.872205"><ele>355.2</ele><time>2026-03-15T10:13:33Z</time></trkpt>
      <trkpt lat="53.396736" lon="-1.871795"><ele>345.9</ele><time>2026-03-15T10:13:42Z</time></trkpt>
      <trkpt lat="53.396764" lon="-1.871385"><ele>336.7</ele><time>2026-03-15T10:13:50Z</time></trkpt>
      <trkpt lat="53.396764" lon="-1.870975"><ele>327.4</ele><time>2026-03-15T10:13:59Z</time></trkpt>
      <trkpt lat="53.396736" lon="-1.870566"><ele>318.1</ele><time>2026-03-15T10:14:08Z</time></trkpt>
      <trkpt lat="53.396681" lon="-1.870156"><ele>308.8</ele><time>2026-03-15T10:14:17Z</time></trkpt>
      <trkpt lat="53.396598" lon="-1.869747"><ele>299.4</ele><time>2026-03-15T10:14:27Z</time></trkpt>
      <trkpt lat="53.396489" lon="-1.869339"><ele>290.1</ele><time>2026-03-15T10:14:37Z</time></trkpt>
      <trkpt lat="53.396353" lon="-1.868930"><ele>280.8</ele><time>2026-03-15T10:14:48Z</time></trkpt>
      <trkpt lat="53.396192" lon="-1.868521"><ele>271.5</ele><time>2026-03-15T10:15:00Z</time></trkpt>
      <trkpt lat="53.396005" lon="-1.868112"><ele>262.2</ele><time>2026-03-15T10:15:12Z</time></trkpt>
      <trkpt lat="53.395793" lon="-1.867703"><ele>252.9</ele><time>2026-03-15T10:15:26Z</time></trkpt>
      <trkpt lat="53.395557" lon="-1.867294"><ele>243.8</ele><time>2026-03-15T10:15:40Z</time></trkpt>
      <trkpt lat="53.395297" lon="-1.866885"><ele>234.7</ele><time>2026-03-15T10:15:55Z</time></trkpt>
      <trkpt lat="53.395015" lon="-1.866476"><ele>225.7</ele><time>2026-03-15T10:16:11Z</time></trkpt>
      <trkpt lat="53.394710" lon="-1.866067"><ele>216.8</ele><time>2026-03-15T10:16:29Z</time></trkpt>
      <trkpt lat="53.394385" lon="-1.865657"><ele>208.0</ele><time>2026-03-15T10:16:47Z</time></trkpt>
      <trkpt lat="53.394039" lon="-1.865247"><ele>199.4</ele><time>2026-03-15T10:17:07Z</time></trkpt>
      <trkpt lat="53.393674" lon="-1.864837"><ele>190.9</ele><time>2026-03-15T10:17:27Z</time></trkpt>
      <trkpt lat="53.393291" lon="-1.864426"><ele>182.6</ele><time>2026-03-15T10:17:48Z</time></trkpt>
      <trkpt lat="53.392891" lon="-1.864015"><ele>174.5</ele><time>2026-03-15T10:18:10Z</time></trkpt>
      <trkpt lat="53.392474" lon="-1.863604"><ele>166.6</ele><time>2026-03-15T10:18:33Z</time></trkpt>
      <trkpt lat="53.392042" lon="-1.863192"><ele>158.9</ele><time>2026-03-15T10:18:57Z</time></trkpt>
      <trkpt lat="53.391597" lon="-1.862780"><ele>151.4</ele><time>2026-03-15T10:19:22Z</time></trkpt>
      <trkpt lat="53.391138" lon="-1.862367"><ele>144.2</ele><time>2026-03-15T10:19:47Z</time></trkpt>
      <trkpt lat="53.390668" lon="-1.861954"><ele>137.1</ele><time>2026-03-15T10:20:12Z</time></trkpt>
      <trkpt lat="53.390188" lon="-1.861540"><ele>130.3</ele><time>2026-03-15T10:20:39Z</time></trkpt>
      <trkpt lat="53.389699" lon="-1.861126"><ele>123.7</ele><time>2026-03-15T10:21:05Z</time></trkpt>
      <trkpt lat="53.389202" lon="-1.860711"><ele>117.3</ele><time>2026-03-15T10:21:31Z</time></trkpt>
      <trkpt lat="53.388698" lon="-1.860296"><ele>111.2</ele><time>2026-03-15T10:21:58Z</time></trkpt>
      <trkpt lat="53.388190" lon="-1.859880"><ele>105.2</ele><time>2026-03-15T10:22:25Z</time></trkpt>
      <trkpt lat="53.387677" lon="-1.859463"><ele>99.5</ele><time>2026-03-15T10:22:51Z</time></trkpt>
      <trkpt lat="53.387163" lon="-1.859046"><ele>93.9</ele><time>2026-03-15T10:23:18Z</time></trkpt>
      <trkpt lat="53.386647" lon="-1.858628"><ele>88.6</ele><time>2026-03-15T10:23:44Z</time></trkpt>
      <trkpt lat="53.386132" lon="-1.858210"><ele>83.5</ele><time>2026-03-15T10:24:09Z</time></trkpt>
      <trkpt lat="53.385618" lon="-1.857791"><ele>78.5</ele><time>2026-03-15T10:24:35Z</time></trkpt>
      <trkpt lat="53.385107" lon="-1.857372"><ele>73.8</ele><time>2026-03-15T10:24:59Z</time></trkpt>
      <trkpt lat="53.384601" lon="-1.856952"><ele>69.2</ele><time>2026-03-15T10:25:23Z</time></trkpt>
      <trkpt lat="53.384101" lon="-1.856531"><ele>64.9</ele><time>2026-03-15T10:25:47Z</time></trkpt>
      <trkpt lat="53.383608" lon="-1.856110"><ele>60.7</ele><time>2026-03-15T10:26:09Z</time></trkpt>
      <trkpt lat="53.383124" lon="-1.855689"><ele>56.8</ele><time>2026-03-15T10:26:31Z</time></trkpt>
      <trkpt lat="53.382650" lon="-1.855267"><ele>53.0</ele><time>2026-03-15T10:26:53Z</time></trkpt>
      <trkpt lat="53.382186" lon="-1.854844"><ele>49.5</ele><time>2026-03-15T10:27:13Z</time></trkpt>
      <trkpt lat="53.381736" lon="-1.854422"><ele>46.3</ele><time>2026-03-15T10:27:33Z</time></trkpt>
      <trkpt lat="53.381299" lon="-1.853998"><ele>43.2</ele><time>2026-03-15T10:27:52Z</time></trkpt>
      <trkpt lat="53.380877" lon="-1.853575"><ele>40.5</ele><time>2026-03-15T10:28:10Z</time></trkpt>
      <trkpt lat="53.380472" lon="-1.853151"><ele>38.0</ele><time>2026-03-15T10:28:27Z</time></trkpt>
      <trkpt lat="53.380084" lon="-1.852727"><ele>35.8</ele><time>2026-03-15T10:28:43Z</time></trkpt>
      <trkpt lat="53.379714" lon="-1.852302"><ele>33.8</ele><time>2026-03-15T10:28:59Z</time></trkpt>
      <trkpt lat="53.379364" lon="-1.851878"><ele>32.2</ele><time>2026-03-15T10:29:14Z</time></trkpt>
      <trkpt lat="53.379035" lon="-1.851453"><ele>30.9</ele><time>2026-03-15T10:29:28Z</time></trkpt>
      <trkpt lat="53.378727" lon="-1.851028"><ele>29.9</ele><time>2026-03-15T10:29:42Z</time></trkpt>
      <trkpt lat="53.378442" lon="-1.850603"><ele>29.2</ele><time>2026-03-15T10:29:55Z</time></trkpt>
      <trkpt lat="53.378181" lon="-1.850178"><ele>28.9</ele><time>2026-03-15T10:30:07Z</time></trkpt>
      <trkpt lat="53.377943" lon="-1.849753"><ele>28.8</ele><time>2026-03-15T10:30:19Z</time></trkpt>
      <trkpt lat="53.377731" lon="-1.849328"><ele>29.1</ele><time>2026-03-15T10:30:30Z</time></trkpt>
      <trkpt lat="53.377545" lon="-1.848903"><ele>29.8</ele><time>2026-03-15T10:30:41Z</time></trkpt>
      <trkpt lat="53.377385" lon="-1.848478"><ele>30.7</ele><time>2026-03-15T10:30:51Z</time></trkpt>
      <trkpt lat="53.377252" lon="-1.848053"><ele>32.0</ele><time>2026-03-15T10:31:01Z</time></trkpt>
      <trkpt lat="53.377147" lon="-1.847629"><ele>33.5</ele><time>2026-03-15T10:31:11Z</time></trkpt>
      <trkpt lat="53.377070" lon="-1.847204"><ele>35.4</ele><time>2026-03-15T10:31:21Z</time></trkpt>
      <trkpt lat="53.377020" lon="-1.846781"><ele>37.5</ele><time>2026-03-15T10:31:30Z</time></trkpt>
      <trkpt lat="53.377000" lon="-1.846357"><ele>39.9</ele><time>2026-03-15T10:31:40Z</time></trkpt>
      <trkpt lat="53.377008" lon="-1.845934"><ele>42.6</ele><time>2026-03-15T10:31:49Z</time></trkpt>
      <trkpt lat="53.377046" lon="-1.845511"><ele>45.5</ele><time>2026-03-15T10:31:59Z</time></trkpt>
      <trkpt lat="53.377112" lon="-1.845089"><ele>48.6</ele><time>2026-03-15T10:32:09Z</time></trkpt>
      <trkpt lat="53.377208" lon="-1.844667"><ele>52.0</ele><time>2026-03-15T10:32:20Z</time></trkpt>
      <trkpt lat="53.377332" lon="-1.844246"><ele>55.6</ele><time>2026-03-15T10:32:32Z</time></trkpt>
      <trkpt lat="53.377486" lon="-1.843825"><ele>59.5</ele><time>2026-03-15T10:32:44Z</time></trkpt>
      <trkpt lat="53.377668" lon="-1.843405"><ele>63.5</ele><time>2026-03-15T10:32:57Z</time></trkpt>
      <trkpt lat="53.377878" lon="-1.842986"><ele>67.7</ele><time>2026-03-15T10:33:11Z</time></trkpt>
      <trkpt lat="53.378116" lon="-1.842567"><ele>72.1</ele><time>2026-03-15T10:33:26Z</time></trkpt>
      <trkpt lat="53.378382" lon="-1.842149"><ele>76.8</ele><time>2026-03-15T10:33:43Z</time></trkpt>
      <trkpt lat="53.378675" lon="-1.841732"><ele>81.6</ele><time>2026-03-15T10:34:00Z</time></trkpt>
      <trkpt lat="53.378994" lon="-1.841316"><ele>86.6</ele><time>2026-03-15T10:34:19Z</time></trkpt>
      <trkpt lat="53.379339" lon="-1.840900"><ele>91.9</ele><time>2026-03-15T10:34:39Z</time></trkpt>
      <trkpt lat="53.379709" lon="-1.840485"><ele>97.3</ele><time>2026-03-15T10:35:00Z</time></trkpt>
      <trkpt lat="53.380104" lon="-1.840071"><ele>103.0</ele><time>2026-03-15T10:35:22Z</time></trkpt>
      <trkpt lat="53.380521" lon="-1.839658"><ele>108.9</ele><time>2026-03-15T10:35:45Z</time></trkpt>
      <trkpt lat="53.380962" lon="-1.839246"><ele>115.0</ele><time>2026-03-15T10:36:09Z</time></trkpt>
      <trkpt lat="53.381423" lon="-1.838835"><ele>121.3</ele><time>2026-03-15T10:36:34Z</time></trkpt>
      <trkpt lat="53.381906" lon="-1.838424"><ele>127.9</ele><time>2026-03-15T10:37:00Z</time></trkpt>
      <trkpt lat="53.382408" lon="-1.838015"><ele>134.7</ele><time>2026-03-15T10:37:27Z</time></trkpt>
      <trkpt lat="53.382928" lon="-1.837606"><ele>141.7</ele><time>2026-03-15T10:37:55Z</time></trkpt>
      <trkpt lat="53.383466" lon="-1.837198"><ele>148.9</ele><time>2026-03-15T10:38:23Z</time></trkpt>
      <trkpt lat="53.384019" lon="-1.836791"><ele>156.4</ele><time>2026-03-15T10:38:52Z</time></trkpt>
      <trkpt lat="53.384587" lon="-1.836385"><ele>164.1</ele><time>2026-03-15T10:39:21Z</time></trkpt>
      <trkpt lat="53.385169" lon="-1.835980"><ele>172.0</ele><time>2026-03-15T10:39:51Z</time></trkpt>
      <trkpt lat="53.385763" lon="-1.835576"><ele>180.1</ele><time>2026-03-15T10:40:21Z</time></trkpt>
      <trkpt lat="53.386368" lon="-1.835172"><ele>188.4</ele><time>2026-03-15T10:40:50Z</time></trkpt>
      <trkpt lat="53.386983" lon="-1.834769"><ele>196.8</ele><time>2026-03-15T10:41:20Z</time></trkpt>
      <trkpt lat="53.387606" lon="-1.834368"><ele>205.4</ele><time>2026-03-15T10:41:50Z</time></trkpt>
      <trkpt lat="53.388235" lon="-1.833967"><ele>214.1</ele><time>2026-03-15T10:42:20Z</time></trkpt>
      <trkpt lat="53.388870" lon="-1.833566"><ele>223.0</ele><time>2026-03-15T10:42:49Z</time></trkpt>
      <trkpt lat="53.389509" lon="-1.833167"><ele>231.9</ele><time>2026-03-15T10:43:18Z</time></trkpt>
      <trkpt lat="53.390150" lon="-1.832768"><ele>241.0</ele><time>2026-03-15T10:43:46Z</time></trkpt>
      <trkpt lat="53.390793" lon="-1.832370"><ele>250.1</ele><time>2026-03-15T10:44:14Z</time></trkpt>
      <trkpt lat="53.391435" lon="-1.831973"><ele>259.3</ele><time>2026-03-15T10:44:41Z</time></trkpt>
      <trkpt lat="53.392075" lon="-1.831576"><ele>268.5</ele><time>2026-03-15T10:45:08Z</time></trkpt>
      <trkpt lat="53.392712" lon="-1.831180"><ele>277.8</ele><time>2026-03-15T10:45:34Z</time></trkpt>
      <trkpt lat="53.393345" lon="-1.830784"><ele>287.0</ele><time>2026-03-15T10:45:59Z</time></trkpt>
      <trkpt lat="53.393971" lon="-1.830389"><ele>296.3</ele><time>2026-03-15T10:46:24Z</time></trkpt>
      <trkpt lat="53.394591" lon="-1.829995"><ele>305.6</ele><time>2026-03-15T10:46:48Z</time></trkpt>
      <trkpt lat="53.395202" lon="-1.829601"><ele>314.9</ele><time>2026-03-15T10:47:12Z</time></trkpt>
      <trkpt lat="53.395802" lon="-1.829207"><ele>324.1</ele><time>2026-03-15T10:47:34Z</time></trkpt>
      <trkpt lat="53.396392" lon="-1.828814"><ele>333.4</ele><time>2026-03-15T10:47:57Z</time></trkpt>
      <trkpt lat="53.396969" lon="-1.828421"><ele>342.6</ele><time>2026-03-15T10:48:18Z</time></trkpt>
      <trkpt lat="53.397532" lon="-1.828028"><ele>351.8</ele><time>2026-03-15T10:48:39Z</time></trkpt>
      <trkpt lat="53.398080" lon="-1.827636"><ele>361.0</ele><time>2026-03-15T10:48:59Z</time></trkpt>
      <trkpt lat="53.398612" lon="-1.827243"><ele>370.2</ele><time>2026-03-15T10:49:19Z</time></trkpt>
      <trkpt lat="53.399127" lon="-1.826851"><ele>379.4</ele><time>2026-03-15T10:49:38Z</time></trkpt>
      <trkpt lat="53.399623" lon="-1.826459"><ele>388.6</ele><time>2026-03-15T10:49:57Z</time></trkpt>
      <trkpt lat="53.400101" lon="-1.826067"><ele>397.8</ele><time>2026-03-15T10:50:15Z</time></trkpt>
      <trkpt lat="53.400558" lon="-1.825676"><ele>407.0</ele><time>2026-03-15T10:50:33Z</time></trkpt>
      <trkpt lat="53.400993" lon="-1.825284"><ele>416.1</ele><time>2026-03-15T10:50:50Z</time></trkpt>
      <trkpt lat="53.401407" lon="-1.824892"><ele>425.3</ele><time>2026-03-15T10:51:07Z</time></trkpt>
      <trkpt lat="53.401797" lon="-1.824500"><ele>434.4</ele><time>2026-03-15T10:51:23Z</time></trkpt>
      <trkpt lat="53.402164" lon="-1.824108"><ele>443.5</ele><time>2026-03-15T10:51:39Z</time></trkpt>
      <trkpt lat="53.402507" lon="-1.823715"><ele>452.6</ele><time>2026-03-15T10:51:54Z</time></trkpt>
      <trkpt lat="53.402824" lon="-1.823323"><ele>461.6</ele><time>2026-03-15T10:52:09Z</time></trkpt>
      <trkpt lat="53.403116" lon="-1.822930"><ele>470.5</ele><time>2026-03-15T10:52:23Z</time></trkpt>
      <trkpt lat="53.403382" lon="-1.822537"><ele>479.4</ele><time>2026-03-15T10:52:37Z</time></trkpt>
      <trkpt lat="53.403621" lon="-1.822143"><ele>488.2</ele><time>2026-03-15T10:52:50Z</time></trkpt>
      <trkpt lat="53.403833" lon="-1.821749"><ele>496.9</ele><time>2026-03-15T10:53:03Z</time></trkpt>
      <trkpt lat="53.404017" lon="-1.821355"><ele>505.5</ele><time>2026-03-15T10:53:15Z</time></trkpt>
      <trkpt lat="53.404174" lon="-1.820961"><ele>513.9</ele><time>2026-03-15T10:53:27Z</time></trkpt>
      <trkpt lat="53.404303" lon="-1.820565"><ele>522.2</ele><time>2026-03-15T10:53:39Z</time></trkpt>
      <trkpt lat="53.404404" lon="-1.820170"><ele>530.3</ele><time>2026-03-15T10:53:50Z</time></trkpt>
      <trkpt lat="53.404477" lon="-1.819774"><ele>538.2</ele><time>2026-03-15T10:54:01Z</time></trkpt>
      <trkpt lat="53.404522" lon="-1.819377"><ele>545.9</ele><time>2026-03-15T10:54:12Z</time></trkpt>
      <trkpt lat="53.404539" lon="-1.818980"><ele>553.5</ele><time>2026-03-15T10:54:23Z</time></trkpt>
      <trkpt lat="53.404528" lon="-1.818582"><ele>560.7</ele><time>2026-03-15T10:54:34Z</time></trkpt>
      <trkpt lat="53.404489" lon="-1.818184"><ele>567.8</ele><time>2026-03-15T10:54:45Z</time></trkpt>
      <trkpt lat="53.404423" lon="-1.817785"><ele>574.6</ele><time>2026-03-15T10:54:57Z</time></trkpt>
      <trkpt lat="53.404330" lon="-1.817385"><ele>581.2</ele><time>2026-03-15T10:55:09Z</time></trkpt>
      <trkpt lat="53.404209" lon="-1.816985"><ele>587.5</ele><time>2026-03-15T10:55:22Z</time></trkpt>
      <trkpt lat="53.404063" lon="-1.816584"><ele>593.6</ele><time>2026-03-15T10:55:35Z</time></trkpt>
      <trkpt lat="53.403890" lon="-1.816183"><ele>599.5</ele><time>2026-03-15T10:55:49Z</time></trkpt>
      <trkpt lat="53.403693" lon="-1.815780"><ele>605.1</ele><time>2026-03-15T10:56:04Z</time></trkpt>
      <trkpt lat="53.403470" lon="-1.815377"><ele>610.5</ele><time>2026-03-15T10:56:20Z</time></trkpt>
      <trkpt lat="53.403224" lon="-1.814974"><ele>615.6</ele><time>2026-03-15T10:56:37Z</time></trkpt>
      <trkpt lat="53.402954" lon="-1.814569"><ele>620.5</ele><time>2026-03-15T10:56:54Z</time></trkpt>
      <trkpt lat="53.402662" lon="-1.814164"><ele>625.2</ele><time>2026-03-15T10:57:12Z</time></trkpt>
      <trkpt lat="53.402348" lon="-1.813758"><ele>629.7</ele><time>2026-03-15T10:57:31Z</time></trkpt>
      <trkpt lat="53.402013" lon="-1.813351"><ele>634.0</ele><time>2026-03-15T10:57:50Z</time></trkpt>
      <trkpt lat="53.401659" lon="-1.812944"><ele>638.0</ele><time>2026-03-15T10:58:10Z</time></trkpt>
      <trkpt lat="53.401285" lon="-1.812536"><ele>641.9</ele><time>2026-03-15T10:58:30Z</time></trkpt>
      <trkpt lat="53.400894" lon="-1.812127"><ele>645.5</ele><time>2026-03-15T10:58:51Z</time></trkpt>
      <trkpt lat="53.400487" lon="-1.811718"><ele>648.9</ele><time>2026-03-15T10:59:12Z</time></trkpt>
      <trkpt lat="53.400063" lon="-1.811307"><ele>652.1</ele><time>2026-03-15T10:59:33Z</time></trkpt>
      <trkpt lat="53.399626" lon="-1.810896"><ele>655.1</ele><time>2026-03-15T10:59:55Z</time></trkpt>
      <trkpt lat="53.399175" lon="-1.810485"><ele>657.9</ele><time>2026-03-15T11:00:16Z</time></trkpt>
      <trkpt lat="53.398712" lon="-1.810072"><ele>660.4</ele><time>2026-03-15T11:00:38Z</time></trkpt>
      <trkpt lat="53.398238" lon="-1.809659"><ele>662.7</ele><time>2026-03-15T11:00:59Z</time></trkpt>
      <trkpt lat="53.397755" lon="-1.809245"><ele>664.7</ele><time>2026-03-15T11:01:21Z</time></trkpt>
      <trkpt lat="53.397263" lon="-1.808830"><ele>666.5</ele><time>2026-03-15T11:01:42Z</time></trkpt>
      <trkpt lat="53.396765" lon="-1.808415"><ele>668.0</ele><time>2026-03-15T11:02:03Z</time></trkpt>
      <trkpt lat="53.396261" lon="-1.807999"><ele>669.2</ele><time>2026-03-15T11:02:24Z</time></trkpt>
      <trkpt lat="53.395753" lon="-1.807582"><ele>670.1</ele><time>2026-03-15T11:02:45Z</time></trkpt>
      <trkpt lat="53.395242" lon="-1.807164"><ele>670.7</ele><time>2026-03-15T11:03:06Z</time></trkpt>
      <trkpt lat="53.394730" lon="-1.806746"><ele>671.0</ele><time>2026-03-15T11:03:26Z</time></trkpt>
    </trkseg>
  </trk>
</gpx>
