<?xml version="1.0" encoding="UTF-8"?>
<gpx creator="route-posters-sample" version="1.1" xmlns="http://www.topografix.com/GPX/1/1">
  <metadata><time>2026-04-07T06:50:00Z</time></metadata>
  <trk>
    <name>Regent's Park intervals</name>
    <type>running</type>
    <trkseg>
      <trkpt lat="51.531000" lon="-0.156000"><ele>30.0</ele><time>2026-04-07T06:50:00Z</time></trkpt>
      <trkpt lat="51.531345" lon="-0.155654"><ele>30.2</ele><time>2026-04-07T06:50:11Z</time></trkpt>
      <trkpt lat="51.531690" lon="-0.155307"><ele>30.5</ele><time>2026-04-07T06:50:22Z</time></trkpt>
      <trkpt lat="51.532034" lon="-0.154960"><ele>30.8</ele><time>2026-04-07T06:50:34Z</time></trkpt>
      <trkpt lat="51.532377" lon="-0.154612"><ele>31.0</ele><time>2026-04-07T06:50:46Z</time></trkpt>
      <trkpt lat="51.532719" lon="-0.154265"><ele>31.2</ele><time>2026-04-07T06:50:58Z</time></trkpt>
      <trkpt lat="51.533058" lon="-0.153918"><ele>31.4</ele><time>2026-04-07T06:51:10Z</time></trkpt>
      <trkpt lat="51.533394" lon="-0.153572"><ele>31.6</ele><time>2026-04-07T06:51:23Z</time></trkpt>
      <trkpt lat="51.533726" lon="-0.153227"><ele>31.7</ele><time>2026-04-07T06:51:35Z</time></trkpt>
      <trkpt lat="51.534054" lon="-0.152883"><ele>31.8</ele><time>2026-04-07T06:51:47Z</time></trkpt>
      <trkpt lat="51.534378" lon="-0.152540"><ele>31.9</ele><time>2026-04-07T06:52:00Z</time></trkpt>
      <trkpt lat="51.534696" lon="-0.152198"><ele>32.0</ele><time>2026-04-07T06:52:12Z</time></trkpt>
      <trkpt lat="51.535008" lon="-0.151858"><ele>32.0</ele><time>2026-04-07T06:52:24Z</time></trkpt>
      <trkpt lat="51.535313" lon="-0.151521"><ele>32.0</ele><time>2026-04-07T06:52:36Z</time></trkpt>
      <trkpt lat="51.535612" lon="-0.151185"><ele>32.0</ele><time>2026-04-07T06:52:48Z</time></trkpt>
      <trkpt lat="51.535902" lon="-0.150852"><ele>32.0</ele><time>2026-04-07T06:52:59Z</time></trkpt>
      <trkpt lat="51.536185" lon="-0.150521"><ele>32.0</ele><time>2026-04-07T06:53:10Z</time></trkpt>
      <trkpt lat="51.536459" lon="-0.150193"><ele>32.0</ele><time>2026-04-07T06:53:21Z</time></trkpt>
      <trkpt lat="51.536724" lon="-0.149868"><ele>32.1</ele><time>2026-04-07T06:53:32Z</time></trkpt>
      <trkpt lat="51.536980" lon="-0.149545"><ele>32.2</ele><time>2026-04-07T06:53:42Z</time></trkpt>
      <trkpt lat="51.537226" lon="-0.149226"><ele>32.3</ele><time>2026-04-07T06:53:52Z</time></trkpt>
      <trkpt lat="51.537462" lon="-0.148910"><ele>32.5</ele><time>2026-04-07T06:54:01Z</time></trkpt>
      <trkpt lat="51.537687" lon="-0.148598"><ele>32.7</ele><time>2026-04-07T06:54:10Z</time></trkpt>
      <trkpt lat="51.537901" lon="-0.148289"><ele>33.0</ele><time>2026-04-07T06:54:19Z</time></trkpt>
      <trkpt lat="51.538104" lon="-0.147983"><ele>33.4</ele><time>2026-04-07T06:54:27Z</time></trkpt>
      <trkpt lat="51.538296" lon="-0.147681"><ele>33.8</ele><time>2026-04-07T06:54:35Z</time></trkpt>
      <trkpt lat="51.538476" lon="-0.147383"><ele>34.3</ele><time>2026-04-07T06:54:43Z</time></trkpt>
      <trkpt lat="51.538644" lon="-0.147089"><ele>34.8</ele><time>2026-04-07T06:54:49Z</time></trkpt>
      <trkpt lat="51.538801" lon="-0.146799"><ele>35.4</ele><time>2026-04-07T06:54:56Z</time></trkpt>
      <trkpt lat="51.538944" lon="-0.146512"><ele>36.0</ele><time>2026-04-07T06:55:02Z</time></trkpt>
      <trkpt lat="51.539076" lon="-0.146230"><ele>36.7</ele><time>2026-04-07T06:55:08Z</time></trkpt>
      <trkpt lat="51.539194" lon="-0.145952"><ele>37.3</ele><time>2026-04-07T06:55:14Z</time></trkpt>
      <trkpt lat="51.539300" lon="-0.145677"><ele>38.0</ele><time>2026-04-07T06:55:19Z</time></trkpt>
      <trkpt lat="51.539394" lon="-0.145407"><ele>38.7</ele><time>2026-04-07T06:55:23Z</time></trkpt>
      <trkpt lat="51.539474" lon="-0.145141"><ele>39.4</ele><time>2026-04-07T06:55:28Z</time></trkpt>
      <trkpt lat="51.539542" lon="-0.144879"><ele>40.1</ele><time>2026-04-07T06:55:32Z</time></trkpt>
      <trkpt lat="51.539596" lon="-0.144621"><ele>40.7</ele><time>2026-04-07T06:55:36Z</time></trkpt>
      <trkpt lat="51.539638" lon="-0.144367"><ele>41.3</ele><time>2026-04-07T06:55:40Z</time></trkpt>
      <trkpt lat="51.539666" lon="-0.144118"><ele>41.9</ele><time>2026-04-07T06:55:44Z</time></trkpt>
      <trkpt lat="51.539682" lon="-0.143872"><ele>42.5</ele><time>2026-04-07T06:55:47Z</time></trkpt>
      <trkpt lat="51.539684" lon="-0.143631"><ele>43.0</ele><time>2026-04-07T06:55:51Z</time></trkpt>
      <trkpt lat="51.539673" lon="-0.143394"><ele>43.4</ele><time>2026-04-07T06:55:54Z</time></trkpt>
      <trkpt lat="51.539650" lon="-0.143162"><ele>43.9</ele><time>2026-04-07T06:55:57Z</time></trkpt>
      <trkpt lat="51.539613" lon="-0.142933"><ele>44.3</ele><time>2026-04-07T06:56:01Z</time></trkpt>
      <trkpt lat="51.539564" lon="-0.142709"><ele>44.6</ele><time>2026-04-07T06:56:04Z</time></trkpt>
      <trkpt lat="51.539502" lon="-0.142490"><ele>45.0</ele><time>2026-04-07T06:56:08Z</time></trkpt>
      <trkpt lat="51.539427" lon="-0.142275"><ele>45.3</ele><time>2026-04-07T06:56:11Z</time></trkpt>
      <trkpt lat="51.539340" lon="-0.142064"><ele>45.6</ele><time>2026-04-07T06:56:15Z</time></trkpt>
      <trkpt lat="51.539240" lon="-0.141858"><ele>45.9</ele><time>2026-04-07T06:56:19Z</time></trkpt>
      <trkpt lat="51.539128" lon="-0.141656"><ele>46.2</ele><time>2026-04-07T06:56:23Z</time></trkpt>
      <trkpt lat="51.539003" lon="-0.141460"><ele>46.6</ele><time>2026-04-07T06:56:27Z</time></trkpt>
      <trkpt lat="51.538867" lon="-0.141268"><ele>46.9</ele><time>2026-04-07T06:56:31Z</time></trkpt>
      <trkpt lat="51.538718" lon="-0.141081"><ele>47.4</ele><time>2026-04-07T06:56:36Z</time></trkpt>
      <trkpt lat="51.538558" lon="-0.140899"><ele>47.8</ele><time>2026-04-07T06:56:41Z</time></trkpt>
      <trkpt lat="51.538386" lon="-0.140722"><ele>48.3</ele><time>2026-04-07T06:56:46Z</time></trkpt>
      <trkpt lat="51.538203" lon="-0.140551"><ele>48.8</ele><time>2026-04-07T06:56:52Z</time></trkpt>
      <trkpt lat="51.538009" lon="-0.140384"><ele>49.4</ele><time>2026-04-07T06:56:58Z</time></trkpt>
      <trkpt lat="51.537803" lon="-0.140224"><ele>50.0</ele><time>2026-04-07T06:57:04Z</time></trkpt>
      <trkpt lat="51.537587" lon="-0.140069"><ele>50.7</ele><time>2026-04-07T06:57:11Z</time></trkpt>
      <trkpt lat="51.537361" lon="-0.139919"><ele>51.4</ele><time>2026-04-07T06:57:18Z</time></trkpt>
      <trkpt lat="51.537125" lon="-0.139776"><ele>52.2</ele><time>2026-04-07T06:57:25Z</time></trkpt>
      <trkpt lat="51.536878" lon="-0.139639"><ele>52.9</ele><time>2026-04-07T06:57:33Z</time></trkpt>
      <trkpt lat="51.536623" lon="-0.139508"><ele>53.7</ele><time>2026-04-07T06:57:41Z</time></trkpt>
      <trkpt lat="51.536358" lon="-0.139383"><ele>54.5</ele><time>2026-04-07T06:57:50Z</time></trkpt>
      <trkpt lat="51.536085" lon="-0.139265"><ele>55.3</ele><time>2026-04-07T06:57:58Z</time></trkpt>
      <trkpt lat="51.535803" lon="-0.139154"><ele>56.0</ele><time>2026-04-07T06:58:07Z</time></trkpt>
      <trkpt lat="51.535514" lon="-0.139050"><ele>56.7</ele><time>2026-04-07T06:58:17Z</time></trkpt>
      <trkpt lat="51.535217" lon="-0.138952"><ele>57.4</ele><time>2026-04-07T06:58:26Z</time></trkpt>
      <trkpt lat="51.534913" lon="-0.138862"><ele>58.1</ele><time>2026-04-07T06:58:36Z</time></trkpt>
      <trkpt lat="51.534602" lon="-0.138779"><ele>58.7</ele><time>2026-04-07T06:58:46Z</time></trkpt>
      <trkpt lat="51.534286" lon="-0.138703"><ele>59.3</ele><time>2026-04-07T06:58:57Z</time></trkpt>
      <trkpt lat="51.533964" lon="-0.138635"><ele>59.8</ele><time>2026-04-07T06:59:07Z</time></trkpt>
      <trkpt lat="51.533637" lon="-0.138575"><ele>60.2</ele><time>2026-04-07T06:59:18Z</time></trkpt>
      <trkpt lat="51.533306" lon="-0.138523"><ele>60.6</ele><time>2026-04-07T06:59:28Z</time></trkpt>
      <trkpt lat="51.532971" lon="-0.138478"><ele>60.9</ele><time>2026-04-07T06:59:39Z</time></trkpt>
      <trkpt lat="51.532633" lon="-0.138441"><ele>61.2</ele><time>2026-04-07T06:59:50Z</time></trkpt>
      <trkpt lat="51.532292" lon="-0.138413"><ele>61.5</ele><time>2026-04-07T07:00:00Z</time></trkpt>
      <trkpt lat="51.531949" lon="-0.138392"><ele>61.7</ele><time>2026-04-07T07:00:11Z</time></trkpt>
      <trkpt lat="51.531604" lon="-0.138380"><ele>61.9</ele><time>2026-04-07T07:00:22Z</time></trkpt>
      <trkpt lat="51.531259" lon="-0.138376"><ele>62.0</ele><time>2026-04-07T07:00:32Z</time></trkpt>
      <trkpt lat="51.530914" lon="-0.138380"><ele>62.2</ele><time>2026-04-07T07:00:42Z</time></trkpt>
      <trkpt lat="51.530569" lon="-0.138392"><ele>62.4</ele><time>2026-04-07T07:00:53Z</time></trkpt>
      <trkpt lat="51.530224" lon="-0.138412"><ele>62.5</ele><time>2026-04-07T07:01:03Z</time></trkpt>
      <trkpt lat="51.529882" lon="-0.138441"><ele>62.7</ele><time>2026-04-07T07:01:12Z</time></trkpt>
      <trkpt lat="51.529542" lon="-0.138478"><ele>62.9</ele><time>2026-04-07T07:01:22Z</time></trkpt>
      <trkpt lat="51.529204" lon="-0.138523"><ele>63.2</ele><time>2026-04-07T07:01:31Z</time></trkpt>
      <trkpt lat="51.528870" lon="-0.138576"><ele>63.5</ele><time>2026-04-07T07:01:40Z</time></trkpt>
      <trkpt lat="51.528540" lon="-0.138637"><ele>63.8</ele><time>2026-04-07T07:01:49Z</time></trkpt>
      <trkpt lat="51.528215" lon="-0.138705"><ele>64.1</ele><time>2026-04-07T07:01:57Z</time></trkpt>
      <trkpt lat="51.527895" lon="-0.138782"><ele>64.5</ele><time>2026-04-07T07:02:05Z</time></trkpt>
      <trkpt lat="51.527580" lon="-0.138866"><ele>64.9</ele><time>2026-04-07T07:02:13Z</time></trkpt>
      <trkpt lat="51.527272" lon="-0.138958"><ele>65.4</ele><time>2026-04-07T07:02:21Z</time></trkpt>
      <trkpt lat="51.526970" lon="-0.139056"><ele>65.8</ele><time>2026-04-07T07:02:28Z</time></trkpt>
      <trkpt lat="51.526676" lon="-0.139163"><ele>66.2</ele><time>2026-04-07T07:02:36Z</time></trkpt>
      <trkpt lat="51.526389" lon="-0.139276"><ele>66.7</ele><time>2026-04-07T07:02:42Z</time></trkpt>
      <trkpt lat="51.526110" lon="-0.139396"><ele>67.1</ele><time>2026-04-07T07:02:49Z</time></trkpt>
      <trkpt lat="51.525840" lon="-0.139523"><ele>67.5</ele><time>2026-04-07T07:02:56Z</time></trkpt>
      <trkpt lat="51.525578" lon="-0.139656"><ele>67.9</ele><time>2026-04-07T07:03:02Z</time></trkpt>
      <trkpt lat="51.525326" lon="-0.139796"><ele>68.2</ele><time>2026-04-07T07:03:08Z</time></trkpt>
      <trkpt lat="51.525084" lon="-0.139941"><ele>68.5</ele><time>2026-04-07T07:03:14Z</time></trkpt>
      <trkpt lat="51.524851" lon="-0.140093"><ele>68.8</ele><time>2026-04-07T07:03:19Z</time></trkpt>
      <trkpt lat="51.524629" lon="-0.140251"><ele>68.9</ele><time>2026-04-07T07:03:25Z</time></trkpt>
      <trkpt lat="51.524417" lon="-0.140414"><ele>69.0</ele><time>2026-04-07T07:03:30Z</time></trkpt>
      <trkpt lat="51.524215" lon="-0.140582"><ele>69.1</ele><time>2026-04-07T07:03:36Z</time></trkpt>
      <trkpt lat="51.524025" lon="-0.140756"><ele>69.1</ele><time>2026-04-07T07:03:41Z</time></trkpt>
      <trkpt lat="51.523846" lon="-0.140935"><ele>69.0</ele><time>2026-04-07T07:03:46Z</time></trkpt>
      <trkpt lat="51.523678" lon="-0.141118"><ele>68.9</ele><time>2026-04-07T07:03:51Z</time></trkpt>
      <trkpt lat="51.523522" lon="-0.141307"><ele>68.7</ele><time>2026-04-07T07:03:55Z</time></trkpt>
      <trkpt lat="51.523377" lon="-0.141499"><ele>68.4</ele><time>2026-04-07T07:04:00Z</time></trkpt>
      <trkpt lat="51.523244" lon="-0.141697"><ele>68.2</ele><time>2026-04-07T07:04:05Z</time></trkpt>
      <trkpt lat="51.523123" lon="-0.141898"><ele>67.9</ele><time>2026-04-07T07:04:09Z</time></trkpt>
      <trkpt lat="51.523014" lon="-0.142104"><ele>67.6</ele><time>2026-04-07T07:04:13Z</time></trkpt>
      <trkpt lat="51.522917" lon="-0.142313"><ele>67.3</ele><time>2026-04-07T07:04:18Z</time></trkpt>
      <trkpt lat="51.522832" lon="-0.142527"><ele>66.9</ele><time>2026-04-07T07:04:22Z</time></trkpt>
      <trkpt lat="51.522759" lon="-0.142744"><ele>66.6</ele><time>2026-04-07T07:04:26Z</time></trkpt>
      <trkpt lat="51.522698" lon="-0.142964"><ele>66.4</ele><time>2026-04-07T07:04:31Z</time></trkpt>
      <trkpt lat="51.522649" lon="-0.143189"><ele>66.1</ele><time>2026-04-07T07:04:35Z</time></trkpt>
      <trkpt lat="51.522613" lon="-0.143417"><ele>65.9</ele><time>2026-04-07T07:04:39Z</time></trkpt>
      <trkpt lat="51.522589" lon="-0.143648"><ele>65.7</ele><time>2026-04-07T07:04:44Z</time></trkpt>
      <trkpt lat="51.522577" lon="-0.143883"><ele>65.5</ele><time>2026-04-07T07:04:48Z</time></trkpt>
      <trkpt lat="51.522578" lon="-0.144121"><ele>65.4</ele><time>2026-04-07T07:04:53Z</time></trkpt>
      <trkpt lat="51.522590" lon="-0.144362"><ele>65.3</ele><time>2026-04-07T07:04:57Z</time></trkpt>
      <trkpt lat="51.522615" lon="-0.144606"><ele>65.2</ele><time>2026-04-07T07:05:02Z</time></trkpt>
      <trkpt lat="51.522652" lon="-0.144854"><ele>65.1</ele><time>2026-04-07T07:05:07Z</time></trkpt>
      <trkpt lat="51.522701" lon="-0.145105"><ele>65.1</ele><time>2026-04-07T07:05:12Z</time></trkpt>
      <trkpt lat="51.522762" lon="-0.145360"><ele>65.0</ele><time>2026-04-07T07:05:18Z</time></trkpt>
      <trkpt lat="51.522835" lon="-0.145617"><ele>65.0</ele><time>2026-04-07T07:05:23Z</time></trkpt>
      <trkpt lat="51.522920" lon="-0.145878"><ele>64.9</ele><time>2026-04-07T07:05:29Z</time></trkpt>
      <trkpt lat="51.523016" lon="-0.146142"><ele>64.8</ele><time>2026-04-07T07:05:36Z</time></trkpt>
      <trkpt lat="51.523125" lon="-0.146409"><ele>64.6</ele><time>2026-04-07T07:05:42Z</time></trkpt>
      <trkpt lat="51.523245" lon="-0.146680"><ele>64.5</ele><time>2026-04-07T07:05:49Z</time></trkpt>
      <trkpt lat="51.523377" lon="-0.146953"><ele>64.2</ele><time>2026-04-07T07:05:55Z</time></trkpt>
      <trkpt lat="51.523521" lon="-0.147230"><ele>63.9</ele><time>2026-04-07T07:06:02Z</time></trkpt>
      <trkpt lat="51.523675" lon="-0.147511"><ele>63.6</ele><time>2026-04-07T07:06:10Z</time></trkpt>
      <trkpt lat="51.523841" lon="-0.147795"><ele>63.2</ele><time>2026-04-07T07:06:17Z</time></trkpt>
      <trkpt lat="51.524018" lon="-0.148082"><ele>62.7</ele><time>2026-04-07T07:06:25Z</time></trkpt>
      <trkpt lat="51.524206" lon="-0.148372"><ele>62.2</ele><time>2026-04-07T07:06:33Z</time></trkpt>
      <trkpt lat="51.524405" lon="-0.148666"><ele>61.6</ele><time>2026-04-07T07:06:41Z</time></trkpt>
      <trkpt lat="51.524614" lon="-0.148962"><ele>61.0</ele><time>2026-04-07T07:06:49Z</time></trkpt>
      <trkpt lat="51.524833" lon="-0.149263"><ele>60.4</ele><time>2026-04-07T07:06:57Z</time></trkpt>
      <trkpt lat="51.525063" lon="-0.149566"><ele>59.7</ele><time>2026-04-07T07:07:05Z</time></trkpt>
      <trkpt lat="51.525302" lon="-0.149873"><ele>59.0</ele><time>2026-04-07T07:07:14Z</time></trkpt>
      <trkpt lat="51.525550" lon="-0.150182"><ele>58.2</ele><time>2026-04-07T07:07:22Z</time></trkpt>
      <trkpt lat="51.525808" lon="-0.150495"><ele>57.5</ele><time>2026-04-07T07:07:31Z</time></trkpt>
      <trkpt lat="51.526074" lon="-0.150811"><ele>56.8</ele><time>2026-04-07T07:07:40Z</time></trkpt>
      <trkpt lat="51.526349" lon="-0.151130"><ele>56.1</ele><time>2026-04-07T07:07:48Z</time></trkpt>
      <trkpt lat="51.526632" lon="-0.151451"><ele>55.4</ele><time>2026-04-07T07:07:57Z</time></trkpt>
      <trkpt lat="51.526922" lon="-0.151776"><ele>54.8</ele><time>2026-04-07T07:08:06Z</time></trkpt>
      <trkpt lat="51.527220" lon="-0.152103"><ele>54.2</ele><time>2026-04-07T07:08:14Z</time></trkpt>
      <trkpt lat="51.527524" lon="-0.152432"><ele>53.6</ele><time>2026-04-07T07:08:23Z</time></trkpt>
      <trkpt lat="51.527835" lon="-0.152764"><ele>53.1</ele><time>2026-04-07T07:08:32Z</time></trkpt>
      <trkpt lat="51.528152" lon="-0.153098"><ele>52.6</ele><time>2026-04-07T07:08:41Z</time></trkpt>
      <trkpt lat="51.528473" lon="-0.153434"><ele>52.2</ele><time>2026-04-07T07:08:50Z</time></trkpt>
      <trkpt lat="51.528800" lon="-0.153772"><ele>51.8</ele><time>2026-04-07T07:08:58Z</time></trkpt>
      <trkpt lat="51.529131" lon="-0.154111"><ele>51.4</ele><time>2026-04-07T07:09:07Z</time></trkpt>
      <trkpt lat="51.529465" lon="-0.154452"><ele>51.0</ele><time>2026-04-07T07:09:16Z</time></trkpt>
      <trkpt lat="51.529803" lon="-0.154794"><ele>50.7</ele><time>2026-04-07T07:09:25Z</time></trkpt>
      <trkpt lat="51.530143" lon="-0.155138"><ele>50.4</ele><time>2026-04-07T07:09:34Z</time></trkpt>
      <trkpt lat="51.530485" lon="-0.155482"><ele>50.1</ele><time>2026-04-07T07:09:44Z</time></trkpt>
      <trkpt lat="51.530828" lon="-0.155827"><ele>49.7</ele><time>2026-04-07T07:09:53Z</time></trkpt>
      <trkpt lat="51.531172" lon="-0.156173"><ele>49.4</ele><time>2026-04-07T07:10:02Z</time></trkpt>
      <trkpt lat="51.531516" lon="-0.156519"><ele>49.0</ele><time>2026-04-07T07:10:12Z</time></trkpt>
      <trkpt lat="51.531859" lon="-0.156864"><ele>48.6</ele><time>2026-04-07T07:10:22Z</time></trkpt>
      <trkpt lat="51.532202" lon="-0.157210"><ele>48.2</ele><time>2026-04-07T07:10:31Z</time></trkpt>
      <trkpt lat="51.532542" lon="-0.157555"><ele>47.7</ele><time>2026-04-07T07:10:41Z</time></trkpt>
      <trkpt lat="51.532880" lon="-0.157900"><ele>47.1</ele><time>2026-04-07T07:10:51Z</time></trkpt>
      <trkpt lat="51.533215" lon="-0.158244"><ele>46.5</ele><time>2026-04-07T07:11:01Z</time></trkpt>
      <trkpt lat="51.533547" lon="-0.158587"><ele>45.9</ele><time>2026-04-07T07:11:12Z</time></trkpt>
      <trkpt lat="51.533874" lon="-0.158928"><ele>45.3</ele><time>2026-04-07T07:11:22Z</time></trkpt>
      <trkpt lat="51.534196" lon="-0.159268"><ele>44.6</ele><time>2026-04-07T07:11:33Z</time></trkpt>
      <trkpt lat="51.534513" lon="-0.159607"><ele>43.8</ele><time>2026-04-07T07:11:43Z</time></trkpt>
      <trkpt lat="51.534825" lon="-0.159943"><ele>43.1</ele><time>2026-04-07T07:11:54Z</time></trkpt>
      <trkpt lat="51.535130" lon="-0.160278"><ele>42.3</ele><time>2026-04-07T07:12:04Z</time></trkpt>
      <trkpt lat="51.535428" lon="-0.160611"><ele>41.6</ele><time>2026-04-07T07:12:15Z</time></trkpt>
      <trkpt lat="51.535719" lon="-0.160941"><ele>40.8</ele><time>2026-04-07T07:12:25Z</time></trkpt>
      <trkpt lat="51.536002" lon="-0.161269"><ele>40.1</ele><time>2026-04-07T07:12:36Z</time></trkpt>
      <trkpt lat="51.536276" lon="-0.161594"><ele>39.4</ele><time>2026-04-07T07:12:46Z</time></trkpt>
      <trkpt lat="51.536542" lon="-0.161916"><ele>38.7</ele><time>2026-04-07T07:12:56Z</time></trkpt>
      <trkpt lat="51.536799" lon="-0.162236"><ele>38.1</ele><time>2026-04-07T07:13:07Z</time></trkpt>
      <trkpt lat="51.537047" lon="-0.162552"><ele>37.5</ele><time>2026-04-07T07:13:17Z</time></trkpt>
      <trkpt lat="51.537284" lon="-0.162866"><ele>37.0</ele><time>2026-04-07T07:13:26Z</time></trkpt>
      <trkpt lat="51.537512" lon="-0.163176"><ele>36.5</ele><time>2026-04-07T07:13:36Z</time></trkpt>
      <trkpt lat="51.537729" lon="-0.163483"><ele>36.1</ele><time>2026-04-07T07:13:45Z</time></trkpt>
      <trkpt lat="51.537935" lon="-0.163787"><ele>35.8</ele><time>2026-04-07T07:13:54Z</time></trkpt>
      <trkpt lat="51.538131" lon="-0.164088"><ele>35.5</ele><time>2026-04-07T07:14:03Z</time></trkpt>
      <trkpt lat="51.538315" lon="-0.164385"><ele>35.2</ele><time>2026-04-07T07:14:11Z</time></trkpt>
      <trkpt lat="51.538488" lon="-0.164678"><ele>35.0</ele><time>2026-04-07T07:14:19Z</time></trkpt>
      <trkpt lat="51.538649" lon="-0.164969"><ele>34.9</ele><time>2026-04-07T07:14:27Z</time></trkpt>
      <trkpt lat="51.538799" lon="-0.165255"><ele>34.7</ele><time>2026-04-07T07:14:34Z</time></trkpt>
      <trkpt lat="51.538936" lon="-0.165539"><ele>34.6</ele><time>2026-04-07T07:14:41Z</time></trkpt>
      <trkpt lat="51.539061" lon="-0.165818"><ele>34.5</ele><time>2026-04-07T07:14:48Z</time></trkpt>
      <trkpt lat="51.539175" lon="-0.166094"><ele>34.3</ele><time>2026-04-07T07:14:54Z</time></trkpt>
      <trkpt lat="51.539276" lon="-0.166367"><ele>34.2</ele><time>2026-04-07T07:15:00Z</time></trkpt>
      <trkpt lat="51.539364" lon="-0.166636"><ele>34.1</ele><time>2026-04-07T07:15:06Z</time></trkpt>
      <trkpt lat="51.539440" lon="-0.166901"><ele>33.9</ele><time>2026-04-07T07:15:11Z</time></trkpt>
      <trkpt lat="51.539504" lon="-0.167163"><ele>33.7</ele><time>2026-04-07T07:15:16Z</time></trkpt>
      <trkpt lat="51.539554" lon="-0.167421"><ele>33.5</ele><time>2026-04-07T07:15:21Z</time></trkpt>
      <trkpt lat="51.539593" lon="-0.167675"><ele>33.2</ele><time>2026-04-07T07:15:26Z</time></trkpt>
      <trkpt lat="51.539618" lon="-0.167926"><ele>32.9</ele><time>2026-04-07T07:15:30Z</time></trkpt>
      <trkpt lat="51.539631" lon="-0.168173"><ele>32.6</ele><time>2026-04-07T07:15:34Z</time></trkpt>
      <trkpt lat="51.539631" lon="-0.168417"><ele>32.2</ele><time>2026-04-07T07:15:38Z</time></trkpt>
      <trkpt lat="51.539618" lon="-0.168657"><ele>31.8</ele><time>2026-04-07T07:15:42Z</time></trkpt>
      <trkpt lat="51.539593" lon="-0.168892"><ele>31.4</ele><time>2026-04-07T07:15:46Z</time></trkpt>
      <trkpt lat="51.539555" lon="-0.169124"><ele>31.1</ele><time>2026-04-07T07:15:50Z</time></trkpt>
      <trkpt lat="51.539504" lon="-0.169353"><ele>30.7</ele><time>2026-04-07T07:15:53Z</time></trkpt>
      <trkpt lat="51.539440" lon="-0.169577"><ele>30.3</ele><time>2026-04-07T07:15:57Z</time></trkpt>
      <trkpt lat="51.539364" lon="-0.169797"><ele>29.9</ele><time>2026-04-07T07:16:01Z</time></trkpt>
      <trkpt lat="51.539276" lon="-0.170013"><ele>29.6</ele><time>2026-04-07T07:16:04Z</time></trkpt>
      <trkpt lat="51.539175" lon="-0.170224"><ele>29.4</ele><time>2026-04-07T07:16:08Z</time></trkpt>
      <trkpt lat="51.539061" lon="-0.170431"><ele>29.1</ele><time>2026-04-07T07:16:12Z</time></trkpt>
      <trkpt lat="51.538935" lon="-0.170634"><ele>29.0</ele><time>2026-04-07T07:16:16Z</time></trkpt>
      <trkpt lat="51.538797" lon="-0.170832"><ele>28.8</ele><time>2026-04-07T07:16:20Z</time></trkpt>
      <trkpt lat="51.538647" lon="-0.171026"><ele>28.8</ele><time>2026-04-07T07:16:25Z</time></trkpt>
      <trkpt lat="51.538485" lon="-0.171214"><ele>28.8</ele><time>2026-04-07T07:16:29Z</time></trkpt>
      <trkpt lat="51.538312" lon="-0.171397"><ele>28.9</ele><time>2026-04-07T07:16:34Z</time></trkpt>
      <trkpt lat="51.538127" lon="-0.171576"><ele>29.0</ele><time>2026-04-07T07:16:39Z</time></trkpt>
      <trkpt lat="51.537930" lon="-0.171748"><ele>29.2</ele><time>2026-04-07T07:16:44Z</time></trkpt>
      <trkpt lat="51.537722" lon="-0.171915"><ele>29.5</ele><time>2026-04-07T07:16:50Z</time></trkpt>
      <trkpt lat="51.537504" lon="-0.172076"><ele>29.8</ele><time>2026-04-07T07:16:55Z</time></trkpt>
      <trkpt lat="51.537274" lon="-0.172232"><ele>30.1</ele><time>2026-04-07T07:17:01Z</time></trkpt>
      <trkpt lat="51.537035" lon="-0.172381"><ele>30.5</ele><time>2026-04-07T07:17:08Z</time></trkpt>
      <trkpt lat="51.536785" lon="-0.172523"><ele>30.8</ele><time>2026-04-07T07:17:14Z</time></trkpt>
      <trkpt lat="51.536526" lon="-0.172660"><ele>31.2</ele><time>2026-04-07T07:17:21Z</time></trkpt>
      <trkpt lat="51.536258" lon="-0.172789"><ele>31.6</ele><time>2026-04-07T07:17:28Z</time></trkpt>
      <trkpt lat="51.535980" lon="-0.172911"><ele>31.9</ele><time>2026-04-07T07:17:36Z</time></trkpt>
      <trkpt lat="51.535694" lon="-0.173026"><ele>32.3</ele><time>2026-04-07T07:17:44Z</time></trkpt>
      <trkpt lat="51.535401" lon="-0.173134"><ele>32.6</ele><time>2026-04-07T07:17:52Z</time></trkpt>
      <trkpt lat="51.535099" lon="-0.173235"><ele>32.9</ele><time>2026-04-07T07:18:00Z</time></trkpt>
      <trkpt lat="51.534790" lon="-0.173327"><ele>33.1</ele><time>2026-04-07T07:18:09Z</time></trkpt>
      <trkpt lat="51.534475" lon="-0.173412"><ele>33.3</ele><time>2026-04-07T07:18:19Z</time></trkpt>
      <trkpt lat="51.534154" lon="-0.173488"><ele>33.5</ele><time>2026-04-07T07:18:28Z</time></trkpt>
      <trkpt lat="51.533827" lon="-0.173557"><ele>33.7</ele><time>2026-04-07T07:18:38Z</time></trkpt>
      <trkpt lat="51.533495" lon="-0.173617"><ele>33.8</ele><time>2026-04-07T07:18:48Z</time></trkpt>
      <trkpt lat="51.533159" lon="-0.173669"><ele>33.9</ele><time>2026-04-07T07:18:58Z</time></trkpt>
      <trkpt lat="51.532820" lon="-0.173712"><ele>34.0</ele><time>2026-04-07T07:19:09Z</time></trkpt>
      <trkpt lat="51.532477" lon="-0.173746"><ele>34.1</ele><time>2026-04-07T07:19:20Z</time></trkpt>
      <trkpt lat="51.532132" lon="-0.173772"><ele>34.2</ele><time>2026-04-07T07:19:31Z</time></trkpt>
      <trkpt lat="51.531784" lon="-0.173789"><ele>34.4</ele><time>2026-04-07T07:19:42Z</time></trkpt>
      <trkpt lat="51.531436" lon="-0.173797"><ele>34.5</ele><time>2026-04-07T07:19:53Z</time></trkpt>
      <trkpt lat="51.531087" lon="-0.173796"><ele>34.7</ele><time>2026-04-07T07:20:04Z</time></trkpt>
      <trkpt lat="51.530738" lon="-0.173786"><ele>34.9</ele><time>2026-04-07T07:20:15Z</time></trkpt>
      <trkpt lat="51.530391" lon="-0.173767"><ele>35.2</ele><time>2026-04-07T07:20:27Z</time></trkpt>
      <trkpt lat="51.530044" lon="-0.173740"><ele>35.6</ele><time>2026-04-07T07:20:38Z</time></trkpt>
      <trkpt lat="51.529700" lon="-0.173704"><ele>35.9</ele><time>2026-04-07T07:20:49Z</time></trkpt>
      <trkpt lat="51.529358" lon="-0.173659"><ele>36.4</ele><time>2026-04-07T07:21:00Z</time></trkpt>
      <trkpt lat="51.529020" lon="-0.173605"><ele>36.9</ele><time>2026-04-07T07:21:10Z</time></trkpt>
      <trkpt lat="51.528685" lon="-0.173543"><ele>37.4</ele><time>2026-04-07T07:21:21Z</time></trkpt>
      <trkpt lat="51.528356" lon="-0.173472"><ele>38.1</ele><time>2026-04-07T07:21:31Z</time></trkpt>
      <trkpt lat="51.528031" lon="-0.173393"><ele>38.7</ele><time>2026-04-07T07:21:41Z</time></trkpt>
      <trkpt lat="51.527712" lon="-0.173306"><ele>39.4</ele><time>2026-04-07T07:21:51Z</time></trkpt>
      <trkpt lat="51.527400" lon="-0.173211"><ele>40.1</ele><time>2026-04-07T07:22:00Z</time></trkpt>
      <trkpt lat="51.527094" lon="-0.173108"><ele>40.9</ele><time>2026-04-07T07:22:10Z</time></trkpt>
      <trkpt lat="51.526796" lon="-0.172997"><ele>41.6</ele><time>2026-04-07T07:22:18Z</time></trkpt>
      <trkpt lat="51.526505" lon="-0.172879"><ele>42.4</ele><time>2026-04-07T07:22:27Z</time></trkpt>
      <trkpt lat="51.526223" lon="-0.172753"><ele>43.1</ele><time>2026-04-07T07:22:35Z</time></trkpt>
      <trkpt lat="51.525950" lon="-0.172621"><ele>43.8</ele><time>2026-04-07T07:22:43Z</time></trkpt>
      <trkpt lat="51.525685" lon="-0.172482"><ele>44.5</ele><time>2026-04-07T07:22:50Z</time></trkpt>
      <trkpt lat="51.525430" lon="-0.172336"><ele>45.2</ele><time>2026-04-07T07:22:57Z</time></trkpt>
      <trkpt lat="51.525185" lon="-0.172184"><ele>45.8</ele><time>2026-04-07T07:23:04Z</time></trkpt>
      <trkpt lat="51.524950" lon="-0.172025"><ele>46.4</ele><time>2026-04-07T07:23:10Z</time></trkpt>
      <trkpt lat="51.524726" lon="-0.171861"><ele>46.9</ele><time>2026-04-07T07:23:16Z</time></trkpt>
      <trkpt lat="51.524512" lon="-0.171691"><ele>47.4</ele><time>2026-04-07T07:23:22Z</time></trkpt>
      <trkpt lat="51.524309" lon="-0.171516"><ele>47.9</ele><time>2026-04-07T07:23:28Z</time></trkpt>
      <trkpt lat="51.524117" lon="-0.171336"><ele>48.3</ele><time>2026-04-07T07:23:33Z</time></trkpt>
      <trkpt lat="51.523936" lon="-0.171150"><ele>48.7</ele><time>2026-04-07T07:23:38Z</time></trkpt>
      <trkpt lat="51.523767" lon="-0.170960"><ele>49.0</ele><time>2026-04-07T07:23:43Z</time></trkpt>
      <trkpt lat="51.523610" lon="-0.170766"><ele>49.3</ele><time>2026-04-07T07:23:47Z</time></trkpt>
      <trkpt lat="51.523464" lon="-0.170567"><ele>49.7</ele><time>2026-04-07T07:23:51Z</time></trkpt>
      <trkpt lat="51.523330" lon="-0.170364"><ele>50.0</ele><time>2026-04-07T07:23:56Z</time></trkpt>
      <trkpt lat="51.523208" lon="-0.170157"><ele>50.3</ele><time>2026-04-07T07:24:00Z</time></trkpt>
      <trkpt lat="51.523097" lon="-0.169946"><ele>50.7</ele><time>2026-04-07T07:24:04Z</time></trkpt>
      <trkpt lat="51.522999" lon="-0.169731"><ele>51.0</ele><time>2026-04-07T07:24:07Z</time></trkpt>
      <trkpt lat="51.522913" lon="-0.169514"><ele>51.4</ele><time>2026-04-07T07:24:11Z</time></trkpt>
      <trkpt lat="51.522839" lon="-0.169292"><ele>51.9</ele><time>2026-04-07T07:24:15Z</time></trkpt>
      <trkpt lat="51.522776" lon="-0.169068"><ele>52.4</ele><time>2026-04-07T07:24:18Z</time></trkpt>
      <trkpt lat="51.522726" lon="-0.168840"><ele>52.9</ele><time>2026-04-07T07:24:22Z</time></trkpt>
      <trkpt lat="51.522688" lon="-0.168610"><ele>53.5</ele><time>2026-04-07T07:24:25Z</time></trkpt>
      <trkpt lat="51.522661" lon="-0.168376"><ele>54.1</ele><time>2026-04-07T07:24:29Z</time></trkpt>
      <trkpt lat="51.522647" lon="-0.168140"><ele>54.7</ele><time>2026-04-07T07:24:33Z</time></trkpt>
      <trkpt lat="51.522645" lon="-0.167901"><ele>55.4</ele><time>2026-04-07T07:24:37Z</time></trkpt>
      <trkpt lat="51.522654" lon="-0.167659"><ele>56.1</ele><time>2026-04-07T07:24:40Z</time></trkpt>
      <trkpt lat="51.522675" lon="-0.167415"><ele>56.8</ele><time>2026-04-07T07:24:45Z</time></trkpt>
      <trkpt lat="51.522708" lon="-0.167167"><ele>57.6</ele><time>2026-04-07T07:24:49Z</time></trkpt>
      <trkpt lat="51.522753" lon="-0.166917"><ele>58.3</ele><time>2026-04-07T07:24:53Z</time></trkpt>
      <trkpt lat="51.522809" lon="-0.166664"><ele>59.0</ele><time>2026-04-07T07:24:58Z</time></trkpt>
      <trkpt lat="51.522877" lon="-0.166409"><ele>59.7</ele><time>2026-04-07T07:25:03Z</time></trkpt>
      <trkpt lat="51.522957" lon="-0.166151"><ele>60.4</ele><time>2026-04-07T07:25:08Z</time></trkpt>
      <trkpt lat="51.523048" lon="-0.165890"><ele>61.0</ele><time>2026-04-07T07:25:14Z</time></trkpt>
      <trkpt lat="51.523150" lon="-0.165626"><ele>61.6</ele><time>2026-04-07T07:25:19Z</time></trkpt>
      <trkpt lat="51.523264" lon="-0.165359"><ele>62.2</ele><time>2026-04-07T07:25:26Z</time></trkpt>
      <trkpt lat="51.523389" lon="-0.165090"><ele>62.6</ele><time>2026-04-07T07:25:32Z</time></trkpt>
      <trkpt lat="51.523525" lon="-0.164818"><ele>63.1</ele><time>2026-04-07T07:25:39Z</time></trkpt>
      <trkpt lat="51.523672" lon="-0.164542"><ele>63.4</ele><time>2026-04-07T07:25:46Z</time></trkpt>
      <trkpt lat="51.523830" lon="-0.164264"><ele>63.7</ele><time>2026-04-07T07:25:53Z</time></trkpt>
      <trkpt lat="51.523999" lon="-0.163982"><ele>64.0</ele><time>2026-04-07T07:26:01Z</time></trkpt>
      <trkpt lat="51.524178" lon="-0.163698"><ele>64.2</ele><time>2026-04-07T07:26:09Z</time></trkpt>
      <trkpt lat="51.524368" lon="-0.163410"><ele>64.3</ele><time>2026-04-07T07:26:18Z</time></trkpt>
      <trkpt lat="51.524569" lon="-0.163120"><ele>64.5</ele><time>2026-04-07T07:26:26Z</time></trkpt>
      <trkpt lat="51.524779" lon="-0.162826"><ele>64.6</ele><time>2026-04-07T07:26:35Z</time></trkpt>
      <trkpt lat="51.525000" lon="-0.162528"><ele>64.6</ele><time>2026-04-07T07:26:44Z</time></trkpt>
      <trkpt lat="51.525230" lon="-0.162228"><ele>64.7</ele><time>2026-04-07T07:26:54Z</time></trkpt>
      <trkpt lat="51.525470" lon="-0.161925"><ele>64.8</ele><time>2026-04-07T07:27:04Z</time></trkpt>
      <trkpt lat="51.525719" lon="-0.161618"><ele>64.9</ele><time>2026-04-07T07:27:13Z</time></trkpt>
      <trkpt lat="51.525977" lon="-0.161308"><ele>65.0</ele><time>2026-04-07T07:27:23Z</time></trkpt>
      <trkpt lat="51.526243" lon="-0.160996"><ele>65.1</ele><time>2026-04-07T07:27:34Z</time></trkpt>
      <trkpt lat="51.526518" lon="-0.160680"><ele>65.2</ele><time>2026-04-07T07:27:44Z</time></trkpt>
      <trkpt lat="51.526801" lon="-0.160361"><ele>65.4</ele><time>2026-04-07T07:27:54Z</time></trkpt>
      <trkpt lat="51.527091" lon="-0.160039"><ele>65.6</ele><time>2026-04-07T07:28:05Z</time></trkpt>
      <trkpt lat="51.527389" lon="-0.159715"><ele>65.9</ele><time>2026-04-07T07:28:15Z</time></trkpt>
      <trkpt lat="51.527693" lon="-0.159388"><ele>66.1</ele><time>2026-04-07T07:28:25Z</time></trkpt>
      <trkpt lat="51.528004" lon="-0.159058"><ele>66.4</ele><time>2026-04-07T07:28:36Z</time></trkpt>
      <trkpt lat="51.528321" lon="-0.158726"><ele>66.8</ele><time>2026-04-07T07:28:46Z</time></trkpt>
      <trkpt lat="51.528643" lon="-0.158391"><ele>67.1</ele><time>2026-04-07T07:28:57Z</time></trkpt>
      <trkpt lat="51.528969" lon="-0.158055"><ele>67.4</ele><time>2026-04-07T07:29:07Z</time></trkpt>
      <trkpt lat="51.529300" lon="-0.157716"><ele>67.8</ele><time>2026-04-07T07:29:17Z</time></trkpt>
      <trkpt lat="51.529635" lon="-0.157376"><ele>68.1</ele><time>2026-04-07T07:29:27Z</time></trkpt>
      <trkpt lat="51.529973" lon="-0.157034"><ele>68.4</ele><time>2026-04-07T07:29:37Z</time></trkpt>
      <trkpt lat="51.530314" lon="-0.156690"><ele>68.6</ele><time>2026-04-07T07:29:47Z</time></trkpt>
      <trkpt lat="51.530656" lon="-0.156346"><ele>68.8</ele><time>2026-04-07T07:29:57Z</time></trkpt>
      <trkpt lat="51.531000" lon="-0.156000"><ele>69.0</ele><time>2026-04-07T07:30:06Z</time></trkpt>
    </trkseg>
  </trk>
</gpx>
