<?xml version="1.0" encoding="UTF-8"?>
<gpx creator="route-posters-sample" version="1.1" xmlns="http://www.topografix.com/GPX/1/1">
  <metadata><time>2026-02-22T07:30:00Z</time></metadata>
  <trk>
    <name>Surrey Hills big ride</name>
    <type>cycling</type>
    <trkseg>
      <trkpt lat="51.220000" lon="-0.553465"><ele>30.0</ele><time>2026-02-22T07:30:00Z</time></trkpt>
      <trkpt lat="51.220171" lon="-0.551578"><ele>30.5</ele><time>2026-02-22T07:30:18Z</time></trkpt>
      <trkpt lat="51.220341" lon="-0.549671"><ele>31.5</ele><time>2026-02-22T07:30:37Z</time></trkpt>
      <trkpt lat="51.220511" lon="-0.547745"><ele>33.1</ele><time>2026-02-22T07:30:56Z</time></trkpt>
      <trkpt lat="51.220680" lon="-0.545804"><ele>35.2</ele><time>2026-02-22T07:31:16Z</time></trkpt>
      <trkpt lat="51.220848" lon="-0.543851"><ele>37.8</ele><time>2026-02-22T07:31:37Z</time></trkpt>
      <trkpt lat="51.221014" lon="-0.541888"><ele>40.8</ele><time>2026-02-22T07:31:58Z</time></trkpt>
      <trkpt lat="51.221180" lon="-0.539918"><ele>44.4</ele><time>2026-02-22T07:32:19Z</time></trkpt>
      <trkpt lat="51.221344" lon="-0.537944"><ele>48.4</ele><time>2026-02-22T07:32:40Z</time></trkpt>
      <trkpt lat="51.221507" lon="-0.535969"><ele>53.0</ele><time>2026-02-22T07:33:02Z</time></trkpt>
      <trkpt lat="51.221668" lon="-0.533995"><ele>58.0</ele><time>2026-02-22T07:33:24Z</time></trkpt>
      <trkpt lat="51.221827" lon="-0.532025"><ele>63.4</ele><time>2026-02-22T07:33:46Z</time></trkpt>
      <trkpt lat="51.221985" lon="-0.530061"><ele>69.4</ele><time>2026-02-22T07:34:07Z</time></trkpt>
      <trkpt lat="51.222141" lon="-0.528106"><ele>75.8</ele><time>2026-02-22T07:34:29Z</time></trkpt>
      <trkpt lat="51.222295" lon="-0.526162"><ele>82.7</ele><time>2026-02-22T07:34:51Z</time></trkpt>
      <trkpt lat="51.222447" lon="-0.524231"><ele>90.1</ele><time>2026-02-22T07:35:13Z</time></trkpt>
      <trkpt lat="51.222597" lon="-0.522315"><ele>97.9</ele><time>2026-02-22T07:35:34Z</time></trkpt>
      <trkpt lat="51.222745" lon="-0.520415"><ele>106.3</ele><time>2026-02-22T07:35:55Z</time></trkpt>
      <trkpt lat="51.222892" lon="-0.518533"><ele>115.1</ele><time>2026-02-22T07:36:16Z</time></trkpt>
      <trkpt lat="51.223036" lon="-0.516669"><ele>124.4</ele><time>2026-02-22T07:36:37Z</time></trkpt>
      <trkpt lat="51.223178" lon="-0.514825"><ele>134.2</ele><time>2026-02-22T07:36:57Z</time></trkpt>
      <trkpt lat="51.223319" lon="-0.513001"><ele>144.5</ele><time>2026-02-22T07:37:16Z</time></trkpt>
      <trkpt lat="51.223457" lon="-0.511197"><ele>155.3</ele><time>2026-02-22T07:37:36Z</time></trkpt>
      <trkpt lat="51.223593" lon="-0.509415"><ele>166.5</ele><time>2026-02-22T07:37:54Z</time></trkpt>
      <trkpt lat="51.223728" lon="-0.507653"><ele>178.2</ele><time>2026-02-22T07:38:12Z</time></trkpt>
      <trkpt lat="51.223860" lon="-0.505911"><ele>190.4</ele><time>2026-02-22T07:38:30Z</time></trkpt>
      <trkpt lat="51.223990" lon="-0.504189"><ele>203.0</ele><time>2026-02-22T07:38:47Z</time></trkpt>
      <trkpt lat="51.224118" lon="-0.502487"><ele>216.1</ele><time>2026-02-22T07:39:04Z</time></trkpt>
      <trkpt lat="51.224244" lon="-0.500803"><ele>229.6</ele><time>2026-02-22T07:39:20Z</time></trkpt>
      <trkpt lat="51.224368" lon="-0.499136"><ele>243.4</ele><time>2026-02-22T07:39:36Z</time></trkpt>
      <trkpt lat="51.224489" lon="-0.497485"><ele>257.7</ele><time>2026-02-22T07:39:51Z</time></trkpt>
      <trkpt lat="51.224608" lon="-0.495848"><ele>272.3</ele><time>2026-02-22T07:40:06Z</time></trkpt>
      <trkpt lat="51.224725" lon="-0.494225"><ele>287.2</ele><time>2026-02-22T07:40:20Z</time></trkpt>
      <trkpt lat="51.224839" lon="-0.492614"><ele>302.4</ele><time>2026-02-22T07:40:34Z</time></trkpt>
      <trkpt lat="51.224951" lon="-0.491013"><ele>318.0</ele><time>2026-02-22T07:40:48Z</time></trkpt>
      <trkpt lat="51.225060" lon="-0.489420"><ele>333.8</ele><time>2026-02-22T07:41:01Z</time></trkpt>
      <trkpt lat="51.225167" lon="-0.487834"><ele>349.8</ele><time>2026-02-22T07:41:14Z</time></trkpt>
      <trkpt lat="51.225270" lon="-0.486253"><ele>366.1</ele><time>2026-02-22T07:41:27Z</time></trkpt>
      <trkpt lat="51.225371" lon="-0.484675"><ele>382.5</ele><time>2026-02-22T07:41:40Z</time></trkpt>
      <trkpt lat="51.225469" lon="-0.483099"><ele>399.2</ele><time>2026-02-22T07:41:53Z</time></trkpt>
      <trkpt lat="51.225563" lon="-0.481523"><ele>416.0</ele><time>2026-02-22T07:42:05Z</time></trkpt>
      <trkpt lat="51.225654" lon="-0.479946"><ele>433.0</ele><time>2026-02-22T07:42:18Z</time></trkpt>
      <trkpt lat="51.225742" lon="-0.478365"><ele>450.2</ele><time>2026-02-22T07:42:30Z</time></trkpt>
      <trkpt lat="51.225826" lon="-0.476781"><ele>467.4</ele><time>2026-02-22T07:42:43Z</time></trkpt>
      <trkpt lat="51.225906" lon="-0.475191"><ele>484.8</ele><time>2026-02-22T07:42:55Z</time></trkpt>
      <trkpt lat="51.225982" lon="-0.473595"><ele>502.3</ele><time>2026-02-22T07:43:08Z</time></trkpt>
      <trkpt lat="51.226055" lon="-0.471991"><ele>520.0</ele><time>2026-02-22T07:43:21Z</time></trkpt>
      <trkpt lat="51.226123" lon="-0.470379"><ele>537.7</ele><time>2026-02-22T07:43:33Z</time></trkpt>
      <trkpt lat="51.226187" lon="-0.468759"><ele>555.5</ele><time>2026-02-22T07:43:47Z</time></trkpt>
      <trkpt lat="51.226246" lon="-0.467129"><ele>573.4</ele><time>2026-02-22T07:44:00Z</time></trkpt>
      <trkpt lat="51.226301" lon="-0.465489"><ele>591.4</ele><time>2026-02-22T07:44:14Z</time></trkpt>
      <trkpt lat="51.226352" lon="-0.463840"><ele>609.5</ele><time>2026-02-22T07:44:28Z</time></trkpt>
      <trkpt lat="51.226398" lon="-0.462181"><ele>627.6</ele><time>2026-02-22T07:44:42Z</time></trkpt>
      <trkpt lat="51.226439" lon="-0.460512"><ele>645.8</ele><time>2026-02-22T07:44:57Z</time></trkpt>
      <trkpt lat="51.226475" lon="-0.458834"><ele>664.1</ele><time>2026-02-22T07:45:12Z</time></trkpt>
      <trkpt lat="51.226507" lon="-0.457147"><ele>682.4</ele><time>2026-02-22T07:45:28Z</time></trkpt>
      <trkpt lat="51.226534" lon="-0.455452"><ele>700.7</ele><time>2026-02-22T07:45:44Z</time></trkpt>
      <trkpt lat="51.226556" lon="-0.453749"><ele>719.0</ele><time>2026-02-22T07:46:00Z</time></trkpt>
      <trkpt lat="51.226573" lon="-0.452040"><ele>737.2</ele><time>2026-02-22T07:46:17Z</time></trkpt>
      <trkpt lat="51.226585" lon="-0.450324"><ele>755.5</ele><time>2026-02-22T07:46:34Z</time></trkpt>
      <trkpt lat="51.226592" lon="-0.448604"><ele>773.7</ele><time>2026-02-22T07:46:51Z</time></trkpt>
      <trkpt lat="51.226595" lon="-0.446880"><ele>791.8</ele><time>2026-02-22T07:47:09Z</time></trkpt>
      <trkpt lat="51.226593" lon="-0.445153"><ele>809.8</ele><time>2026-02-22T07:47:27Z</time></trkpt>
      <trkpt lat="51.226586" lon="-0.443424"><ele>827.6</ele><time>2026-02-22T07:47:45Z</time></trkpt>
      <trkpt lat="51.226575" lon="-0.441695"><ele>845.3</ele><time>2026-02-22T07:48:04Z</time></trkpt>
      <trkpt lat="51.226559" lon="-0.439966"><ele>862.9</ele><time>2026-02-22T07:48:22Z</time></trkpt>
      <trkpt lat="51.226539" lon="-0.438239"><ele>880.2</ele><time>2026-02-22T07:48:41Z</time></trkpt>
      <trkpt lat="51.226515" lon="-0.436515"><ele>897.3</ele><time>2026-02-22T07:49:00Z</time></trkpt>
      <trkpt lat="51.226487" lon="-0.434794"><ele>914.1</ele><time>2026-02-22T07:49:19Z</time></trkpt>
      <trkpt lat="51.226454" lon="-0.433078"><ele>930.7</ele><time>2026-02-22T07:49:38Z</time></trkpt>
      <trkpt lat="51.226418" lon="-0.431368"><ele>947.0</ele><time>2026-02-22T07:49:57Z</time></trkpt>
      <trkpt lat="51.226379" lon="-0.429664"><ele>963.0</ele><time>2026-02-22T07:50:16Z</time></trkpt>
      <trkpt lat="51.226335" lon="-0.427968"><ele>978.6</ele><time>2026-02-22T07:50:35Z</time></trkpt>
      <trkpt lat="51.226288" lon="-0.426279"><ele>993.9</ele><time>2026-02-22T07:50:54Z</time></trkpt>
      <trkpt lat="51.226238" lon="-0.424598"><ele>1008.9</ele><time>2026-02-22T07:51:12Z</time></trkpt>
      <trkpt lat="51.226185" lon="-0.422925"><ele>1023.6</ele><time>2026-02-22T07:51:31Z</time></trkpt>
      <trkpt lat="51.226128" lon="-0.421262"><ele>1037.8</ele><time>2026-02-22T07:51:49Z</time></trkpt>
      <trkpt lat="51.226069" lon="-0.419607"><ele>1051.7</ele><time>2026-02-22T07:52:07Z</time></trkpt>
      <trkpt lat="51.226007" lon="-0.417961"><ele>1065.3</ele><time>2026-02-22T07:52:24Z</time></trkpt>
      <trkpt lat="51.225942" lon="-0.416323"><ele>1078.5</ele><time>2026-02-22T07:52:41Z</time></trkpt>
      <trkpt lat="51.220659" lon="-0.308218"><ele>1091.3</ele><time>2026-02-22T08:11:21Z</time></trkpt>
      <trkpt lat="51.223295" lon="-0.308342"><ele>1103.7</ele><time>2026-02-22T08:12:04Z</time></trkpt>
      <trkpt lat="51.225927" lon="-0.308621"><ele>1115.8</ele><time>2026-02-22T08:12:46Z</time></trkpt>
      <trkpt lat="51.228552" lon="-0.309052"><ele>1127.5</ele><time>2026-02-22T08:13:27Z</time></trkpt>
      <trkpt lat="51.231169" lon="-0.309636"><ele>1138.8</ele><time>2026-02-22T08:14:08Z</time></trkpt>
      <trkpt lat="51.233773" lon="-0.310372"><ele>1149.7</ele><time>2026-02-22T08:14:48Z</time></trkpt>
      <trkpt lat="51.236364" lon="-0.311260"><ele>1160.3</ele><time>2026-02-22T08:15:27Z</time></trkpt>
      <trkpt lat="51.238938" lon="-0.312299"><ele>1170.4</ele><time>2026-02-22T08:16:05Z</time></trkpt>
      <trkpt lat="51.241493" lon="-0.313489"><ele>1180.1</ele><time>2026-02-22T08:16:43Z</time></trkpt>
      <trkpt lat="51.244027" lon="-0.314829"><ele>1189.4</ele><time>2026-02-22T08:17:20Z</time></trkpt>
      <trkpt lat="51.246536" lon="-0.316319"><ele>1198.3</ele><time>2026-02-22T08:17:57Z</time></trkpt>
      <trkpt lat="51.249018" lon="-0.317959"><ele>1206.7</ele><time>2026-02-22T08:18:33Z</time></trkpt>
      <trkpt lat="51.251470" lon="-0.319748"><ele>1214.7</ele><time>2026-02-22T08:19:09Z</time></trkpt>
      <trkpt lat="51.253889" lon="-0.321686"><ele>1222.2</ele><time>2026-02-22T08:19:44Z</time></trkpt>
      <trkpt lat="51.256272" lon="-0.323772"><ele>1229.2</ele><time>2026-02-22T08:20:19Z</time></trkpt>
      <trkpt lat="51.258615" lon="-0.326006"><ele>1235.7</ele><time>2026-02-22T08:20:54Z</time></trkpt>
      <trkpt lat="51.260915" lon="-0.328386"><ele>1241.7</ele><time>2026-02-22T08:21:29Z</time></trkpt>
      <trkpt lat="51.263167" lon="-0.330912"><ele>1247.2</ele><time>2026-02-22T08:22:03Z</time></trkpt>
      <trkpt lat="51.265369" lon="-0.333582"><ele>1252.1</ele><time>2026-02-22T08:22:38Z</time></trkpt>
      <trkpt lat="51.267516" lon="-0.336394"><ele>1256.5</ele><time>2026-02-22T08:23:13Z</time></trkpt>
      <trkpt lat="51.269604" lon="-0.339345"><ele>1260.3</ele><time>2026-02-22T08:23:48Z</time></trkpt>
      <trkpt lat="51.271628" lon="-0.342435"><ele>1263.5</ele><time>2026-02-22T08:24:23Z</time></trkpt>
      <trkpt lat="51.273584" lon="-0.345658"><ele>1266.1</ele><time>2026-02-22T08:24:58Z</time></trkpt>
      <trkpt lat="51.275468" lon="-0.349013"><ele>1268.2</ele><time>2026-02-22T08:25:34Z</time></trkpt>
      <trkpt lat="51.277275" lon="-0.352495"><ele>1269.6</ele><time>2026-02-22T08:26:11Z</time></trkpt>
      <trkpt lat="51.279001" lon="-0.356099"><ele>1270.5</ele><time>2026-02-22T08:26:48Z</time></trkpt>
      <trkpt lat="51.280641" lon="-0.359821"><ele>1270.8</ele><time>2026-02-22T08:27:26Z</time></trkpt>
      <trkpt lat="51.282190" lon="-0.363655"><ele>1270.5</ele><time>2026-02-22T08:28:04Z</time></trkpt>
      <trkpt lat="51.283644" lon="-0.367596"><ele>1269.7</ele><time>2026-02-22T08:28:44Z</time></trkpt>
      <trkpt lat="51.284999" lon="-0.371635"><ele>1268.3</ele><time>2026-02-22T08:29:24Z</time></trkpt>
      <trkpt lat="51.286251" lon="-0.375767"><ele>1266.4</ele><time>2026-02-22T08:30:05Z</time></trkpt>
      <trkpt lat="51.287395" lon="-0.379984"><ele>1263.9</ele><time>2026-02-22T08:30:47Z</time></trkpt>
      <trkpt lat="51.288428" lon="-0.384278"><ele>1260.9</ele><time>2026-02-22T08:31:29Z</time></trkpt>
      <trkpt lat="51.289347" lon="-0.388640"><ele>1257.3</ele><time>2026-02-22T08:32:13Z</time></trkpt>
      <trkpt lat="51.290148" lon="-0.393061"><ele>1253.3</ele><time>2026-02-22T08:32:57Z</time></trkpt>
      <trkpt lat="51.290829" lon="-0.397532"><ele>1248.8</ele><time>2026-02-22T08:33:42Z</time></trkpt>
      <trkpt lat="51.291387" lon="-0.402043"><ele>1243.8</ele><time>2026-02-22T08:34:28Z</time></trkpt>
      <trkpt lat="51.291820" lon="-0.406586"><ele>1238.3</ele><time>2026-02-22T08:35:15Z</time></trkpt>
      <trkpt lat="51.292128" lon="-0.411148"><ele>1232.3</ele><time>2026-02-22T08:36:02Z</time></trkpt>
      <trkpt lat="51.292307" lon="-0.415722"><ele>1225.9</ele><time>2026-02-22T08:36:50Z</time></trkpt>
      <trkpt lat="51.292359" lon="-0.420296"><ele>1219.1</ele><time>2026-02-22T08:37:39Z</time></trkpt>
      <trkpt lat="51.292282" lon="-0.424860"><ele>1211.7</ele><time>2026-02-22T08:38:28Z</time></trkpt>
      <trkpt lat="51.292077" lon="-0.429404"><ele>1204.0</ele><time>2026-02-22T08:39:17Z</time></trkpt>
      <trkpt lat="51.291744" lon="-0.433919"><ele>1195.7</ele><time>2026-02-22T08:40:07Z</time></trkpt>
      <trkpt lat="51.291285" lon="-0.438394"><ele>1187.1</ele><time>2026-02-22T08:40:57Z</time></trkpt>
      <trkpt lat="51.290701" lon="-0.442821"><ele>1177.9</ele><time>2026-02-22T08:41:47Z</time></trkpt>
      <trkpt lat="51.289993" lon="-0.447190"><ele>1168.3</ele><time>2026-02-22T08:42:37Z</time></trkpt>
      <trkpt lat="51.289165" lon="-0.451492"><ele>1158.3</ele><time>2026-02-22T08:43:27Z</time></trkpt>
      <trkpt lat="51.288219" lon="-0.455719"><ele>1147.8</ele><time>2026-02-22T08:44:17Z</time></trkpt>
      <trkpt lat="51.287157" lon="-0.459864"><ele>1136.8</ele><time>2026-02-22T08:45:06Z</time></trkpt>
      <trkpt lat="51.285984" lon="-0.463918"><ele>1125.4</ele><time>2026-02-22T08:45:56Z</time></trkpt>
      <trkpt lat="51.284702" lon="-0.467876"><ele>1113.6</ele><time>2026-02-22T08:46:45Z</time></trkpt>
      <trkpt lat="51.283316" lon="-0.471731"><ele>1101.3</ele><time>2026-02-22T08:47:33Z</time></trkpt>
      <trkpt lat="51.281829" lon="-0.475477"><ele>1088.5</ele><time>2026-02-22T08:48:21Z</time></trkpt>
      <trkpt lat="51.280246" lon="-0.479109"><ele>1075.3</ele><time>2026-02-22T08:49:08Z</time></trkpt>
      <trkpt lat="51.278571" lon="-0.482624"><ele>1061.8</ele><time>2026-02-22T08:49:55Z</time></trkpt>
      <trkpt lat="51.276808" lon="-0.486016"><ele>1047.8</ele><time>2026-02-22T08:50:41Z</time></trkpt>
      <trkpt lat="51.274962" lon="-0.489282"><ele>1033.4</ele><time>2026-02-22T08:51:26Z</time></trkpt>
      <trkpt lat="51.273038" lon="-0.492420"><ele>1018.6</ele><time>2026-02-22T08:52:10Z</time></trkpt>
      <trkpt lat="51.271038" lon="-0.495426"><ele>1003.5</ele><time>2026-02-22T08:52:53Z</time></trkpt>
      <trkpt lat="51.268969" lon="-0.498300"><ele>988.1</ele><time>2026-02-22T08:53:36Z</time></trkpt>
      <trkpt lat="51.266834" lon="-0.501039"><ele>972.3</ele><time>2026-02-22T08:54:18Z</time></trkpt>
      <trkpt lat="51.264638" lon="-0.503642"><ele>956.3</ele><time>2026-02-22T08:54:59Z</time></trkpt>
      <trkpt lat="51.262384" lon="-0.506108"><ele>940.0</ele><time>2026-02-22T08:55:39Z</time></trkpt>
      <trkpt lat="51.260077" lon="-0.508437"><ele>923.5</ele><time>2026-02-22T08:56:18Z</time></trkpt>
      <trkpt lat="51.257720" lon="-0.510628"><ele>906.8</ele><time>2026-02-22T08:56:56Z</time></trkpt>
      <trkpt lat="51.255318" lon="-0.512680"><ele>889.8</ele><time>2026-02-22T08:57:34Z</time></trkpt>
      <trkpt lat="51.252873" lon="-0.514595"><ele>872.7</ele><time>2026-02-22T08:58:11Z</time></trkpt>
      <trkpt lat="51.250389" lon="-0.516370"><ele>855.5</ele><time>2026-02-22T08:58:48Z</time></trkpt>
      <trkpt lat="51.247869" lon="-0.518008"><ele>838.1</ele><time>2026-02-22T08:59:23Z</time></trkpt>
      <trkpt lat="51.245317" lon="-0.519506"><ele>820.6</ele><time>2026-02-22T08:59:59Z</time></trkpt>
      <trkpt lat="51.242735" lon="-0.520865"><ele>802.9</ele><time>2026-02-22T09:00:34Z</time></trkpt>
      <trkpt lat="51.240127" lon="-0.522086"><ele>785.2</ele><time>2026-02-22T09:01:08Z</time></trkpt>
      <trkpt lat="51.237495" lon="-0.523166"><ele>767.5</ele><time>2026-02-22T09:01:42Z</time></trkpt>
      <trkpt lat="51.234842" lon="-0.524107"><ele>749.6</ele><time>2026-02-22T09:02:16Z</time></trkpt>
      <trkpt lat="51.232171" lon="-0.524906"><ele>731.7</ele><time>2026-02-22T09:02:50Z</time></trkpt>
      <trkpt lat="51.229485" lon="-0.525564"><ele>713.7</ele><time>2026-02-22T09:03:24Z</time></trkpt>
      <trkpt lat="51.226785" lon="-0.526079"><ele>695.7</ele><time>2026-02-22T09:03:59Z</time></trkpt>
      <trkpt lat="51.224076" lon="-0.526450"><ele>677.7</ele><time>2026-02-22T09:04:33Z</time></trkpt>
      <trkpt lat="51.221360" lon="-0.526675"><ele>659.6</ele><time>2026-02-22T09:05:07Z</time></trkpt>
      <trkpt lat="51.218639" lon="-0.526754"><ele>641.5</ele><time>2026-02-22T09:05:42Z</time></trkpt>
      <trkpt lat="51.215918" lon="-0.526684"><ele>623.4</ele><time>2026-02-22T09:06:18Z</time></trkpt>
      <trkpt lat="51.213198" lon="-0.526464"><ele>605.2</ele><time>2026-02-22T09:06:53Z</time></trkpt>
      <trkpt lat="51.210483" lon="-0.526093"><ele>587.1</ele><time>2026-02-22T09:07:30Z</time></trkpt>
      <trkpt lat="51.207776" lon="-0.525567"><ele>569.0</ele><time>2026-02-22T09:08:07Z</time></trkpt>
      <trkpt lat="51.205082" lon="-0.524887"><ele>550.9</ele><time>2026-02-22T09:08:45Z</time></trkpt>
      <trkpt lat="51.202403" lon="-0.524050"><ele>532.8</ele><time>2026-02-22T09:09:23Z</time></trkpt>
      <trkpt lat="51.199743" lon="-0.523055"><ele>514.8</ele><time>2026-02-22T09:10:03Z</time></trkpt>
      <trkpt lat="51.197106" lon="-0.521901"><ele>496.9</ele><time>2026-02-22T09:10:43Z</time></trkpt>
      <trkpt lat="51.194497" lon="-0.520587"><ele>479.1</ele><time>2026-02-22T09:11:24Z</time></trkpt>
      <trkpt lat="51.191920" lon="-0.519112"><ele>461.4</ele><time>2026-02-22T09:12:05Z</time></trkpt>
      <trkpt lat="51.189379" lon="-0.517476"><ele>443.8</ele><time>2026-02-22T09:12:48Z</time></trkpt>
      <trkpt lat="51.186878" lon="-0.515678"><ele>426.4</ele><time>2026-02-22T09:13:31Z</time></trkpt>
      <trkpt lat="51.184421" lon="-0.513720"><ele>409.2</ele><time>2026-02-22T09:14:15Z</time></trkpt>
      <trkpt lat="51.182015" lon="-0.511602"><ele>392.2</ele><time>2026-02-22T09:15:00Z</time></trkpt>
      <trkpt lat="51.179662" lon="-0.509325"><ele>375.4</ele><time>2026-02-22T09:15:46Z</time></trkpt>
      <trkpt lat="51.177368" lon="-0.506892"><ele>358.9</ele><time>2026-02-22T09:16:33Z</time></trkpt>
      <trkpt lat="51.175137" lon="-0.504305"><ele>342.6</ele><time>2026-02-22T09:17:20Z</time></trkpt>
      <trkpt lat="51.172974" lon="-0.501566"><ele>326.7</ele><time>2026-02-22T09:18:07Z</time></trkpt>
      <trkpt lat="51.170883" lon="-0.498680"><ele>311.1</ele><time>2026-02-22T09:18:55Z</time></trkpt>
      <trkpt lat="51.168869" lon="-0.495650"><ele>295.8</ele><time>2026-02-22T09:19:44Z</time></trkpt>
      <trkpt lat="51.166935" lon="-0.492482"><ele>280.9</ele><time>2026-02-22T09:20:33Z</time></trkpt>
      <trkpt lat="51.165086" lon="-0.489178"><ele>266.4</ele><time>2026-02-22T09:21:22Z</time></trkpt>
      <trkpt lat="51.163326" lon="-0.485747"><ele>252.2</ele><time>2026-02-22T09:22:11Z</time></trkpt>
      <trkpt lat="51.161657" lon="-0.482193"><ele>238.5</ele><time>2026-02-22T09:23:01Z</time></trkpt>
      <trkpt lat="51.160084" lon="-0.478523"><ele>225.1</ele><time>2026-02-22T09:23:50Z</time></trkpt>
      <trkpt lat="51.158609" lon="-0.474743"><ele>212.1</ele><time>2026-02-22T09:24:40Z</time></trkpt>
      <trkpt lat="51.157236" lon="-0.470862"><ele>199.5</ele><time>2026-02-22T09:25:29Z</time></trkpt>
      <trkpt lat="51.155966" lon="-0.466887"><ele>187.4</ele><time>2026-02-22T09:26:18Z</time></trkpt>
      <trkpt lat="51.154801" lon="-0.462824"><ele>175.6</ele><time>2026-02-22T09:27:07Z</time></trkpt>
      <trkpt lat="51.153745" lon="-0.458683"><ele>164.3</ele><time>2026-02-22T09:27:55Z</time></trkpt>
      <trkpt lat="51.152797" lon="-0.454472"><ele>153.3</ele><time>2026-02-22T09:28:42Z</time></trkpt>
      <trkpt lat="51.151960" lon="-0.450199"><ele>142.8</ele><time>2026-02-22T09:29:29Z</time></trkpt>
      <trkpt lat="51.151234" lon="-0.445871"><ele>132.7</ele><time>2026-02-22T09:30:16Z</time></trkpt>
      <trkpt lat="51.150620" lon="-0.441498"><ele>123.0</ele><time>2026-02-22T09:31:01Z</time></trkpt>
      <trkpt lat="51.150117" lon="-0.437088"><ele>113.7</ele><time>2026-02-22T09:31:46Z</time></trkpt>
      <trkpt lat="51.149727" lon="-0.432649"><ele>104.9</ele><time>2026-02-22T09:32:31Z</time></trkpt>
      <trkpt lat="51.149448" lon="-0.428189"><ele>96.4</ele><time>2026-02-22T09:33:14Z</time></trkpt>
      <trkpt lat="51.149281" lon="-0.423717"><ele>88.4</ele><time>2026-02-22T09:33:56Z</time></trkpt>
      <trkpt lat="51.149224" lon="-0.419239"><ele>80.9</ele><time>2026-02-22T09:34:38Z</time></trkpt>
      <trkpt lat="51.149277" lon="-0.414764"><ele>73.8</ele><time>2026-02-22T09:35:19Z</time></trkpt>
      <trkpt lat="51.149438" lon="-0.410299"><ele>67.2</ele><time>2026-02-22T09:35:59Z</time></trkpt>
      <trkpt lat="51.149707" lon="-0.405850"><ele>61.0</ele><time>2026-02-22T09:36:38Z</time></trkpt>
      <trkpt lat="51.150081" lon="-0.401425"><ele>55.4</ele><time>2026-02-22T09:37:16Z</time></trkpt>
      <trkpt lat="51.150561" lon="-0.397031"><ele>50.3</ele><time>2026-02-22T09:37:54Z</time></trkpt>
      <trkpt lat="51.151143" lon="-0.392673"><ele>45.6</ele><time>2026-02-22T09:38:31Z</time></trkpt>
      <trkpt lat="51.151826" lon="-0.388358"><ele>41.6</ele><time>2026-02-22T09:39:08Z</time></trkpt>
      <trkpt lat="51.152609" lon="-0.384092"><ele>38.0</ele><time>2026-02-22T09:39:44Z</time></trkpt>
      <trkpt lat="51.153490" lon="-0.379880"><ele>35.1</ele><time>2026-02-22T09:40:19Z</time></trkpt>
      <trkpt lat="51.154468" lon="-0.375727"><ele>32.7</ele><time>2026-02-22T09:40:55Z</time></trkpt>
      <trkpt lat="51.155540" lon="-0.371638"><ele>30.8</ele><time>2026-02-22T09:41:30Z</time></trkpt>
      <trkpt lat="51.156705" lon="-0.367620"><ele>29.6</ele><time>2026-02-22T09:42:04Z</time></trkpt>
      <trkpt lat="51.157962" lon="-0.363676"><ele>28.9</ele><time>2026-02-22T09:42:39Z</time></trkpt>
      <trkpt lat="51.159309" lon="-0.359811"><ele>28.9</ele><time>2026-02-22T09:43:14Z</time></trkpt>
      <trkpt lat="51.160744" lon="-0.356030"><ele>29.4</ele><time>2026-02-22T09:43:49Z</time></trkpt>
      <trkpt lat="51.162266" lon="-0.352339"><ele>30.5</ele><time>2026-02-22T09:44:24Z</time></trkpt>
      <trkpt lat="51.163873" lon="-0.348740"><ele>32.2</ele><time>2026-02-22T09:44:59Z</time></trkpt>
      <trkpt lat="51.165564" lon="-0.345239"><ele>34.4</ele><time>2026-02-22T09:45:35Z</time></trkpt>
      <trkpt lat="51.167336" lon="-0.341841"><ele>37.2</ele><time>2026-02-22T09:46:11Z</time></trkpt>
      <trkpt lat="51.169189" lon="-0.338550"><ele>40.6</ele><time>2026-02-22T09:46:48Z</time></trkpt>
      <trkpt lat="51.171120" lon="-0.335371"><ele>44.5</ele><time>2026-02-22T09:47:25Z</time></trkpt>
      <trkpt lat="51.173128" lon="-0.332309"><ele>49.0</ele><time>2026-02-22T09:48:03Z</time></trkpt>
      <trkpt lat="51.175210" lon="-0.329368"><ele>53.9</ele><time>2026-02-22T09:48:42Z</time></trkpt>
      <trkpt lat="51.177365" lon="-0.326553"><ele>59.4</ele><time>2026-02-22T09:49:22Z</time></trkpt>
      <trkpt lat="51.179591" lon="-0.323869"><ele>65.3</ele><time>2026-02-22T09:50:02Z</time></trkpt>
      <trkpt lat="51.181884" lon="-0.321321"><ele>71.7</ele><time>2026-02-22T09:50:43Z</time></trkpt>
      <trkpt lat="51.184243" lon="-0.318914"><ele>78.6</ele><time>2026-02-22T09:51:26Z</time></trkpt>
      <trkpt lat="51.186665" lon="-0.316653"><ele>86.0</ele><time>2026-02-22T09:52:09Z</time></trkpt>
      <trkpt lat="51.189147" lon="-0.314542"><ele>93.7</ele><time>2026-02-22T09:52:53Z</time></trkpt>
      <trkpt lat="51.191685" lon="-0.312587"><ele>102.0</ele><time>2026-02-22T09:53:38Z</time></trkpt>
      <trkpt lat="51.194277" lon="-0.310792"><ele>110.6</ele><time>2026-02-22T09:54:24Z</time></trkpt>
      <trkpt lat="51.196917" lon="-0.309161"><ele>119.7</ele><time>2026-02-22T09:55:10Z</time></trkpt>
      <trkpt lat="51.199603" lon="-0.307700"><ele>129.2</ele><time>2026-02-22T09:55:58Z</time></trkpt>
      <trkpt lat="51.202330" lon="-0.306412"><ele>139.2</ele><time>2026-02-22T09:56:46Z</time></trkpt>
      <trkpt lat="51.205093" lon="-0.305300"><ele>149.5</ele><time>2026-02-22T09:57:35Z</time></trkpt>
      <trkpt lat="51.207888" lon="-0.304369"><ele>160.3</ele><time>2026-02-22T09:58:24Z</time></trkpt>
      <trkpt lat="51.210710" lon="-0.303622"><ele>171.5</ele><time>2026-02-22T09:59:14Z</time></trkpt>
      <trkpt lat="51.213553" lon="-0.303061"><ele>183.1</ele><time>2026-02-22T10:00:05Z</time></trkpt>
      <trkpt lat="51.216412" lon="-0.302689"><ele>195.2</ele><time>2026-02-22T10:00:55Z</time></trkpt>
      <trkpt lat="51.219282" lon="-0.302508"><ele>207.6</ele><time>2026-02-22T10:01:46Z</time></trkpt>
      <trkpt lat="51.221159" lon="-0.420307"><ele>220.5</ele><time>2026-02-22T10:23:38Z</time></trkpt>
      <trkpt lat="51.221174" lon="-0.422091"><ele>233.8</ele><time>2026-02-22T10:23:58Z</time></trkpt>
      <trkpt lat="51.221118" lon="-0.423867"><ele>247.5</ele><time>2026-02-22T10:24:18Z</time></trkpt>
      <trkpt lat="51.220991" lon="-0.425633"><ele>261.6</ele><time>2026-02-22T10:24:37Z</time></trkpt>
      <trkpt lat="51.220795" lon="-0.427388"><ele>276.0</ele><time>2026-02-22T10:24:57Z</time></trkpt>
      <trkpt lat="51.220532" lon="-0.429132"><ele>290.9</ele><time>2026-02-22T10:25:16Z</time></trkpt>
      <trkpt lat="51.220204" lon="-0.430863"><ele>306.1</ele><time>2026-02-22T10:25:36Z</time></trkpt>
      <trkpt lat="51.219816" lon="-0.432580"><ele>321.6</ele><time>2026-02-22T10:25:55Z</time></trkpt>
      <trkpt lat="51.219371" lon="-0.434281"><ele>337.5</ele><time>2026-02-22T10:26:15Z</time></trkpt>
      <trkpt lat="51.218875" lon="-0.435967"><ele>353.7</ele><time>2026-02-22T10:26:34Z</time></trkpt>
      <trkpt lat="51.218332" lon="-0.437637"><ele>370.1</ele><time>2026-02-22T10:26:54Z</time></trkpt>
      <trkpt lat="51.217750" lon="-0.439289"><ele>386.8</ele><time>2026-02-22T10:27:13Z</time></trkpt>
      <trkpt lat="51.217133" lon="-0.440924"><ele>403.8</ele><time>2026-02-22T10:27:32Z</time></trkpt>
      <trkpt lat="51.216490" lon="-0.442542"><ele>420.9</ele><time>2026-02-22T10:27:50Z</time></trkpt>
      <trkpt lat="51.215827" lon="-0.444142"><ele>438.2</ele><time>2026-02-22T10:28:09Z</time></trkpt>
      <trkpt lat="51.215150" lon="-0.445724"><ele>455.7</ele><time>2026-02-22T10:28:27Z</time></trkpt>
      <trkpt lat="51.214468" lon="-0.447289"><ele>473.4</ele><time>2026-02-22T10:28:44Z</time></trkpt>
      <trkpt lat="51.213787" lon="-0.448837"><ele>491.1</ele><time>2026-02-22T10:29:01Z</time></trkpt>
      <trkpt lat="51.213115" lon="-0.450368"><ele>509.0</ele><time>2026-02-22T10:29:18Z</time></trkpt>
      <trkpt lat="51.212458" lon="-0.451885"><ele>526.9</ele><time>2026-02-22T10:29:34Z</time></trkpt>
      <trkpt lat="51.211824" lon="-0.453387"><ele>544.9</ele><time>2026-02-22T10:29:49Z</time></trkpt>
      <trkpt lat="51.211218" lon="-0.454876"><ele>562.9</ele><time>2026-02-22T10:30:04Z</time></trkpt>
      <trkpt lat="51.210646" lon="-0.456353"><ele>580.9</ele><time>2026-02-22T10:30:19Z</time></trkpt>
      <trkpt lat="51.210115" lon="-0.457820"><ele>599.0</ele><time>2026-02-22T10:30:33Z</time></trkpt>
      <trkpt lat="51.209628" lon="-0.459279"><ele>617.1</ele><time>2026-02-22T10:30:46Z</time></trkpt>
      <trkpt lat="51.209192" lon="-0.460730"><ele>635.2</ele><time>2026-02-22T10:30:59Z</time></trkpt>
      <trkpt lat="51.208809" lon="-0.462177"><ele>653.3</ele><time>2026-02-22T10:31:11Z</time></trkpt>
      <trkpt lat="51.208484" lon="-0.463620"><ele>671.4</ele><time>2026-02-22T10:31:23Z</time></trkpt>
      <trkpt lat="51.208219" lon="-0.465063"><ele>689.4</ele><time>2026-02-22T10:31:35Z</time></trkpt>
      <trkpt lat="51.208016" lon="-0.466507"><ele>707.5</ele><time>2026-02-22T10:31:47Z</time></trkpt>
      <trkpt lat="51.207876" lon="-0.467954"><ele>725.5</ele><time>2026-02-22T10:31:58Z</time></trkpt>
      <trkpt lat="51.207802" lon="-0.469406"><ele>743.4</ele><time>2026-02-22T10:32:10Z</time></trkpt>
      <trkpt lat="51.207793" lon="-0.470866"><ele>761.3</ele><time>2026-02-22T10:32:21Z</time></trkpt>
      <trkpt lat="51.207849" lon="-0.472336"><ele>779.2</ele><time>2026-02-22T10:32:33Z</time></trkpt>
      <trkpt lat="51.207968" lon="-0.473817"><ele>797.0</ele><time>2026-02-22T10:32:45Z</time></trkpt>
      <trkpt lat="51.208151" lon="-0.475313"><ele>814.7</ele><time>2026-02-22T10:32:58Z</time></trkpt>
      <trkpt lat="51.208394" lon="-0.476824"><ele>832.3</ele><time>2026-02-22T10:33:11Z</time></trkpt>
      <trkpt lat="51.208695" lon="-0.478352"><ele>849.8</ele><time>2026-02-22T10:33:24Z</time></trkpt>
      <trkpt lat="51.209052" lon="-0.479899"><ele>867.1</ele><time>2026-02-22T10:33:39Z</time></trkpt>
      <trkpt lat="51.209460" lon="-0.481467"><ele>884.3</ele><time>2026-02-22T10:33:54Z</time></trkpt>
      <trkpt lat="51.209917" lon="-0.483057"><ele>901.4</ele><time>2026-02-22T10:34:09Z</time></trkpt>
      <trkpt lat="51.210416" lon="-0.484669"><ele>918.2</ele><time>2026-02-22T10:34:26Z</time></trkpt>
      <trkpt lat="51.210955" lon="-0.486306"><ele>934.8</ele><time>2026-02-22T10:34:43Z</time></trkpt>
      <trkpt lat="51.211527" lon="-0.487967"><ele>951.2</ele><time>2026-02-22T10:35:01Z</time></trkpt>
      <trkpt lat="51.212128" lon="-0.489652"><ele>967.3</ele><time>2026-02-22T10:35:20Z</time></trkpt>
      <trkpt lat="51.212752" lon="-0.491363"><ele>983.1</ele><time>2026-02-22T10:35:40Z</time></trkpt>
      <trkpt lat="51.213393" lon="-0.493099"><ele>998.7</ele><time>2026-02-22T10:36:00Z</time></trkpt>
      <trkpt lat="51.214044" lon="-0.494860"><ele>1013.8</ele><time>2026-02-22T10:36:21Z</time></trkpt>
      <trkpt lat="51.214701" lon="-0.496644"><ele>1028.7</ele><time>2026-02-22T10:36:42Z</time></trkpt>
      <trkpt lat="51.215356" lon="-0.498452"><ele>1043.1</ele><time>2026-02-22T10:37:04Z</time></trkpt>
      <trkpt lat="51.216003" lon="-0.500283"><ele>1057.2</ele><time>2026-02-22T10:37:27Z</time></trkpt>
      <trkpt lat="51.216637" lon="-0.502135"><ele>1070.9</ele><time>2026-02-22T10:37:49Z</time></trkpt>
      <trkpt lat="51.217250" lon="-0.504006"><ele>1084.1</ele><time>2026-02-22T10:38:12Z</time></trkpt>
      <trkpt lat="51.217837" lon="-0.505895"><ele>1097.0</ele><time>2026-02-22T10:38:36Z</time></trkpt>
      <trkpt lat="51.218391" lon="-0.507799"><ele>1109.4</ele><time>2026-02-22T10:38:59Z</time></trkpt>
      <trkpt lat="51.218908" lon="-0.509718"><ele>1121.3</ele><time>2026-02-22T10:39:22Z</time></trkpt>
      <trkpt lat="51.219381" lon="-0.511648"><ele>1132.8</ele><time>2026-02-22T10:39:45Z</time></trkpt>
      <trkpt lat="51.219806" lon="-0.513587"><ele>1143.9</ele><time>2026-02-22T10:40:08Z</time></trkpt>
      <trkpt lat="51.220178" lon="-0.515533"><ele>1154.6</ele><time>2026-02-22T10:40:31Z</time></trkpt>
      <trkpt lat="51.220494" lon="-0.517482"><ele>1164.7</ele><time>2026-02-22T10:40:53Z</time></trkpt>
      <trkpt lat="51.220749" lon="-0.519433"><ele>1174.5</ele><time>2026-02-22T10:41:15Z</time></trkpt>
      <trkpt lat="51.220941" lon="-0.521382"><ele>1183.8</ele><time>2026-02-22T10:41:37Z</time></trkpt>
      <trkpt lat="51.221067" lon="-0.523327"><ele>1192.6</ele><time>2026-02-22T10:41:58Z</time></trkpt>
      <trkpt lat="51.221126" lon="-0.525264"><ele>1201.1</ele><time>2026-02-22T10:42:19Z</time></trkpt>
      <trkpt lat="51.221117" lon="-0.527191"><ele>1209.0</ele><time>2026-02-22T10:42:39Z</time></trkpt>
      <trkpt lat="51.221039" lon="-0.529106"><ele>1216.6</ele><time>2026-02-22T10:42:59Z</time></trkpt>
      <trkpt lat="51.220894" lon="-0.531006"><ele>1223.6</ele><time>2026-02-22T10:43:19Z</time></trkpt>
      <trkpt lat="51.220682" lon="-0.532888"><ele>1230.3</ele><time>2026-02-22T10:43:39Z</time></trkpt>
      <trkpt lat="51.220405" lon="-0.534750"><ele>1236.4</ele><time>2026-02-22T10:43:58Z</time></trkpt>
      <trkpt lat="51.220067" lon="-0.536591"><ele>1242.1</ele><time>2026-02-22T10:44:17Z</time></trkpt>
      <trkpt lat="51.219670" lon="-0.538407"><ele>1247.3</ele><time>2026-02-22T10:44:35Z</time></trkpt>
      <trkpt lat="51.219219" lon="-0.540197"><ele>1252.1</ele><time>2026-02-22T10:44:54Z</time></trkpt>
      <trkpt lat="51.218718" lon="-0.541960"><ele>1256.3</ele><time>2026-02-22T10:45:12Z</time></trkpt>
      <trkpt lat="51.218173" lon="-0.543694"><ele>1260.0</ele><time>2026-02-22T10:45:29Z</time></trkpt>
      <trkpt lat="51.217589" lon="-0.545399"><ele>1263.2</ele><time>2026-02-22T10:45:47Z</time></trkpt>
      <trkpt lat="51.216973" lon="-0.547073"><ele>1265.9</ele><time>2026-02-22T10:46:04Z</time></trkpt>
      <trkpt lat="51.216331" lon="-0.548717"><ele>1268.0</ele><time>2026-02-22T10:46:20Z</time></trkpt>
      <trkpt lat="51.215669" lon="-0.550330"><ele>1269.6</ele><time>2026-02-22T10:46:37Z</time></trkpt>
      <trkpt lat="51.214996" lon="-0.551913"><ele>1270.6</ele><time>2026-02-22T10:46:53Z</time></trkpt>
      <trkpt lat="51.214317" lon="-0.553465"><ele>1271.0</ele><time>2026-02-22T10:47:08Z</time></trkpt>
    </trkseg>
  </trk>
</gpx>
