<?xml version="1.0" encoding="UTF-8"?>
<gpx creator="route-posters-sample" version="1.1" xmlns="http://www.topografix.com/GPX/1/1">
  <metadata><time>2026-02-03T18:40:00Z</time></metadata>
  <trk>
    <name>Thames riverside easy run</name>
    <type>running</type>
    <trkseg>
      <trkpt lat="51.508540" lon="-0.142777"><ele>30.0</ele><time>2026-02-03T18:40:00Z</time></trkpt>
      <trkpt lat="51.508718" lon="-0.142458"><ele>30.2</ele><time>2026-02-03T18:40:09Z</time></trkpt>
      <trkpt lat="51.508896" lon="-0.142140"><ele>30.5</ele><time>2026-02-03T18:40:18Z</time></trkpt>
      <trkpt lat="51.509074" lon="-0.141822"><ele>30.7</ele><time>2026-02-03T18:40:28Z</time></trkpt>
      <trkpt lat="51.509251" lon="-0.141504"><ele>30.9</ele><time>2026-02-03T18:40:38Z</time></trkpt>
      <trkpt lat="51.509428" lon="-0.141187"><ele>31.1</ele><time>2026-02-03T18:40:48Z</time></trkpt>
      <trkpt lat="51.509603" lon="-0.140870"><ele>31.3</ele><time>2026-02-03T18:40:58Z</time></trkpt>
      <trkpt lat="51.509778" lon="-0.140553"><ele>31.4</ele><time>2026-02-03T18:41:08Z</time></trkpt>
      <trkpt lat="51.509952" lon="-0.140237"><ele>31.5</ele><time>2026-02-03T18:41:18Z</time></trkpt>
      <trkpt lat="51.510125" lon="-0.139922"><ele>31.6</ele><time>2026-02-03T18:41:29Z</time></trkpt>
      <trkpt lat="51.510296" lon="-0.139606"><ele>31.6</ele><time>2026-02-03T18:41:39Z</time></trkpt>
      <trkpt lat="51.510466" lon="-0.139291"><ele>31.6</ele><time>2026-02-03T18:41:49Z</time></trkpt>
      <trkpt lat="51.510635" lon="-0.138975"><ele>31.6</ele><time>2026-02-03T18:42:00Z</time></trkpt>
      <trkpt lat="51.510802" lon="-0.138660"><ele>31.5</ele><time>2026-02-03T18:42:10Z</time></trkpt>
      <trkpt lat="51.510966" lon="-0.138345"><ele>31.4</ele><time>2026-02-03T18:42:20Z</time></trkpt>
      <trkpt lat="51.511129" lon="-0.138029"><ele>31.3</ele><time>2026-02-03T18:42:31Z</time></trkpt>
      <trkpt lat="51.511290" lon="-0.137714"><ele>31.2</ele><time>2026-02-03T18:42:41Z</time></trkpt>
      <trkpt lat="51.511449" lon="-0.137398"><ele>31.2</ele><time>2026-02-03T18:42:51Z</time></trkpt>
      <trkpt lat="51.511605" lon="-0.137082"><ele>31.1</ele><time>2026-02-03T18:43:01Z</time></trkpt>
      <trkpt lat="51.511758" lon="-0.136765"><ele>31.1</ele><time>2026-02-03T18:43:11Z</time></trkpt>
      <trkpt lat="51.511909" lon="-0.136448"><ele>31.1</ele><time>2026-02-03T18:43:21Z</time></trkpt>
      <trkpt lat="51.512057" lon="-0.136131"><ele>31.2</ele><time>2026-02-03T18:43:30Z</time></trkpt>
      <trkpt lat="51.512202" lon="-0.135813"><ele>31.3</ele><time>2026-02-03T18:43:40Z</time></trkpt>
      <trkpt lat="51.512344" lon="-0.135494"><ele>31.5</ele><time>2026-02-03T18:43:49Z</time></trkpt>
      <trkpt lat="51.512482" lon="-0.135175"><ele>31.7</ele><time>2026-02-03T18:43:58Z</time></trkpt>
      <trkpt lat="51.512617" lon="-0.134856"><ele>32.0</ele><time>2026-02-03T18:44:06Z</time></trkpt>
      <trkpt lat="51.512749" lon="-0.134536"><ele>32.3</ele><time>2026-02-03T18:44:15Z</time></trkpt>
      <trkpt lat="51.512877" lon="-0.134215"><ele>32.7</ele><time>2026-02-03T18:44:23Z</time></trkpt>
      <trkpt lat="51.513001" lon="-0.133894"><ele>33.1</ele><time>2026-02-03T18:44:31Z</time></trkpt>
      <trkpt lat="51.513121" lon="-0.133573"><ele>33.6</ele><time>2026-02-03T18:44:39Z</time></trkpt>
      <trkpt lat="51.513237" lon="-0.133252"><ele>34.1</ele><time>2026-02-03T18:44:47Z</time></trkpt>
      <trkpt lat="51.513349" lon="-0.132930"><ele>34.6</ele><time>2026-02-03T18:44:55Z</time></trkpt>
      <trkpt lat="51.513457" lon="-0.132608"><ele>35.1</ele><time>2026-02-03T18:45:02Z</time></trkpt>
      <trkpt lat="51.513560" lon="-0.132286"><ele>35.6</ele><time>2026-02-03T18:45:09Z</time></trkpt>
      <trkpt lat="51.513660" lon="-0.131964"><ele>36.2</ele><time>2026-02-03T18:45:16Z</time></trkpt>
      <trkpt lat="51.513754" lon="-0.131642"><ele>36.7</ele><time>2026-02-03T18:45:23Z</time></trkpt>
      <trkpt lat="51.513845" lon="-0.131321"><ele>37.1</ele><time>2026-02-03T18:45:29Z</time></trkpt>
      <trkpt lat="51.513931" lon="-0.130999"><ele>37.6</ele><time>2026-02-03T18:45:35Z</time></trkpt>
      <trkpt lat="51.514012" lon="-0.130679"><ele>38.0</ele><time>2026-02-03T18:45:42Z</time></trkpt>
      <trkpt lat="51.514089" lon="-0.130359"><ele>38.3</ele><time>2026-02-03T18:45:48Z</time></trkpt>
      <trkpt lat="51.514162" lon="-0.130039"><ele>38.6</ele><time>2026-02-03T18:45:54Z</time></trkpt>
      <trkpt lat="51.514230" lon="-0.129721"><ele>38.9</ele><time>2026-02-03T18:46:00Z</time></trkpt>
      <trkpt lat="51.514294" lon="-0.129403"><ele>39.1</ele><time>2026-02-03T18:46:06Z</time></trkpt>
      <trkpt lat="51.514353" lon="-0.129087"><ele>39.3</ele><time>2026-02-03T18:46:12Z</time></trkpt>
      <trkpt lat="51.514408" lon="-0.128771"><ele>39.5</ele><time>2026-02-03T18:46:17Z</time></trkpt>
      <trkpt lat="51.514458" lon="-0.128457"><ele>39.6</ele><time>2026-02-03T18:46:23Z</time></trkpt>
      <trkpt lat="51.514504" lon="-0.128144"><ele>39.7</ele><time>2026-02-03T18:46:29Z</time></trkpt>
      <trkpt lat="51.514546" lon="-0.127833"><ele>39.9</ele><time>2026-02-03T18:46:35Z</time></trkpt>
      <trkpt lat="51.514584" lon="-0.127523"><ele>40.0</ele><time>2026-02-03T18:46:41Z</time></trkpt>
      <trkpt lat="51.514617" lon="-0.127214"><ele>40.1</ele><time>2026-02-03T18:46:46Z</time></trkpt>
      <trkpt lat="51.514647" lon="-0.126907"><ele>40.2</ele><time>2026-02-03T18:46:52Z</time></trkpt>
      <trkpt lat="51.514672" lon="-0.126601"><ele>40.4</ele><time>2026-02-03T18:46:58Z</time></trkpt>
      <trkpt lat="51.514694" lon="-0.126296"><ele>40.6</ele><time>2026-02-03T18:47:04Z</time></trkpt>
      <trkpt lat="51.514711" lon="-0.125993"><ele>40.8</ele><time>2026-02-03T18:47:10Z</time></trkpt>
      <trkpt lat="51.514725" lon="-0.125692"><ele>41.1</ele><time>2026-02-03T18:47:16Z</time></trkpt>
      <trkpt lat="51.514735" lon="-0.125391"><ele>41.4</ele><time>2026-02-03T18:47:23Z</time></trkpt>
      <trkpt lat="51.514742" lon="-0.125092"><ele>41.8</ele><time>2026-02-03T18:47:29Z</time></trkpt>
      <trkpt lat="51.514744" lon="-0.124794"><ele>42.3</ele><time>2026-02-03T18:47:35Z</time></trkpt>
      <trkpt lat="51.514743" lon="-0.124497"><ele>42.7</ele><time>2026-02-03T18:47:42Z</time></trkpt>
      <trkpt lat="51.514739" lon="-0.124200"><ele>43.2</ele><time>2026-02-03T18:47:49Z</time></trkpt>
      <trkpt lat="51.514731" lon="-0.123905"><ele>43.8</ele><time>2026-02-03T18:47:55Z</time></trkpt>
      <trkpt lat="51.514719" lon="-0.123610"><ele>44.3</ele><time>2026-02-03T18:48:02Z</time></trkpt>
      <trkpt lat="51.514703" lon="-0.123316"><ele>44.9</ele><time>2026-02-03T18:48:09Z</time></trkpt>
      <trkpt lat="51.514684" lon="-0.123022"><ele>45.5</ele><time>2026-02-03T18:48:16Z</time></trkpt>
      <trkpt lat="51.514662" lon="-0.122728"><ele>46.1</ele><time>2026-02-03T18:48:23Z</time></trkpt>
      <trkpt lat="51.514635" lon="-0.122434"><ele>46.6</ele><time>2026-02-03T18:48:31Z</time></trkpt>
      <trkpt lat="51.514605" lon="-0.122139"><ele>47.2</ele><time>2026-02-03T18:48:38Z</time></trkpt>
      <trkpt lat="51.514572" lon="-0.121845"><ele>47.7</ele><time>2026-02-03T18:48:45Z</time></trkpt>
      <trkpt lat="51.514534" lon="-0.121550"><ele>48.1</ele><time>2026-02-03T18:48:53Z</time></trkpt>
      <trkpt lat="51.514493" lon="-0.121254"><ele>48.5</ele><time>2026-02-03T18:49:01Z</time></trkpt>
      <trkpt lat="51.514447" lon="-0.120958"><ele>48.9</ele><time>2026-02-03T18:49:08Z</time></trkpt>
      <trkpt lat="51.514398" lon="-0.120660"><ele>49.2</ele><time>2026-02-03T18:49:16Z</time></trkpt>
      <trkpt lat="51.514344" lon="-0.120362"><ele>49.5</ele><time>2026-02-03T18:49:24Z</time></trkpt>
      <trkpt lat="51.514287" lon="-0.120062"><ele>49.7</ele><time>2026-02-03T18:49:32Z</time></trkpt>
      <trkpt lat="51.514225" lon="-0.119761"><ele>49.9</ele><time>2026-02-03T18:49:39Z</time></trkpt>
      <trkpt lat="51.514159" lon="-0.119458"><ele>50.0</ele><time>2026-02-03T18:49:47Z</time></trkpt>
      <trkpt lat="51.514088" lon="-0.119154"><ele>50.1</ele><time>2026-02-03T18:49:55Z</time></trkpt>
      <trkpt lat="51.514013" lon="-0.118849"><ele>50.1</ele><time>2026-02-03T18:50:03Z</time></trkpt>
      <trkpt lat="51.513933" lon="-0.118542"><ele>50.2</ele><time>2026-02-03T18:50:11Z</time></trkpt>
      <trkpt lat="51.513849" lon="-0.118233"><ele>50.2</ele><time>2026-02-03T18:50:19Z</time></trkpt>
      <trkpt lat="51.513760" lon="-0.117922"><ele>50.2</ele><time>2026-02-03T18:50:27Z</time></trkpt>
      <trkpt lat="51.513667" lon="-0.117610"><ele>50.2</ele><time>2026-02-03T18:50:35Z</time></trkpt>
      <trkpt lat="51.513569" lon="-0.117297"><ele>50.3</ele><time>2026-02-03T18:50:43Z</time></trkpt>
      <trkpt lat="51.513466" lon="-0.116981"><ele>50.3</ele><time>2026-02-03T18:50:51Z</time></trkpt>
      <trkpt lat="51.513358" lon="-0.116665"><ele>50.4</ele><time>2026-02-03T18:50:59Z</time></trkpt>
      <trkpt lat="51.513246" lon="-0.116347"><ele>50.5</ele><time>2026-02-03T18:51:06Z</time></trkpt>
      <trkpt lat="51.513129" lon="-0.116027"><ele>50.7</ele><time>2026-02-03T18:51:14Z</time></trkpt>
      <trkpt lat="51.513008" lon="-0.115707"><ele>50.9</ele><time>2026-02-03T18:51:22Z</time></trkpt>
      <trkpt lat="51.512881" lon="-0.115386"><ele>51.1</ele><time>2026-02-03T18:51:30Z</time></trkpt>
      <trkpt lat="51.512751" lon="-0.115064"><ele>51.4</ele><time>2026-02-03T18:51:37Z</time></trkpt>
      <trkpt lat="51.512616" lon="-0.114741"><ele>51.7</ele><time>2026-02-03T18:51:45Z</time></trkpt>
      <trkpt lat="51.512476" lon="-0.114418"><ele>52.1</ele><time>2026-02-03T18:51:52Z</time></trkpt>
      <trkpt lat="51.512333" lon="-0.114094"><ele>52.4</ele><time>2026-02-03T18:52:00Z</time></trkpt>
      <trkpt lat="51.512185" lon="-0.113771"><ele>52.8</ele><time>2026-02-03T18:52:07Z</time></trkpt>
      <trkpt lat="51.512034" lon="-0.113447"><ele>53.2</ele><time>2026-02-03T18:52:14Z</time></trkpt>
      <trkpt lat="51.511879" lon="-0.113124"><ele>53.5</ele><time>2026-02-03T18:52:22Z</time></trkpt>
      <trkpt lat="51.511720" lon="-0.112802"><ele>53.9</ele><time>2026-02-03T18:52:29Z</time></trkpt>
      <trkpt lat="51.511558" lon="-0.112480"><ele>54.2</ele><time>2026-02-03T18:52:36Z</time></trkpt>
      <trkpt lat="51.511394" lon="-0.112159"><ele>54.5</ele><time>2026-02-03T18:52:44Z</time></trkpt>
      <trkpt lat="51.511226" lon="-0.111839"><ele>54.7</ele><time>2026-02-03T18:52:51Z</time></trkpt>
      <trkpt lat="51.511055" lon="-0.111521"><ele>54.9</ele><time>2026-02-03T18:52:59Z</time></trkpt>
      <trkpt lat="51.510883" lon="-0.111204"><ele>55.0</ele><time>2026-02-03T18:53:06Z</time></trkpt>
      <trkpt lat="51.510708" lon="-0.110888"><ele>55.1</ele><time>2026-02-03T18:53:14Z</time></trkpt>
      <trkpt lat="51.510531" lon="-0.110575"><ele>55.1</ele><time>2026-02-03T18:53:21Z</time></trkpt>
      <trkpt lat="51.510353" lon="-0.110263"><ele>55.1</ele><time>2026-02-03T18:53:29Z</time></trkpt>
      <trkpt lat="51.510173" lon="-0.109954"><ele>55.0</ele><time>2026-02-03T18:53:37Z</time></trkpt>
      <trkpt lat="51.509992" lon="-0.109646"><ele>54.9</ele><time>2026-02-03T18:53:45Z</time></trkpt>
      <trkpt lat="51.509810" lon="-0.109341"><ele>54.7</ele><time>2026-02-03T18:53:53Z</time></trkpt>
      <trkpt lat="51.509628" lon="-0.109038"><ele>54.4</ele><time>2026-02-03T18:54:01Z</time></trkpt>
      <trkpt lat="51.509445" lon="-0.108737"><ele>54.2</ele><time>2026-02-03T18:54:09Z</time></trkpt>
      <trkpt lat="51.509262" lon="-0.108439"><ele>53.9</ele><time>2026-02-03T18:54:18Z</time></trkpt>
      <trkpt lat="51.509078" lon="-0.108143"><ele>53.6</ele><time>2026-02-03T18:54:26Z</time></trkpt>
      <trkpt lat="51.508896" lon="-0.107849"><ele>53.4</ele><time>2026-02-03T18:54:35Z</time></trkpt>
      <trkpt lat="51.508713" lon="-0.107557"><ele>53.1</ele><time>2026-02-03T18:54:44Z</time></trkpt>
      <trkpt lat="51.508532" lon="-0.107267"><ele>52.8</ele><time>2026-02-03T18:54:53Z</time></trkpt>
      <trkpt lat="51.508351" lon="-0.106980"><ele>52.6</ele><time>2026-02-03T18:55:02Z</time></trkpt>
      <trkpt lat="51.508171" lon="-0.106694"><ele>52.4</ele><time>2026-02-03T18:55:11Z</time></trkpt>
      <trkpt lat="51.507992" lon="-0.106410"><ele>52.2</ele><time>2026-02-03T18:55:20Z</time></trkpt>
      <trkpt lat="51.507814" lon="-0.106127"><ele>52.1</ele><time>2026-02-03T18:55:30Z</time></trkpt>
      <trkpt lat="51.507638" lon="-0.105846"><ele>52.0</ele><time>2026-02-03T18:55:39Z</time></trkpt>
      <trkpt lat="51.507463" lon="-0.105566"><ele>51.9</ele><time>2026-02-03T18:55:49Z</time></trkpt>
      <trkpt lat="51.507290" lon="-0.105287"><ele>51.9</ele><time>2026-02-03T18:55:58Z</time></trkpt>
      <trkpt lat="51.507119" lon="-0.105008"><ele>51.9</ele><time>2026-02-03T18:56:08Z</time></trkpt>
      <trkpt lat="51.506950" lon="-0.104731"><ele>52.0</ele><time>2026-02-03T18:56:17Z</time></trkpt>
      <trkpt lat="51.506782" lon="-0.104453"><ele>52.0</ele><time>2026-02-03T18:56:27Z</time></trkpt>
      <trkpt lat="51.506616" lon="-0.104176"><ele>52.1</ele><time>2026-02-03T18:56:37Z</time></trkpt>
      <trkpt lat="51.506453" lon="-0.103899"><ele>52.1</ele><time>2026-02-03T18:56:46Z</time></trkpt>
      <trkpt lat="51.506291" lon="-0.103621"><ele>52.1</ele><time>2026-02-03T18:56:56Z</time></trkpt>
      <trkpt lat="51.506132" lon="-0.103342"><ele>52.2</ele><time>2026-02-03T18:57:05Z</time></trkpt>
      <trkpt lat="51.505974" lon="-0.103063"><ele>52.2</ele><time>2026-02-03T18:57:15Z</time></trkpt>
      <trkpt lat="51.505819" lon="-0.102783"><ele>52.1</ele><time>2026-02-03T18:57:24Z</time></trkpt>
      <trkpt lat="51.505666" lon="-0.102502"><ele>52.0</ele><time>2026-02-03T18:57:33Z</time></trkpt>
      <trkpt lat="51.505515" lon="-0.102220"><ele>51.9</ele><time>2026-02-03T18:57:42Z</time></trkpt>
      <trkpt lat="51.505367" lon="-0.101936"><ele>51.7</ele><time>2026-02-03T18:57:51Z</time></trkpt>
      <trkpt lat="51.505221" lon="-0.101650"><ele>51.4</ele><time>2026-02-03T18:58:00Z</time></trkpt>
      <trkpt lat="51.505077" lon="-0.101363"><ele>51.1</ele><time>2026-02-03T18:58:09Z</time></trkpt>
      <trkpt lat="51.504936" lon="-0.101074"><ele>50.7</ele><time>2026-02-03T18:58:18Z</time></trkpt>
      <trkpt lat="51.504797" lon="-0.100783"><ele>50.3</ele><time>2026-02-03T18:58:26Z</time></trkpt>
      <trkpt lat="51.504661" lon="-0.100490"><ele>49.9</ele><time>2026-02-03T18:58:35Z</time></trkpt>
      <trkpt lat="51.504528" lon="-0.100195"><ele>49.4</ele><time>2026-02-03T18:58:43Z</time></trkpt>
      <trkpt lat="51.504397" lon="-0.099898"><ele>48.9</ele><time>2026-02-03T18:58:51Z</time></trkpt>
      <trkpt lat="51.504269" lon="-0.099599"><ele>48.3</ele><time>2026-02-03T18:58:59Z</time></trkpt>
      <trkpt lat="51.504144" lon="-0.099299"><ele>47.8</ele><time>2026-02-03T18:59:06Z</time></trkpt>
      <trkpt lat="51.504021" lon="-0.098996"><ele>47.2</ele><time>2026-02-03T18:59:14Z</time></trkpt>
      <trkpt lat="51.503902" lon="-0.098691"><ele>46.7</ele><time>2026-02-03T18:59:21Z</time></trkpt>
      <trkpt lat="51.503786" lon="-0.098385"><ele>46.2</ele><time>2026-02-03T18:59:28Z</time></trkpt>
      <trkpt lat="51.503673" lon="-0.098078"><ele>45.7</ele><time>2026-02-03T18:59:35Z</time></trkpt>
      <trkpt lat="51.503564" lon="-0.097769"><ele>45.2</ele><time>2026-02-03T18:59:42Z</time></trkpt>
      <trkpt lat="51.503458" lon="-0.097458"><ele>44.8</ele><time>2026-02-03T18:59:49Z</time></trkpt>
      <trkpt lat="51.503355" lon="-0.097147"><ele>44.5</ele><time>2026-02-03T18:59:55Z</time></trkpt>
      <trkpt lat="51.503256" lon="-0.096834"><ele>44.1</ele><time>2026-02-03T19:00:02Z</time></trkpt>
      <trkpt lat="51.503161" lon="-0.096521"><ele>43.9</ele><time>2026-02-03T19:00:08Z</time></trkpt>
      <trkpt lat="51.503070" lon="-0.096207"><ele>43.6</ele><time>2026-02-03T19:00:14Z</time></trkpt>
      <trkpt lat="51.502983" lon="-0.095893"><ele>43.4</ele><time>2026-02-03T19:00:20Z</time></trkpt>
      <trkpt lat="51.502900" lon="-0.095579"><ele>43.2</ele><time>2026-02-03T19:00:26Z</time></trkpt>
      <trkpt lat="51.502822" lon="-0.095265"><ele>43.1</ele><time>2026-02-03T19:00:32Z</time></trkpt>
      <trkpt lat="51.502747" lon="-0.094951"><ele>43.0</ele><time>2026-02-03T19:00:38Z</time></trkpt>
      <trkpt lat="51.502678" lon="-0.094637"><ele>42.9</ele><time>2026-02-03T19:00:44Z</time></trkpt>
      <trkpt lat="51.502612" lon="-0.094324"><ele>42.8</ele><time>2026-02-03T19:00:50Z</time></trkpt>
      <trkpt lat="51.502552" lon="-0.094012"><ele>42.6</ele><time>2026-02-03T19:00:56Z</time></trkpt>
      <trkpt lat="51.501498" lon="-0.094003"><ele>42.5</ele><time>2026-02-03T19:01:27Z</time></trkpt>
      <trkpt lat="51.501554" lon="-0.094299"><ele>42.3</ele><time>2026-02-03T19:01:32Z</time></trkpt>
      <trkpt lat="51.501615" lon="-0.094595"><ele>42.1</ele><time>2026-02-03T19:01:38Z</time></trkpt>
      <trkpt lat="51.501681" lon="-0.094893"><ele>41.9</ele><time>2026-02-03T19:01:44Z</time></trkpt>
      <trkpt lat="51.501752" lon="-0.095193"><ele>41.6</ele><time>2026-02-03T19:01:50Z</time></trkpt>
      <trkpt lat="51.501827" lon="-0.095493"><ele>41.3</ele><time>2026-02-03T19:01:57Z</time></trkpt>
      <trkpt lat="51.501907" lon="-0.095795"><ele>40.9</ele><time>2026-02-03T19:02:03Z</time></trkpt>
      <trkpt lat="51.501992" lon="-0.096098"><ele>40.5</ele><time>2026-02-03T19:02:10Z</time></trkpt>
      <trkpt lat="51.502081" lon="-0.096402"><ele>40.0</ele><time>2026-02-03T19:02:17Z</time></trkpt>
      <trkpt lat="51.502174" lon="-0.096706"><ele>39.5</ele><time>2026-02-03T19:02:24Z</time></trkpt>
      <trkpt lat="51.502272" lon="-0.097012"><ele>39.0</ele><time>2026-02-03T19:02:31Z</time></trkpt>
      <trkpt lat="51.502373" lon="-0.097317"><ele>38.4</ele><time>2026-02-03T19:02:39Z</time></trkpt>
      <trkpt lat="51.502479" lon="-0.097623"><ele>37.9</ele><time>2026-02-03T19:02:47Z</time></trkpt>
      <trkpt lat="51.502588" lon="-0.097930"><ele>37.3</ele><time>2026-02-03T19:02:55Z</time></trkpt>
      <trkpt lat="51.502701" lon="-0.098236"><ele>36.7</ele><time>2026-02-03T19:03:03Z</time></trkpt>
      <trkpt lat="51.502818" lon="-0.098542"><ele>36.2</ele><time>2026-02-03T19:03:12Z</time></trkpt>
      <trkpt lat="51.502938" lon="-0.098847"><ele>35.7</ele><time>2026-02-03T19:03:20Z</time></trkpt>
      <trkpt lat="51.503062" lon="-0.099153"><ele>35.2</ele><time>2026-02-03T19:03:29Z</time></trkpt>
      <trkpt lat="51.503188" lon="-0.099457"><ele>34.7</ele><time>2026-02-03T19:03:38Z</time></trkpt>
      <trkpt lat="51.503318" lon="-0.099761"><ele>34.3</ele><time>2026-02-03T19:03:47Z</time></trkpt>
      <trkpt lat="51.503450" lon="-0.100064"><ele>34.0</ele><time>2026-02-03T19:03:56Z</time></trkpt>
      <trkpt lat="51.503586" lon="-0.100366"><ele>33.7</ele><time>2026-02-03T19:04:05Z</time></trkpt>
      <trkpt lat="51.503724" lon="-0.100666"><ele>33.4</ele><time>2026-02-03T19:04:15Z</time></trkpt>
      <trkpt lat="51.503864" lon="-0.100966"><ele>33.3</ele><time>2026-02-03T19:04:24Z</time></trkpt>
      <trkpt lat="51.504008" lon="-0.101264"><ele>33.1</ele><time>2026-02-03T19:04:34Z</time></trkpt>
      <trkpt lat="51.504153" lon="-0.101561"><ele>33.0</ele><time>2026-02-03T19:04:43Z</time></trkpt>
      <trkpt lat="51.504301" lon="-0.101857"><ele>33.0</ele><time>2026-02-03T19:04:53Z</time></trkpt>
      <trkpt lat="51.504451" lon="-0.102152"><ele>32.9</ele><time>2026-02-03T19:05:02Z</time></trkpt>
      <trkpt lat="51.504603" lon="-0.102445"><ele>32.9</ele><time>2026-02-03T19:05:11Z</time></trkpt>
      <trkpt lat="51.504757" lon="-0.102737"><ele>32.9</ele><time>2026-02-03T19:05:21Z</time></trkpt>
      <trkpt lat="51.504913" lon="-0.103028"><ele>32.9</ele><time>2026-02-03T19:05:30Z</time></trkpt>
      <trkpt lat="51.505071" lon="-0.103318"><ele>33.0</ele><time>2026-02-03T19:05:39Z</time></trkpt>
      <trkpt lat="51.505231" lon="-0.103607"><ele>32.9</ele><time>2026-02-03T19:05:49Z</time></trkpt>
      <trkpt lat="51.505393" lon="-0.103895"><ele>32.9</ele><time>2026-02-03T19:05:58Z</time></trkpt>
      <trkpt lat="51.505556" lon="-0.104182"><ele>32.8</ele><time>2026-02-03T19:06:07Z</time></trkpt>
      <trkpt lat="51.505721" lon="-0.104469"><ele>32.8</ele><time>2026-02-03T19:06:15Z</time></trkpt>
      <trkpt lat="51.505888" lon="-0.104755"><ele>32.6</ele><time>2026-02-03T19:06:24Z</time></trkpt>
      <trkpt lat="51.506056" lon="-0.105041"><ele>32.5</ele><time>2026-02-03T19:06:33Z</time></trkpt>
      <trkpt lat="51.506225" lon="-0.105327"><ele>32.2</ele><time>2026-02-03T19:06:41Z</time></trkpt>
      <trkpt lat="51.506396" lon="-0.105612"><ele>32.0</ele><time>2026-02-03T19:06:49Z</time></trkpt>
      <trkpt lat="51.506568" lon="-0.105898"><ele>31.7</ele><time>2026-02-03T19:06:58Z</time></trkpt>
      <trkpt lat="51.506742" lon="-0.106185"><ele>31.4</ele><time>2026-02-03T19:07:06Z</time></trkpt>
      <trkpt lat="51.506917" lon="-0.106472"><ele>31.1</ele><time>2026-02-03T19:07:13Z</time></trkpt>
      <trkpt lat="51.507092" lon="-0.106759"><ele>30.8</ele><time>2026-02-03T19:07:21Z</time></trkpt>
      <trkpt lat="51.507269" lon="-0.107048"><ele>30.4</ele><time>2026-02-03T19:07:29Z</time></trkpt>
      <trkpt lat="51.507446" lon="-0.107338"><ele>30.1</ele><time>2026-02-03T19:07:37Z</time></trkpt>
      <trkpt lat="51.507625" lon="-0.107629"><ele>29.8</ele><time>2026-02-03T19:07:44Z</time></trkpt>
      <trkpt lat="51.507803" lon="-0.107921"><ele>29.5</ele><time>2026-02-03T19:07:52Z</time></trkpt>
      <trkpt lat="51.507983" lon="-0.108214"><ele>29.3</ele><time>2026-02-03T19:07:59Z</time></trkpt>
      <trkpt lat="51.508162" lon="-0.108510"><ele>29.1</ele><time>2026-02-03T19:08:06Z</time></trkpt>
      <trkpt lat="51.508342" lon="-0.108807"><ele>28.9</ele><time>2026-02-03T19:08:14Z</time></trkpt>
      <trkpt lat="51.508521" lon="-0.109105"><ele>28.8</ele><time>2026-02-03T19:08:21Z</time></trkpt>
      <trkpt lat="51.508701" lon="-0.109406"><ele>28.8</ele><time>2026-02-03T19:08:29Z</time></trkpt>
      <trkpt lat="51.508880" lon="-0.109708"><ele>28.8</ele><time>2026-02-03T19:08:36Z</time></trkpt>
      <trkpt lat="51.509058" lon="-0.110012"><ele>28.9</ele><time>2026-02-03T19:08:43Z</time></trkpt>
      <trkpt lat="51.509235" lon="-0.110318"><ele>29.0</ele><time>2026-02-03T19:08:51Z</time></trkpt>
      <trkpt lat="51.509412" lon="-0.110625"><ele>29.2</ele><time>2026-02-03T19:08:58Z</time></trkpt>
      <trkpt lat="51.509587" lon="-0.110935"><ele>29.4</ele><time>2026-02-03T19:09:06Z</time></trkpt>
      <trkpt lat="51.509760" lon="-0.111246"><ele>29.7</ele><time>2026-02-03T19:09:14Z</time></trkpt>
      <trkpt lat="51.509932" lon="-0.111558"><ele>30.0</ele><time>2026-02-03T19:09:21Z</time></trkpt>
      <trkpt lat="51.510102" lon="-0.111873"><ele>30.3</ele><time>2026-02-03T19:09:29Z</time></trkpt>
      <trkpt lat="51.510270" lon="-0.112188"><ele>30.6</ele><time>2026-02-03T19:09:37Z</time></trkpt>
      <trkpt lat="51.510435" lon="-0.112505"><ele>30.9</ele><time>2026-02-03T19:09:46Z</time></trkpt>
      <trkpt lat="51.510598" lon="-0.112823"><ele>31.2</ele><time>2026-02-03T19:09:54Z</time></trkpt>
      <trkpt lat="51.510758" lon="-0.113142"><ele>31.5</ele><time>2026-02-03T19:10:02Z</time></trkpt>
      <trkpt lat="51.510915" lon="-0.113462"><ele>31.8</ele><time>2026-02-03T19:10:11Z</time></trkpt>
      <trkpt lat="51.511068" lon="-0.113782"><ele>32.0</ele><time>2026-02-03T19:10:19Z</time></trkpt>
      <trkpt lat="51.511218" lon="-0.114103"><ele>32.2</ele><time>2026-02-03T19:10:28Z</time></trkpt>
      <trkpt lat="51.511364" lon="-0.114424"><ele>32.4</ele><time>2026-02-03T19:10:37Z</time></trkpt>
      <trkpt lat="51.511507" lon="-0.114745"><ele>32.5</ele><time>2026-02-03T19:10:46Z</time></trkpt>
      <trkpt lat="51.511645" lon="-0.115066"><ele>32.6</ele><time>2026-02-03T19:10:55Z</time></trkpt>
      <trkpt lat="51.511780" lon="-0.115386"><ele>32.7</ele><time>2026-02-03T19:11:04Z</time></trkpt>
      <trkpt lat="51.511910" lon="-0.115707"><ele>32.7</ele><time>2026-02-03T19:11:13Z</time></trkpt>
      <trkpt lat="51.512035" lon="-0.116026"><ele>32.7</ele><time>2026-02-03T19:11:22Z</time></trkpt>
      <trkpt lat="51.512156" lon="-0.116345"><ele>32.7</ele><time>2026-02-03T19:11:31Z</time></trkpt>
      <trkpt lat="51.512273" lon="-0.116663"><ele>32.7</ele><time>2026-02-03T19:11:40Z</time></trkpt>
      <trkpt lat="51.512385" lon="-0.116980"><ele>32.6</ele><time>2026-02-03T19:11:49Z</time></trkpt>
      <trkpt lat="51.512492" lon="-0.117295"><ele>32.6</ele><time>2026-02-03T19:11:58Z</time></trkpt>
      <trkpt lat="51.512594" lon="-0.117609"><ele>32.7</ele><time>2026-02-03T19:12:07Z</time></trkpt>
      <trkpt lat="51.512691" lon="-0.117922"><ele>32.7</ele><time>2026-02-03T19:12:15Z</time></trkpt>
      <trkpt lat="51.512784" lon="-0.118233"><ele>32.8</ele><time>2026-02-03T19:12:24Z</time></trkpt>
      <trkpt lat="51.512872" lon="-0.118543"><ele>32.9</ele><time>2026-02-03T19:12:33Z</time></trkpt>
      <trkpt lat="51.512955" lon="-0.118851"><ele>33.1</ele><time>2026-02-03T19:12:41Z</time></trkpt>
      <trkpt lat="51.513034" lon="-0.119158"><ele>33.3</ele><time>2026-02-03T19:12:49Z</time></trkpt>
      <trkpt lat="51.513107" lon="-0.119463"><ele>33.6</ele><time>2026-02-03T19:12:57Z</time></trkpt>
      <trkpt lat="51.513176" lon="-0.119766"><ele>33.9</ele><time>2026-02-03T19:13:05Z</time></trkpt>
      <trkpt lat="51.513241" lon="-0.120068"><ele>34.3</ele><time>2026-02-03T19:13:13Z</time></trkpt>
      <trkpt lat="51.513300" lon="-0.120368"><ele>34.7</ele><time>2026-02-03T19:13:21Z</time></trkpt>
      <trkpt lat="51.513356" lon="-0.120667"><ele>35.2</ele><time>2026-02-03T19:13:28Z</time></trkpt>
      <trkpt lat="51.513407" lon="-0.120965"><ele>35.7</ele><time>2026-02-03T19:13:36Z</time></trkpt>
      <trkpt lat="51.513453" lon="-0.121262"><ele>36.3</ele><time>2026-02-03T19:13:43Z</time></trkpt>
      <trkpt lat="51.513496" lon="-0.121557"><ele>36.8</ele><time>2026-02-03T19:13:50Z</time></trkpt>
      <trkpt lat="51.513534" lon="-0.121852"><ele>37.4</ele><time>2026-02-03T19:13:56Z</time></trkpt>
      <trkpt lat="51.513568" lon="-0.122146"><ele>38.0</ele><time>2026-02-03T19:14:03Z</time></trkpt>
      <trkpt lat="51.513598" lon="-0.122439"><ele>38.5</ele><time>2026-02-03T19:14:09Z</time></trkpt>
      <trkpt lat="51.513624" lon="-0.122732"><ele>39.0</ele><time>2026-02-03T19:14:16Z</time></trkpt>
      <trkpt lat="51.513646" lon="-0.123025"><ele>39.5</ele><time>2026-02-03T19:14:22Z</time></trkpt>
      <trkpt lat="51.513665" lon="-0.123317"><ele>40.0</ele><time>2026-02-03T19:14:28Z</time></trkpt>
      <trkpt lat="51.513679" lon="-0.123610"><ele>40.4</ele><time>2026-02-03T19:14:33Z</time></trkpt>
      <trkpt lat="51.513690" lon="-0.123903"><ele>40.8</ele><time>2026-02-03T19:14:39Z</time></trkpt>
      <trkpt lat="51.513697" lon="-0.124197"><ele>41.1</ele><time>2026-02-03T19:14:45Z</time></trkpt>
      <trkpt lat="51.513701" lon="-0.124491"><ele>41.4</ele><time>2026-02-03T19:14:50Z</time></trkpt>
      <trkpt lat="51.513701" lon="-0.124787"><ele>41.7</ele><time>2026-02-03T19:14:56Z</time></trkpt>
      <trkpt lat="51.513697" lon="-0.125083"><ele>41.9</ele><time>2026-02-03T19:15:01Z</time></trkpt>
      <trkpt lat="51.513689" lon="-0.125380"><ele>42.0</ele><time>2026-02-03T19:15:07Z</time></trkpt>
      <trkpt lat="51.513678" lon="-0.125679"><ele>42.2</ele><time>2026-02-03T19:15:12Z</time></trkpt>
      <trkpt lat="51.513663" lon="-0.125979"><ele>42.3</ele><time>2026-02-03T19:15:18Z</time></trkpt>
      <trkpt lat="51.513645" lon="-0.126281"><ele>42.4</ele><time>2026-02-03T19:15:23Z</time></trkpt>
      <trkpt lat="51.513622" lon="-0.126585"><ele>42.5</ele><time>2026-02-03T19:15:28Z</time></trkpt>
      <trkpt lat="51.513596" lon="-0.126890"><ele>42.7</ele><time>2026-02-03T19:15:34Z</time></trkpt>
      <trkpt lat="51.513566" lon="-0.127197"><ele>42.8</ele><time>2026-02-03T19:15:39Z</time></trkpt>
      <trkpt lat="51.513532" lon="-0.127506"><ele>43.0</ele><time>2026-02-03T19:15:45Z</time></trkpt>
      <trkpt lat="51.513494" lon="-0.127816"><ele>43.2</ele><time>2026-02-03T19:15:51Z</time></trkpt>
      <trkpt lat="51.513452" lon="-0.128129"><ele>43.4</ele><time>2026-02-03T19:15:56Z</time></trkpt>
      <trkpt lat="51.513405" lon="-0.128444"><ele>43.7</ele><time>2026-02-03T19:16:02Z</time></trkpt>
      <trkpt lat="51.513355" lon="-0.128760"><ele>44.0</ele><time>2026-02-03T19:16:08Z</time></trkpt>
      <trkpt lat="51.513300" lon="-0.129078"><ele>44.4</ele><time>2026-02-03T19:16:15Z</time></trkpt>
      <trkpt lat="51.513242" lon="-0.129398"><ele>44.8</ele><time>2026-02-03T19:16:21Z</time></trkpt>
      <trkpt lat="51.513178" lon="-0.129719"><ele>45.2</ele><time>2026-02-03T19:16:28Z</time></trkpt>
      <trkpt lat="51.513111" lon="-0.130042"><ele>45.7</ele><time>2026-02-03T19:16:34Z</time></trkpt>
      <trkpt lat="51.513039" lon="-0.130367"><ele>46.3</ele><time>2026-02-03T19:16:41Z</time></trkpt>
      <trkpt lat="51.512963" lon="-0.130692"><ele>46.8</ele><time>2026-02-03T19:16:48Z</time></trkpt>
      <trkpt lat="51.512882" lon="-0.131019"><ele>47.3</ele><time>2026-02-03T19:16:56Z</time></trkpt>
      <trkpt lat="51.512797" lon="-0.131347"><ele>47.9</ele><time>2026-02-03T19:17:04Z</time></trkpt>
      <trkpt lat="51.512707" lon="-0.131676"><ele>48.4</ele><time>2026-02-03T19:17:11Z</time></trkpt>
      <trkpt lat="51.512613" lon="-0.132005"><ele>49.0</ele><time>2026-02-03T19:17:19Z</time></trkpt>
      <trkpt lat="51.512514" lon="-0.132335"><ele>49.5</ele><time>2026-02-03T19:17:28Z</time></trkpt>
      <trkpt lat="51.512411" lon="-0.132665"><ele>49.9</ele><time>2026-02-03T19:17:36Z</time></trkpt>
      <trkpt lat="51.512304" lon="-0.132995"><ele>50.4</ele><time>2026-02-03T19:17:45Z</time></trkpt>
      <trkpt lat="51.512192" lon="-0.133325"><ele>50.7</ele><time>2026-02-03T19:17:54Z</time></trkpt>
      <trkpt lat="51.512076" lon="-0.133655"><ele>51.0</ele><time>2026-02-03T19:18:03Z</time></trkpt>
      <trkpt lat="51.511956" lon="-0.133984"><ele>51.3</ele><time>2026-02-03T19:18:12Z</time></trkpt>
      <trkpt lat="51.511832" lon="-0.134313"><ele>51.5</ele><time>2026-02-03T19:18:22Z</time></trkpt>
      <trkpt lat="51.511703" lon="-0.134642"><ele>51.7</ele><time>2026-02-03T19:18:31Z</time></trkpt>
      <trkpt lat="51.511571" lon="-0.134969"><ele>51.8</ele><time>2026-02-03T19:18:41Z</time></trkpt>
      <trkpt lat="51.511436" lon="-0.135296"><ele>51.9</ele><time>2026-02-03T19:18:51Z</time></trkpt>
      <trkpt lat="51.511296" lon="-0.135621"><ele>51.9</ele><time>2026-02-03T19:19:01Z</time></trkpt>
      <trkpt lat="51.511154" lon="-0.135946"><ele>51.9</ele><time>2026-02-03T19:19:11Z</time></trkpt>
      <trkpt lat="51.511007" lon="-0.136269"><ele>51.9</ele><time>2026-02-03T19:19:21Z</time></trkpt>
      <trkpt lat="51.510858" lon="-0.136591"><ele>51.8</ele><time>2026-02-03T19:19:31Z</time></trkpt>
      <trkpt lat="51.510706" lon="-0.136911"><ele>51.8</ele><time>2026-02-03T19:19:41Z</time></trkpt>
      <trkpt lat="51.510551" lon="-0.137230"><ele>51.8</ele><time>2026-02-03T19:19:51Z</time></trkpt>
      <trkpt lat="51.510393" lon="-0.137548"><ele>51.7</ele><time>2026-02-03T19:20:01Z</time></trkpt>
      <trkpt lat="51.510233" lon="-0.137864"><ele>51.7</ele><time>2026-02-03T19:20:11Z</time></trkpt>
      <trkpt lat="51.510070" lon="-0.138179"><ele>51.8</ele><time>2026-02-03T19:20:21Z</time></trkpt>
      <trkpt lat="51.509905" lon="-0.138492"><ele>51.8</ele><time>2026-02-03T19:20:30Z</time></trkpt>
      <trkpt lat="51.509738" lon="-0.138804"><ele>51.9</ele><time>2026-02-03T19:20:40Z</time></trkpt>
      <trkpt lat="51.509570" lon="-0.139115"><ele>52.1</ele><time>2026-02-03T19:20:50Z</time></trkpt>
      <trkpt lat="51.509399" lon="-0.139425"><ele>52.2</ele><time>2026-02-03T19:20:59Z</time></trkpt>
      <trkpt lat="51.509227" lon="-0.139733"><ele>52.5</ele><time>2026-02-03T19:21:08Z</time></trkpt>
      <trkpt lat="51.509054" lon="-0.140041"><ele>52.7</ele><time>2026-02-03T19:21:17Z</time></trkpt>
      <trkpt lat="51.508880" lon="-0.140347"><ele>53.0</ele><time>2026-02-03T19:21:26Z</time></trkpt>
      <trkpt lat="51.508704" lon="-0.140653"><ele>53.2</ele><time>2026-02-03T19:21:35Z</time></trkpt>
      <trkpt lat="51.508528" lon="-0.140958"><ele>53.5</ele><time>2026-02-03T19:21:43Z</time></trkpt>
      <trkpt lat="51.508351" lon="-0.141262"><ele>53.8</ele><time>2026-02-03T19:21:52Z</time></trkpt>
      <trkpt lat="51.508173" lon="-0.141566"><ele>54.1</ele><time>2026-02-03T19:22:00Z</time></trkpt>
      <trkpt lat="51.507995" lon="-0.141869"><ele>54.4</ele><time>2026-02-03T19:22:08Z</time></trkpt>
      <trkpt lat="51.507817" lon="-0.142172"><ele>54.6</ele><time>2026-02-03T19:22:16Z</time></trkpt>
      <trkpt lat="51.507639" lon="-0.142475"><ele>54.8</ele><time>2026-02-03T19:22:24Z</time></trkpt>
      <trkpt lat="51.507460" lon="-0.142777"><ele>55.0</ele><time>2026-02-03T19:22:32Z</time></trkpt>
    </trkseg>
  </trk>
</gpx>
