<?xml version="1.0" encoding="UTF-8"?>
<gpx xmlns="http://www.topografix.com/GPX/1/1" xmlns:xsi="http://www.w3.org/2001/XMLSchema-instance" xsi:schemaLocation="http://www.topografix.com/GPX/1/1 http://www.topografix.com/GPX/1/1/gpx.xsd" version="1.1" creator="gpx.py -- https://github.com/tkrajina/gpxpy">
  <metadata>
    <link href="connect.garmin.com">
      <text>Garmin Connect</text>
    </link>
    <time>2025-04-13T08:04:06Z</time>
  </metadata>
  <trk>
    <name>[Itinéraire] B-Ascension Ventoux par Bédoin</name>
    <desc>Modifié: 12 semaines</desc>
    <trkseg>
      <trkpt lat="44.125335" lon="5.180149">
        <ele>310</ele>
      </trkpt>
      <trkpt lat="44.125268" lon="5.18022">
        <ele>310</ele>
      </trkpt>
      <trkpt lat="44.125157" lon="5.180249">
        <ele>310</ele>
      </trkpt>
      <trkpt lat="44.125308" lon="5.180456">
        <ele>310</ele>
      </trkpt>
      <trkpt lat="44.125312" lon="5.180557">
        <ele>310</ele>
      </trkpt>
      <trkpt lat="44.125297" lon="5.180676">
        <ele>310</ele>
      </trkpt>
      <trkpt lat="44.125286" lon="5.180722">
        <ele>310</ele>
      </trkpt>
      <trkpt lat="44.125247" lon="5.180906">
        <ele>310</ele>
      </trkpt>
      <trkpt lat="44.125219" lon="5.180983">
        <ele>310</ele>
      </trkpt>
      <trkpt lat="44.125176" lon="5.18114">
        <ele>310</ele>
      </trkpt>
      <trkpt lat="44.125127" lon="5.181316">
        <ele>310</ele>
      </trkpt>
      <trkpt lat="44.125075" lon="5.181567">
        <ele>310</ele>
      </trkpt>
      <trkpt lat="44.125064" lon="5.181618">
        <ele>310</ele>
      </trkpt>
      <trkpt lat="44.125021" lon="5.181833">
        <ele>310</ele>
      </trkpt>
      <trkpt lat="44.124978" lon="5.182049">
        <ele>310</ele>
      </trkpt>
      <trkpt lat="44.124967" lon="5.182089">
        <ele>310</ele>
      </trkpt>
      <trkpt lat="44.1249" lon="5.182341">
        <ele>311</ele>
      </trkpt>
      <trkpt lat="44.124856" lon="5.182559">
        <ele>311</ele>
      </trkpt>
      <trkpt lat="44.124843" lon="5.182626">
        <ele>311</ele>
      </trkpt>
      <trkpt lat="44.124814" lon="5.182779">
        <ele>311</ele>
      </trkpt>
      <trkpt lat="44.124785" lon="5.182932">
        <ele>311</ele>
      </trkpt>
      <trkpt lat="44.124742" lon="5.183099">
        <ele>312</ele>
      </trkpt>
      <trkpt lat="44.124699" lon="5.183265">
        <ele>312</ele>
      </trkpt>
      <trkpt lat="44.124694" lon="5.183288">
        <ele>312</ele>
      </trkpt>
      <trkpt lat="44.124655" lon="5.183445">
        <ele>313</ele>
      </trkpt>
      <trkpt lat="44.124617" lon="5.183602">
        <ele>313</ele>
      </trkpt>
      <trkpt lat="44.124575" lon="5.18385">
        <ele>313</ele>
      </trkpt>
      <trkpt lat="44.124552" lon="5.18394">
        <ele>313</ele>
      </trkpt>
      <trkpt lat="44.124546" lon="5.183963">
        <ele>313</ele>
      </trkpt>
      <trkpt lat="44.124485" lon="5.184242">
        <ele>314</ele>
      </trkpt>
      <trkpt lat="44.124425" lon="5.184522">
        <ele>314</ele>
      </trkpt>
      <trkpt lat="44.124364" lon="5.184801">
        <ele>314</ele>
      </trkpt>
      <trkpt lat="44.124303" lon="5.185081">
        <ele>314</ele>
      </trkpt>
      <trkpt lat="44.124242" lon="5.18536">
        <ele>314</ele>
      </trkpt>
      <trkpt lat="44.124181" lon="5.18564">
        <ele>314</ele>
      </trkpt>
      <trkpt lat="44.12412" lon="5.18592">
        <ele>314</ele>
      </trkpt>
      <trkpt lat="44.124059" lon="5.186199">
        <ele>315</ele>
      </trkpt>
      <trkpt lat="44.123998" lon="5.186479">
        <ele>315</ele>
      </trkpt>
      <trkpt lat="44.123937" lon="5.186758">
        <ele>316</ele>
      </trkpt>
      <trkpt lat="44.123876" lon="5.187038">
        <ele>317</ele>
      </trkpt>
      <trkpt lat="44.123815" lon="5.187317">
        <ele>318</ele>
      </trkpt>
      <trkpt lat="44.123754" lon="5.187597">
        <ele>319</ele>
      </trkpt>
      <trkpt lat="44.123693" lon="5.187877">
        <ele>320</ele>
      </trkpt>
      <trkpt lat="44.123632" lon="5.188156">
        <ele>321</ele>
      </trkpt>
      <trkpt lat="44.12358" lon="5.188364">
        <ele>322</ele>
      </trkpt>
      <trkpt lat="44.123529" lon="5.188571">
        <ele>323</ele>
      </trkpt>
      <trkpt lat="44.123478" lon="5.188778">
        <ele>323</ele>
      </trkpt>
      <trkpt lat="44.123416" lon="5.188945">
        <ele>324</ele>
      </trkpt>
      <trkpt lat="44.123354" lon="5.189111">
        <ele>325</ele>
      </trkpt>
      <trkpt lat="44.123165" lon="5.189259">
        <ele>326</ele>
      </trkpt>
      <trkpt lat="44.122976" lon="5.189407">
        <ele>327</ele>
      </trkpt>
      <trkpt lat="44.122786" lon="5.189555">
        <ele>328</ele>
      </trkpt>
      <trkpt lat="44.122597" lon="5.189703">
        <ele>329</ele>
      </trkpt>
      <trkpt lat="44.122407" lon="5.189851">
        <ele>329</ele>
      </trkpt>
      <trkpt lat="44.122311" lon="5.190012">
        <ele>330</ele>
      </trkpt>
      <trkpt lat="44.122215" lon="5.190173">
        <ele>330</ele>
      </trkpt>
      <trkpt lat="44.122103" lon="5.190411">
        <ele>331</ele>
      </trkpt>
      <trkpt lat="44.121991" lon="5.190649">
        <ele>331</ele>
      </trkpt>
      <trkpt lat="44.12188" lon="5.190887">
        <ele>331</ele>
      </trkpt>
      <trkpt lat="44.121768" lon="5.191124">
        <ele>332</ele>
      </trkpt>
      <trkpt lat="44.121656" lon="5.191362">
        <ele>332</ele>
      </trkpt>
      <trkpt lat="44.121545" lon="5.1916">
        <ele>333</ele>
      </trkpt>
      <trkpt lat="44.121479" lon="5.191841">
        <ele>333</ele>
      </trkpt>
      <trkpt lat="44.121414" lon="5.192083">
        <ele>333</ele>
      </trkpt>
      <trkpt lat="44.121348" lon="5.192324">
        <ele>334</ele>
      </trkpt>
      <trkpt lat="44.121283" lon="5.192566">
        <ele>334</ele>
      </trkpt>
      <trkpt lat="44.121201" lon="5.192845">
        <ele>334</ele>
      </trkpt>
      <trkpt lat="44.12112" lon="5.193124">
        <ele>335</ele>
      </trkpt>
      <trkpt lat="44.121039" lon="5.193403">
        <ele>335</ele>
      </trkpt>
      <trkpt lat="44.120957" lon="5.193681">
        <ele>336</ele>
      </trkpt>
      <trkpt lat="44.120876" lon="5.19396">
        <ele>337</ele>
      </trkpt>
      <trkpt lat="44.120795" lon="5.194239">
        <ele>337</ele>
      </trkpt>
      <trkpt lat="44.120714" lon="5.194518">
        <ele>338</ele>
      </trkpt>
      <trkpt lat="44.120632" lon="5.194797">
        <ele>339</ele>
      </trkpt>
      <trkpt lat="44.120551" lon="5.195076">
        <ele>340</ele>
      </trkpt>
      <trkpt lat="44.120455" lon="5.19535">
        <ele>340</ele>
      </trkpt>
      <trkpt lat="44.120358" lon="5.195623">
        <ele>341</ele>
      </trkpt>
      <trkpt lat="44.120278" lon="5.195857">
        <ele>342</ele>
      </trkpt>
      <trkpt lat="44.120197" lon="5.19609">
        <ele>343</ele>
      </trkpt>
      <trkpt lat="44.120116" lon="5.196323">
        <ele>344</ele>
      </trkpt>
      <trkpt lat="44.120035" lon="5.196557">
        <ele>345</ele>
      </trkpt>
      <trkpt lat="44.11991" lon="5.196805">
        <ele>346</ele>
      </trkpt>
      <trkpt lat="44.119785" lon="5.197053">
        <ele>346</ele>
      </trkpt>
      <trkpt lat="44.11966" lon="5.197301">
        <ele>347</ele>
      </trkpt>
      <trkpt lat="44.119535" lon="5.197549">
        <ele>347</ele>
      </trkpt>
      <trkpt lat="44.11941" lon="5.197797">
        <ele>348</ele>
      </trkpt>
      <trkpt lat="44.119285" lon="5.198045">
        <ele>348</ele>
      </trkpt>
      <trkpt lat="44.11916" lon="5.198293">
        <ele>349</ele>
      </trkpt>
      <trkpt lat="44.119035" lon="5.19854">
        <ele>349</ele>
      </trkpt>
      <trkpt lat="44.11891" lon="5.198788">
        <ele>350</ele>
      </trkpt>
      <trkpt lat="44.118836" lon="5.198971">
        <ele>350</ele>
      </trkpt>
      <trkpt lat="44.118762" lon="5.199153">
        <ele>351</ele>
      </trkpt>
      <trkpt lat="44.118687" lon="5.199336">
        <ele>352</ele>
      </trkpt>
      <trkpt lat="44.118623" lon="5.199543">
        <ele>353</ele>
      </trkpt>
      <trkpt lat="44.118559" lon="5.19975">
        <ele>354</ele>
      </trkpt>
      <trkpt lat="44.118495" lon="5.199958">
        <ele>355</ele>
      </trkpt>
      <trkpt lat="44.118456" lon="5.200183">
        <ele>356</ele>
      </trkpt>
      <trkpt lat="44.118525" lon="5.200307">
        <ele>357</ele>
      </trkpt>
      <trkpt lat="44.118595" lon="5.20043">
        <ele>358</ele>
      </trkpt>
      <trkpt lat="44.118751" lon="5.200524">
        <ele>359</ele>
      </trkpt>
      <trkpt lat="44.118907" lon="5.200618">
        <ele>359</ele>
      </trkpt>
      <trkpt lat="44.119063" lon="5.200712">
        <ele>360</ele>
      </trkpt>
      <trkpt lat="44.119219" lon="5.200805">
        <ele>361</ele>
      </trkpt>
      <trkpt lat="44.11933" lon="5.200902">
        <ele>361</ele>
      </trkpt>
      <trkpt lat="44.119442" lon="5.200999">
        <ele>362</ele>
      </trkpt>
      <trkpt lat="44.119592" lon="5.201224">
        <ele>362</ele>
      </trkpt>
      <trkpt lat="44.119742" lon="5.201449">
        <ele>363</ele>
      </trkpt>
      <trkpt lat="44.119812" lon="5.201658">
        <ele>364</ele>
      </trkpt>
      <trkpt lat="44.119881" lon="5.201868">
        <ele>365</ele>
      </trkpt>
      <trkpt lat="44.119896" lon="5.202109">
        <ele>367</ele>
      </trkpt>
      <trkpt lat="44.119912" lon="5.20235">
        <ele>368</ele>
      </trkpt>
      <trkpt lat="44.119932" lon="5.202622">
        <ele>369</ele>
      </trkpt>
      <trkpt lat="44.119953" lon="5.202894">
        <ele>370</ele>
      </trkpt>
      <trkpt lat="44.119973" lon="5.203166">
        <ele>371</ele>
      </trkpt>
      <trkpt lat="44.120004" lon="5.20345">
        <ele>372</ele>
      </trkpt>
      <trkpt lat="44.120035" lon="5.203734">
        <ele>373</ele>
      </trkpt>
      <trkpt lat="44.120066" lon="5.204019">
        <ele>373</ele>
      </trkpt>
      <trkpt lat="44.120097" lon="5.204303">
        <ele>374</ele>
      </trkpt>
      <trkpt lat="44.120115" lon="5.204568">
        <ele>374</ele>
      </trkpt>
      <trkpt lat="44.120133" lon="5.204832">
        <ele>375</ele>
      </trkpt>
      <trkpt lat="44.12015" lon="5.205097">
        <ele>376</ele>
      </trkpt>
      <trkpt lat="44.120143" lon="5.205401">
        <ele>377</ele>
      </trkpt>
      <trkpt lat="44.120135" lon="5.205705">
        <ele>378</ele>
      </trkpt>
      <trkpt lat="44.120127" lon="5.206009">
        <ele>379</ele>
      </trkpt>
      <trkpt lat="44.120104" lon="5.206274">
        <ele>380</ele>
      </trkpt>
      <trkpt lat="44.120081" lon="5.206538">
        <ele>381</ele>
      </trkpt>
      <trkpt lat="44.120058" lon="5.206803">
        <ele>381</ele>
      </trkpt>
      <trkpt lat="44.120035" lon="5.207067">
        <ele>382</ele>
      </trkpt>
      <trkpt lat="44.120012" lon="5.207332">
        <ele>383</ele>
      </trkpt>
      <trkpt lat="44.119989" lon="5.207597">
        <ele>384</ele>
      </trkpt>
      <trkpt lat="44.119958" lon="5.207886">
        <ele>384</ele>
      </trkpt>
      <trkpt lat="44.119927" lon="5.208176">
        <ele>385</ele>
      </trkpt>
      <trkpt lat="44.119896" lon="5.208466">
        <ele>386</ele>
      </trkpt>
      <trkpt lat="44.1199" lon="5.208739">
        <ele>386</ele>
      </trkpt>
      <trkpt lat="44.119904" lon="5.209013">
        <ele>387</ele>
      </trkpt>
      <trkpt lat="44.119954" lon="5.209308">
        <ele>388</ele>
      </trkpt>
      <trkpt lat="44.120004" lon="5.209603">
        <ele>389</ele>
      </trkpt>
      <trkpt lat="44.120052" lon="5.209884">
        <ele>390</ele>
      </trkpt>
      <trkpt lat="44.1201" lon="5.210165">
        <ele>391</ele>
      </trkpt>
      <trkpt lat="44.120147" lon="5.210446">
        <ele>392</ele>
      </trkpt>
      <trkpt lat="44.120195" lon="5.210727">
        <ele>393</ele>
      </trkpt>
      <trkpt lat="44.120243" lon="5.211009">
        <ele>395</ele>
      </trkpt>
      <trkpt lat="44.120289" lon="5.211216">
        <ele>396</ele>
      </trkpt>
      <trkpt lat="44.120335" lon="5.211423">
        <ele>398</ele>
      </trkpt>
      <trkpt lat="44.120382" lon="5.211631">
        <ele>400</ele>
      </trkpt>
      <trkpt lat="44.120497" lon="5.211888">
        <ele>402</ele>
      </trkpt>
      <trkpt lat="44.120613" lon="5.212146">
        <ele>404</ele>
      </trkpt>
      <trkpt lat="44.120736" lon="5.212399">
        <ele>405</ele>
      </trkpt>
      <trkpt lat="44.120859" lon="5.212652">
        <ele>407</ele>
      </trkpt>
      <trkpt lat="44.120982" lon="5.212905">
        <ele>408</ele>
      </trkpt>
      <trkpt lat="44.121106" lon="5.213159">
        <ele>408</ele>
      </trkpt>
      <trkpt lat="44.12113" lon="5.213205">
        <ele>409</ele>
      </trkpt>
      <trkpt lat="44.121153" lon="5.21325">
        <ele>409</ele>
      </trkpt>
      <trkpt lat="44.121281" lon="5.213488">
        <ele>410</ele>
      </trkpt>
      <trkpt lat="44.121408" lon="5.213727">
        <ele>410</ele>
      </trkpt>
      <trkpt lat="44.121536" lon="5.213965">
        <ele>411</ele>
      </trkpt>
      <trkpt lat="44.121663" lon="5.214203">
        <ele>411</ele>
      </trkpt>
      <trkpt lat="44.121791" lon="5.214442">
        <ele>412</ele>
      </trkpt>
      <trkpt lat="44.121876" lon="5.214699">
        <ele>413</ele>
      </trkpt>
      <trkpt lat="44.12196" lon="5.214957">
        <ele>415</ele>
      </trkpt>
      <trkpt lat="44.122045" lon="5.215214">
        <ele>416</ele>
      </trkpt>
      <trkpt lat="44.12213" lon="5.215472">
        <ele>418</ele>
      </trkpt>
      <trkpt lat="44.12218" lon="5.215692">
        <ele>419</ele>
      </trkpt>
      <trkpt lat="44.12223" lon="5.215912">
        <ele>421</ele>
      </trkpt>
      <trkpt lat="44.122188" lon="5.216191">
        <ele>422</ele>
      </trkpt>
      <trkpt lat="44.122145" lon="5.21647">
        <ele>424</ele>
      </trkpt>
      <trkpt lat="44.122059" lon="5.216748">
        <ele>425</ele>
      </trkpt>
      <trkpt lat="44.121973" lon="5.217027">
        <ele>427</ele>
      </trkpt>
      <trkpt lat="44.121887" lon="5.217306">
        <ele>429</ele>
      </trkpt>
      <trkpt lat="44.1218" lon="5.217585">
        <ele>430</ele>
      </trkpt>
      <trkpt lat="44.121714" lon="5.217864">
        <ele>432</ele>
      </trkpt>
      <trkpt lat="44.12164" lon="5.218122">
        <ele>433</ele>
      </trkpt>
      <trkpt lat="44.121566" lon="5.218379">
        <ele>435</ele>
      </trkpt>
      <trkpt lat="44.121492" lon="5.218637">
        <ele>436</ele>
      </trkpt>
      <trkpt lat="44.121418" lon="5.218894">
        <ele>438</ele>
      </trkpt>
      <trkpt lat="44.121344" lon="5.219152">
        <ele>440</ele>
      </trkpt>
      <trkpt lat="44.12125" lon="5.219431">
        <ele>442</ele>
      </trkpt>
      <trkpt lat="44.121155" lon="5.21971">
        <ele>444</ele>
      </trkpt>
      <trkpt lat="44.12106" lon="5.219989">
        <ele>445</ele>
      </trkpt>
      <trkpt lat="44.120966" lon="5.220268">
        <ele>447</ele>
      </trkpt>
      <trkpt lat="44.120871" lon="5.220546">
        <ele>448</ele>
      </trkpt>
      <trkpt lat="44.120777" lon="5.220825">
        <ele>449</ele>
      </trkpt>
      <trkpt lat="44.120682" lon="5.221104">
        <ele>450</ele>
      </trkpt>
      <trkpt lat="44.120599" lon="5.221338">
        <ele>451</ele>
      </trkpt>
      <trkpt lat="44.120516" lon="5.221571">
        <ele>451</ele>
      </trkpt>
      <trkpt lat="44.120434" lon="5.221804">
        <ele>452</ele>
      </trkpt>
      <trkpt lat="44.120351" lon="5.222038">
        <ele>452</ele>
      </trkpt>
      <trkpt lat="44.120316" lon="5.222257">
        <ele>453</ele>
      </trkpt>
      <trkpt lat="44.120281" lon="5.222477">
        <ele>453</ele>
      </trkpt>
      <trkpt lat="44.120284" lon="5.222639">
        <ele>454</ele>
      </trkpt>
      <trkpt lat="44.120286" lon="5.222801">
        <ele>455</ele>
      </trkpt>
      <trkpt lat="44.120302" lon="5.222947">
        <ele>455</ele>
      </trkpt>
      <trkpt lat="44.120313" lon="5.223045">
        <ele>456</ele>
      </trkpt>
      <trkpt lat="44.120326" lon="5.223122">
        <ele>457</ele>
      </trkpt>
      <trkpt lat="44.120383" lon="5.223406">
        <ele>458</ele>
      </trkpt>
      <trkpt lat="44.120439" lon="5.22369">
        <ele>459</ele>
      </trkpt>
      <trkpt lat="44.120495" lon="5.223974">
        <ele>461</ele>
      </trkpt>
      <trkpt lat="44.120551" lon="5.224259">
        <ele>462</ele>
      </trkpt>
      <trkpt lat="44.120543" lon="5.224495">
        <ele>464</ele>
      </trkpt>
      <trkpt lat="44.120536" lon="5.224731">
        <ele>465</ele>
      </trkpt>
      <trkpt lat="44.120501" lon="5.225016">
        <ele>466</ele>
      </trkpt>
      <trkpt lat="44.120466" lon="5.225302">
        <ele>467</ele>
      </trkpt>
      <trkpt lat="44.120432" lon="5.225588">
        <ele>468</ele>
      </trkpt>
      <trkpt lat="44.120397" lon="5.225873">
        <ele>469</ele>
      </trkpt>
      <trkpt lat="44.120362" lon="5.226159">
        <ele>470</ele>
      </trkpt>
      <trkpt lat="44.120328" lon="5.226445">
        <ele>471</ele>
      </trkpt>
      <trkpt lat="44.120293" lon="5.22673">
        <ele>472</ele>
      </trkpt>
      <trkpt lat="44.120258" lon="5.227016">
        <ele>474</ele>
      </trkpt>
      <trkpt lat="44.120243" lon="5.227231">
        <ele>475</ele>
      </trkpt>
      <trkpt lat="44.120228" lon="5.227445">
        <ele>477</ele>
      </trkpt>
      <trkpt lat="44.120263" lon="5.227726">
        <ele>478</ele>
      </trkpt>
      <trkpt lat="44.120299" lon="5.228008">
        <ele>480</ele>
      </trkpt>
      <trkpt lat="44.120335" lon="5.228289">
        <ele>481</ele>
      </trkpt>
      <trkpt lat="44.120371" lon="5.22857">
        <ele>483</ele>
      </trkpt>
      <trkpt lat="44.120407" lon="5.228852">
        <ele>485</ele>
      </trkpt>
      <trkpt lat="44.120443" lon="5.229133">
        <ele>487</ele>
      </trkpt>
      <trkpt lat="44.120479" lon="5.229414">
        <ele>488</ele>
      </trkpt>
      <trkpt lat="44.120515" lon="5.229696">
        <ele>490</ele>
      </trkpt>
      <trkpt lat="44.120551" lon="5.229977">
        <ele>491</ele>
      </trkpt>
      <trkpt lat="44.120501" lon="5.230251">
        <ele>493</ele>
      </trkpt>
      <trkpt lat="44.120451" lon="5.230524">
        <ele>494</ele>
      </trkpt>
      <trkpt lat="44.120335" lon="5.23075">
        <ele>495</ele>
      </trkpt>
      <trkpt lat="44.12022" lon="5.230975">
        <ele>497</ele>
      </trkpt>
      <trkpt lat="44.120065" lon="5.23118">
        <ele>498</ele>
      </trkpt>
      <trkpt lat="44.11991" lon="5.231386">
        <ele>500</ele>
      </trkpt>
      <trkpt lat="44.119754" lon="5.231591">
        <ele>501</ele>
      </trkpt>
      <trkpt lat="44.119599" lon="5.231796">
        <ele>502</ele>
      </trkpt>
      <trkpt lat="44.119444" lon="5.232002">
        <ele>504</ele>
      </trkpt>
      <trkpt lat="44.119289" lon="5.232207">
        <ele>505</ele>
      </trkpt>
      <trkpt lat="44.119134" lon="5.232413">
        <ele>506</ele>
      </trkpt>
      <trkpt lat="44.118979" lon="5.232618">
        <ele>508</ele>
      </trkpt>
      <trkpt lat="44.118824" lon="5.232823">
        <ele>509</ele>
      </trkpt>
      <trkpt lat="44.118668" lon="5.233029">
        <ele>510</ele>
      </trkpt>
      <trkpt lat="44.118513" lon="5.233234">
        <ele>511</ele>
      </trkpt>
      <trkpt lat="44.118358" lon="5.233439">
        <ele>513</ele>
      </trkpt>
      <trkpt lat="44.118203" lon="5.233645">
        <ele>514</ele>
      </trkpt>
      <trkpt lat="44.118048" lon="5.23385">
        <ele>515</ele>
      </trkpt>
      <trkpt lat="44.117994" lon="5.234054">
        <ele>516</ele>
      </trkpt>
      <trkpt lat="44.11794" lon="5.234258">
        <ele>517</ele>
      </trkpt>
      <trkpt lat="44.117894" lon="5.234451">
        <ele>517</ele>
      </trkpt>
      <trkpt lat="44.117848" lon="5.234644">
        <ele>518</ele>
      </trkpt>
      <trkpt lat="44.117732" lon="5.234834">
        <ele>518</ele>
      </trkpt>
      <trkpt lat="44.117616" lon="5.235023">
        <ele>518</ele>
      </trkpt>
      <trkpt lat="44.117501" lon="5.235213">
        <ele>519</ele>
      </trkpt>
      <trkpt lat="44.117466" lon="5.235363">
        <ele>519</ele>
      </trkpt>
      <trkpt lat="44.117432" lon="5.235513">
        <ele>520</ele>
      </trkpt>
      <trkpt lat="44.117462" lon="5.235767">
        <ele>521</ele>
      </trkpt>
      <trkpt lat="44.117493" lon="5.236021">
        <ele>521</ele>
      </trkpt>
      <trkpt lat="44.117524" lon="5.236275">
        <ele>522</ele>
      </trkpt>
      <trkpt lat="44.117539" lon="5.236452">
        <ele>522</ele>
      </trkpt>
      <trkpt lat="44.117555" lon="5.236629">
        <ele>523</ele>
      </trkpt>
      <trkpt lat="44.117528" lon="5.236903">
        <ele>523</ele>
      </trkpt>
      <trkpt lat="44.117501" lon="5.237176">
        <ele>524</ele>
      </trkpt>
      <trkpt lat="44.117452" lon="5.237469">
        <ele>525</ele>
      </trkpt>
      <trkpt lat="44.117403" lon="5.237763">
        <ele>526</ele>
      </trkpt>
      <trkpt lat="44.117355" lon="5.238056">
        <ele>527</ele>
      </trkpt>
      <trkpt lat="44.117285" lon="5.238249">
        <ele>528</ele>
      </trkpt>
      <trkpt lat="44.117216" lon="5.238442">
        <ele>529</ele>
      </trkpt>
      <trkpt lat="44.11705" lon="5.238646">
        <ele>530</ele>
      </trkpt>
      <trkpt lat="44.116885" lon="5.23885">
        <ele>530</ele>
      </trkpt>
      <trkpt lat="44.116719" lon="5.239054">
        <ele>530</ele>
      </trkpt>
      <trkpt lat="44.116554" lon="5.239258">
        <ele>530</ele>
      </trkpt>
      <trkpt lat="44.116388" lon="5.239461">
        <ele>531</ele>
      </trkpt>
      <trkpt lat="44.116222" lon="5.239665">
        <ele>531</ele>
      </trkpt>
      <trkpt lat="44.116061" lon="5.239853">
        <ele>530</ele>
      </trkpt>
      <trkpt lat="44.115899" lon="5.240041">
        <ele>530</ele>
      </trkpt>
      <trkpt lat="44.115752" lon="5.240127">
        <ele>529</ele>
      </trkpt>
      <trkpt lat="44.115606" lon="5.240212">
        <ele>529</ele>
      </trkpt>
      <trkpt lat="44.115434" lon="5.240212">
        <ele>529</ele>
      </trkpt>
      <trkpt lat="44.115262" lon="5.240212">
        <ele>529</ele>
      </trkpt>
      <trkpt lat="44.11509" lon="5.240212">
        <ele>530</ele>
      </trkpt>
      <trkpt lat="44.114917" lon="5.240212">
        <ele>531</ele>
      </trkpt>
      <trkpt lat="44.114743" lon="5.240212">
        <ele>532</ele>
      </trkpt>
      <trkpt lat="44.114582" lon="5.240062">
        <ele>532</ele>
      </trkpt>
      <trkpt lat="44.11442" lon="5.239912">
        <ele>533</ele>
      </trkpt>
      <trkpt lat="44.114277" lon="5.239821">
        <ele>533</ele>
      </trkpt>
      <trkpt lat="44.114135" lon="5.23973">
        <ele>534</ele>
      </trkpt>
      <trkpt lat="44.113919" lon="5.239708">
        <ele>535</ele>
      </trkpt>
      <trkpt lat="44.113704" lon="5.239687">
        <ele>537</ele>
      </trkpt>
      <trkpt lat="44.113526" lon="5.239708">
        <ele>538</ele>
      </trkpt>
      <trkpt lat="44.113519" lon="5.239923">
        <ele>540</ele>
      </trkpt>
      <trkpt lat="44.113675" lon="5.240012">
        <ele>542</ele>
      </trkpt>
      <trkpt lat="44.113832" lon="5.240102">
        <ele>544</ele>
      </trkpt>
      <trkpt lat="44.113989" lon="5.240191">
        <ele>545</ele>
      </trkpt>
      <trkpt lat="44.114104" lon="5.240336">
        <ele>546</ele>
      </trkpt>
      <trkpt lat="44.11422" lon="5.240481">
        <ele>548</ele>
      </trkpt>
      <trkpt lat="44.114366" lon="5.240642">
        <ele>549</ele>
      </trkpt>
      <trkpt lat="44.114512" lon="5.240803">
        <ele>551</ele>
      </trkpt>
      <trkpt lat="44.114633" lon="5.240992">
        <ele>553</ele>
      </trkpt>
      <trkpt lat="44.114754" lon="5.241182">
        <ele>554</ele>
      </trkpt>
      <trkpt lat="44.114874" lon="5.241371">
        <ele>556</ele>
      </trkpt>
      <trkpt lat="44.115005" lon="5.241521">
        <ele>558</ele>
      </trkpt>
      <trkpt lat="44.115136" lon="5.241672">
        <ele>560</ele>
      </trkpt>
      <trkpt lat="44.115275" lon="5.241757">
        <ele>561</ele>
      </trkpt>
      <trkpt lat="44.115414" lon="5.241843">
        <ele>562</ele>
      </trkpt>
      <trkpt lat="44.115552" lon="5.241929">
        <ele>563</ele>
      </trkpt>
      <trkpt lat="44.115737" lon="5.242052">
        <ele>564</ele>
      </trkpt>
      <trkpt lat="44.115922" lon="5.242176">
        <ele>566</ele>
      </trkpt>
      <trkpt lat="44.116014" lon="5.242358">
        <ele>567</ele>
      </trkpt>
      <trkpt lat="44.116107" lon="5.242541">
        <ele>570</ele>
      </trkpt>
      <trkpt lat="44.116107" lon="5.242787">
        <ele>572</ele>
      </trkpt>
      <trkpt lat="44.116018" lon="5.242916">
        <ele>575</ele>
      </trkpt>
      <trkpt lat="44.11593" lon="5.243045">
        <ele>577</ele>
      </trkpt>
      <trkpt lat="44.115812" lon="5.243234">
        <ele>580</ele>
      </trkpt>
      <trkpt lat="44.115693" lon="5.243424">
        <ele>582</ele>
      </trkpt>
      <trkpt lat="44.115575" lon="5.243613">
        <ele>584</ele>
      </trkpt>
      <trkpt lat="44.115503" lon="5.243805">
        <ele>585</ele>
      </trkpt>
      <trkpt lat="44.11543" lon="5.243997">
        <ele>587</ele>
      </trkpt>
      <trkpt lat="44.115428" lon="5.244084">
        <ele>588</ele>
      </trkpt>
      <trkpt lat="44.115427" lon="5.24418">
        <ele>589</ele>
      </trkpt>
      <trkpt lat="44.115464" lon="5.244274">
        <ele>590</ele>
      </trkpt>
      <trkpt lat="44.115525" lon="5.244369">
        <ele>590</ele>
      </trkpt>
      <trkpt lat="44.115619" lon="5.244506">
        <ele>591</ele>
      </trkpt>
      <trkpt lat="44.115647" lon="5.244541">
        <ele>592</ele>
      </trkpt>
      <trkpt lat="44.115697" lon="5.2446">
        <ele>593</ele>
      </trkpt>
      <trkpt lat="44.115763" lon="5.244679">
        <ele>594</ele>
      </trkpt>
      <trkpt lat="44.115908" lon="5.244853">
        <ele>596</ele>
      </trkpt>
      <trkpt lat="44.116052" lon="5.245026">
        <ele>598</ele>
      </trkpt>
      <trkpt lat="44.116197" lon="5.245199">
        <ele>600</ele>
      </trkpt>
      <trkpt lat="44.116341" lon="5.245373">
        <ele>602</ele>
      </trkpt>
      <trkpt lat="44.116486" lon="5.245546">
        <ele>605</ele>
      </trkpt>
      <trkpt lat="44.116631" lon="5.24572">
        <ele>607</ele>
      </trkpt>
      <trkpt lat="44.116803" lon="5.245912">
        <ele>609</ele>
      </trkpt>
      <trkpt lat="44.116975" lon="5.246104">
        <ele>612</ele>
      </trkpt>
      <trkpt lat="44.117147" lon="5.246296">
        <ele>614</ele>
      </trkpt>
      <trkpt lat="44.117319" lon="5.246488">
        <ele>616</ele>
      </trkpt>
      <trkpt lat="44.117491" lon="5.246681">
        <ele>619</ele>
      </trkpt>
      <trkpt lat="44.117663" lon="5.246873">
        <ele>621</ele>
      </trkpt>
      <trkpt lat="44.11785" lon="5.247014">
        <ele>624</ele>
      </trkpt>
      <trkpt lat="44.118038" lon="5.247156">
        <ele>626</ele>
      </trkpt>
      <trkpt lat="44.118225" lon="5.247297">
        <ele>628</ele>
      </trkpt>
      <trkpt lat="44.118329" lon="5.247383">
        <ele>630</ele>
      </trkpt>
      <trkpt lat="44.118433" lon="5.247469">
        <ele>632</ele>
      </trkpt>
      <trkpt lat="44.118606" lon="5.247635">
        <ele>634</ele>
      </trkpt>
      <trkpt lat="44.11878" lon="5.247801">
        <ele>636</ele>
      </trkpt>
      <trkpt lat="44.118959" lon="5.247887">
        <ele>638</ele>
      </trkpt>
      <trkpt lat="44.119138" lon="5.247973">
        <ele>641</ele>
      </trkpt>
      <trkpt lat="44.119317" lon="5.248059">
        <ele>643</ele>
      </trkpt>
      <trkpt lat="44.119496" lon="5.248144">
        <ele>645</ele>
      </trkpt>
      <trkpt lat="44.1195" lon="5.248148">
        <ele>647</ele>
      </trkpt>
      <trkpt lat="44.119646" lon="5.248284">
        <ele>650</ele>
      </trkpt>
      <trkpt lat="44.119796" lon="5.248423">
        <ele>652</ele>
      </trkpt>
      <trkpt lat="44.12" lon="5.24852">
        <ele>655</ele>
      </trkpt>
      <trkpt lat="44.120204" lon="5.248617">
        <ele>657</ele>
      </trkpt>
      <trkpt lat="44.120409" lon="5.248633">
        <ele>660</ele>
      </trkpt>
      <trkpt lat="44.120613" lon="5.248649">
        <ele>662</ele>
      </trkpt>
      <trkpt lat="44.1208" lon="5.248724">
        <ele>664</ele>
      </trkpt>
      <trkpt lat="44.120987" lon="5.248799">
        <ele>666</ele>
      </trkpt>
      <trkpt lat="44.121175" lon="5.248874">
        <ele>668</ele>
      </trkpt>
      <trkpt lat="44.121233" lon="5.249062">
        <ele>670</ele>
      </trkpt>
      <trkpt lat="44.12129" lon="5.24925">
        <ele>671</ele>
      </trkpt>
      <trkpt lat="44.121452" lon="5.249357">
        <ele>673</ele>
      </trkpt>
      <trkpt lat="44.121598" lon="5.249303">
        <ele>675</ele>
      </trkpt>
      <trkpt lat="44.121745" lon="5.24925">
        <ele>677</ele>
      </trkpt>
      <trkpt lat="44.121922" lon="5.249153">
        <ele>679</ele>
      </trkpt>
      <trkpt lat="44.122053" lon="5.24918">
        <ele>680</ele>
      </trkpt>
      <trkpt lat="44.122184" lon="5.249207">
        <ele>682</ele>
      </trkpt>
      <trkpt lat="44.12228" lon="5.249346">
        <ele>683</ele>
      </trkpt>
      <trkpt lat="44.122376" lon="5.249486">
        <ele>685</ele>
      </trkpt>
      <trkpt lat="44.122515" lon="5.249722">
        <ele>686</ele>
      </trkpt>
      <trkpt lat="44.122654" lon="5.249958">
        <ele>688</ele>
      </trkpt>
      <trkpt lat="44.122792" lon="5.250194">
        <ele>690</ele>
      </trkpt>
      <trkpt lat="44.122931" lon="5.25043">
        <ele>691</ele>
      </trkpt>
      <trkpt lat="44.123069" lon="5.250666">
        <ele>693</ele>
      </trkpt>
      <trkpt lat="44.123208" lon="5.250902">
        <ele>695</ele>
      </trkpt>
      <trkpt lat="44.123347" lon="5.251138">
        <ele>697</ele>
      </trkpt>
      <trkpt lat="44.123485" lon="5.251374">
        <ele>699</ele>
      </trkpt>
      <trkpt lat="44.123624" lon="5.25161">
        <ele>701</ele>
      </trkpt>
      <trkpt lat="44.123763" lon="5.251846">
        <ele>703</ele>
      </trkpt>
      <trkpt lat="44.123901" lon="5.252082">
        <ele>705</ele>
      </trkpt>
      <trkpt lat="44.12404" lon="5.252318">
        <ele>707</ele>
      </trkpt>
      <trkpt lat="44.124179" lon="5.252554">
        <ele>709</ele>
      </trkpt>
      <trkpt lat="44.124317" lon="5.25279">
        <ele>711</ele>
      </trkpt>
      <trkpt lat="44.124456" lon="5.253026">
        <ele>712</ele>
      </trkpt>
      <trkpt lat="44.124594" lon="5.253262">
        <ele>714</ele>
      </trkpt>
      <trkpt lat="44.124641" lon="5.253412">
        <ele>715</ele>
      </trkpt>
      <trkpt lat="44.124687" lon="5.253563">
        <ele>717</ele>
      </trkpt>
      <trkpt lat="44.124695" lon="5.253788">
        <ele>718</ele>
      </trkpt>
      <trkpt lat="44.124702" lon="5.254013">
        <ele>719</ele>
      </trkpt>
      <trkpt lat="44.124695" lon="5.254264">
        <ele>721</ele>
      </trkpt>
      <trkpt lat="44.124687" lon="5.254515">
        <ele>722</ele>
      </trkpt>
      <trkpt lat="44.124679" lon="5.254766">
        <ele>724</ele>
      </trkpt>
      <trkpt lat="44.124671" lon="5.255017">
        <ele>726</ele>
      </trkpt>
      <trkpt lat="44.124664" lon="5.255268">
        <ele>728</ele>
      </trkpt>
      <trkpt lat="44.124687" lon="5.255456">
        <ele>730</ele>
      </trkpt>
      <trkpt lat="44.12471" lon="5.255644">
        <ele>731</ele>
      </trkpt>
      <trkpt lat="44.124758" lon="5.25588">
        <ele>733</ele>
      </trkpt>
      <trkpt lat="44.124806" lon="5.256116">
        <ele>735</ele>
      </trkpt>
      <trkpt lat="44.124854" lon="5.256352">
        <ele>737</ele>
      </trkpt>
      <trkpt lat="44.124902" lon="5.256588">
        <ele>739</ele>
      </trkpt>
      <trkpt lat="44.124954" lon="5.256816">
        <ele>742</ele>
      </trkpt>
      <trkpt lat="44.125006" lon="5.257044">
        <ele>744</ele>
      </trkpt>
      <trkpt lat="44.125058" lon="5.257272">
        <ele>746</ele>
      </trkpt>
      <trkpt lat="44.12511" lon="5.2575">
        <ele>748</ele>
      </trkpt>
      <trkpt lat="44.125133" lon="5.257693">
        <ele>750</ele>
      </trkpt>
      <trkpt lat="44.125157" lon="5.257886">
        <ele>752</ele>
      </trkpt>
      <trkpt lat="44.12511" lon="5.258085">
        <ele>753</ele>
      </trkpt>
      <trkpt lat="44.125064" lon="5.258283">
        <ele>755</ele>
      </trkpt>
      <trkpt lat="44.124922" lon="5.258514">
        <ele>757</ele>
      </trkpt>
      <trkpt lat="44.124779" lon="5.258745">
        <ele>759</ele>
      </trkpt>
      <trkpt lat="44.124653" lon="5.258866">
        <ele>761</ele>
      </trkpt>
      <trkpt lat="44.124528" lon="5.258988">
        <ele>762</ele>
      </trkpt>
      <trkpt lat="44.124402" lon="5.259109">
        <ele>764</ele>
      </trkpt>
      <trkpt lat="44.124379" lon="5.259297">
        <ele>765</ele>
      </trkpt>
      <trkpt lat="44.124356" lon="5.259485">
        <ele>766</ele>
      </trkpt>
      <trkpt lat="44.124333" lon="5.259714">
        <ele>767</ele>
      </trkpt>
      <trkpt lat="44.124309" lon="5.259943">
        <ele>768</ele>
      </trkpt>
      <trkpt lat="44.124286" lon="5.260171">
        <ele>770</ele>
      </trkpt>
      <trkpt lat="44.124302" lon="5.260386">
        <ele>771</ele>
      </trkpt>
      <trkpt lat="44.124317" lon="5.260601">
        <ele>773</ele>
      </trkpt>
      <trkpt lat="44.124333" lon="5.260815">
        <ele>775</ele>
      </trkpt>
      <trkpt lat="44.12441" lon="5.261019">
        <ele>778</ele>
      </trkpt>
      <trkpt lat="44.124487" lon="5.261223">
        <ele>780</ele>
      </trkpt>
      <trkpt lat="44.124564" lon="5.261427">
        <ele>783</ele>
      </trkpt>
      <trkpt lat="44.124602" lon="5.261727">
        <ele>785</ele>
      </trkpt>
      <trkpt lat="44.124547" lon="5.262013">
        <ele>788</ele>
      </trkpt>
      <trkpt lat="44.124491" lon="5.262298">
        <ele>790</ele>
      </trkpt>
      <trkpt lat="44.124436" lon="5.262583">
        <ele>793</ele>
      </trkpt>
      <trkpt lat="44.12438" lon="5.262869">
        <ele>795</ele>
      </trkpt>
      <trkpt lat="44.124325" lon="5.263154">
        <ele>797</ele>
      </trkpt>
      <trkpt lat="44.124299" lon="5.263372">
        <ele>800</ele>
      </trkpt>
      <trkpt lat="44.124274" lon="5.26359">
        <ele>802</ele>
      </trkpt>
      <trkpt lat="44.124248" lon="5.263809">
        <ele>804</ele>
      </trkpt>
      <trkpt lat="44.124163" lon="5.26407">
        <ele>806</ele>
      </trkpt>
      <trkpt lat="44.124078" lon="5.264331">
        <ele>808</ele>
      </trkpt>
      <trkpt lat="44.123994" lon="5.264592">
        <ele>809</ele>
      </trkpt>
      <trkpt lat="44.123982" lon="5.264774">
        <ele>811</ele>
      </trkpt>
      <trkpt lat="44.123971" lon="5.264957">
        <ele>812</ele>
      </trkpt>
      <trkpt lat="44.124047" lon="5.265157">
        <ele>814</ele>
      </trkpt>
      <trkpt lat="44.124124" lon="5.265357">
        <ele>816</ele>
      </trkpt>
      <trkpt lat="44.124201" lon="5.265558">
        <ele>818</ele>
      </trkpt>
      <trkpt lat="44.124259" lon="5.265672">
        <ele>819</ele>
      </trkpt>
      <trkpt lat="44.124339" lon="5.265804">
        <ele>821</ele>
      </trkpt>
      <trkpt lat="44.12441" lon="5.26592">
        <ele>823</ele>
      </trkpt>
      <trkpt lat="44.124484" lon="5.266037">
        <ele>824</ele>
      </trkpt>
      <trkpt lat="44.124485" lon="5.26604">
        <ele>824</ele>
      </trkpt>
      <trkpt lat="44.124569" lon="5.266116">
        <ele>825</ele>
      </trkpt>
      <trkpt lat="44.124581" lon="5.266127">
        <ele>826</ele>
      </trkpt>
      <trkpt lat="44.124659" lon="5.266244">
        <ele>828</ele>
      </trkpt>
      <trkpt lat="44.124737" lon="5.266362">
        <ele>829</ele>
      </trkpt>
      <trkpt lat="44.124822" lon="5.266501">
        <ele>831</ele>
      </trkpt>
      <trkpt lat="44.124916" lon="5.266748">
        <ele>833</ele>
      </trkpt>
      <trkpt lat="44.12501" lon="5.266995">
        <ele>836</ele>
      </trkpt>
      <trkpt lat="44.125105" lon="5.267242">
        <ele>839</ele>
      </trkpt>
      <trkpt lat="44.125199" lon="5.267488">
        <ele>842</ele>
      </trkpt>
      <trkpt lat="44.125293" lon="5.267735">
        <ele>845</ele>
      </trkpt>
      <trkpt lat="44.125388" lon="5.267982">
        <ele>848</ele>
      </trkpt>
      <trkpt lat="44.125522" lon="5.268194">
        <ele>850</ele>
      </trkpt>
      <trkpt lat="44.125657" lon="5.268406">
        <ele>853</ele>
      </trkpt>
      <trkpt lat="44.125743" lon="5.26865">
        <ele>855</ele>
      </trkpt>
      <trkpt lat="44.125828" lon="5.268895">
        <ele>857</ele>
      </trkpt>
      <trkpt lat="44.125914" lon="5.26914">
        <ele>860</ele>
      </trkpt>
      <trkpt lat="44.125999" lon="5.269384">
        <ele>862</ele>
      </trkpt>
      <trkpt lat="44.126085" lon="5.269629">
        <ele>864</ele>
      </trkpt>
      <trkpt lat="44.126128" lon="5.269852">
        <ele>866</ele>
      </trkpt>
      <trkpt lat="44.126172" lon="5.270076">
        <ele>868</ele>
      </trkpt>
      <trkpt lat="44.126216" lon="5.270299">
        <ele>870</ele>
      </trkpt>
      <trkpt lat="44.126293" lon="5.270519">
        <ele>871</ele>
      </trkpt>
      <trkpt lat="44.12637" lon="5.270739">
        <ele>873</ele>
      </trkpt>
      <trkpt lat="44.126447" lon="5.270959">
        <ele>875</ele>
      </trkpt>
      <trkpt lat="44.126524" lon="5.271179">
        <ele>877</ele>
      </trkpt>
      <trkpt lat="44.126552" lon="5.271407">
        <ele>879</ele>
      </trkpt>
      <trkpt lat="44.126581" lon="5.271635">
        <ele>881</ele>
      </trkpt>
      <trkpt lat="44.126596" lon="5.27193">
        <ele>882</ele>
      </trkpt>
      <trkpt lat="44.126611" lon="5.272225">
        <ele>884</ele>
      </trkpt>
      <trkpt lat="44.126625" lon="5.27252">
        <ele>886</ele>
      </trkpt>
      <trkpt lat="44.12664" lon="5.272815">
        <ele>888</ele>
      </trkpt>
      <trkpt lat="44.126655" lon="5.27311">
        <ele>890</ele>
      </trkpt>
      <trkpt lat="44.126631" lon="5.273384">
        <ele>892</ele>
      </trkpt>
      <trkpt lat="44.126589" lon="5.273545">
        <ele>894</ele>
      </trkpt>
      <trkpt lat="44.126547" lon="5.273706">
        <ele>896</ele>
      </trkpt>
      <trkpt lat="44.12645" lon="5.273933">
        <ele>897</ele>
      </trkpt>
      <trkpt lat="44.126354" lon="5.27416">
        <ele>899</ele>
      </trkpt>
      <trkpt lat="44.126258" lon="5.274387">
        <ele>901</ele>
      </trkpt>
      <trkpt lat="44.126178" lon="5.274582">
        <ele>903</ele>
      </trkpt>
      <trkpt lat="44.126099" lon="5.274777">
        <ele>904</ele>
      </trkpt>
      <trkpt lat="44.126019" lon="5.274972">
        <ele>906</ele>
      </trkpt>
      <trkpt lat="44.125941" lon="5.275186">
        <ele>908</ele>
      </trkpt>
      <trkpt lat="44.125863" lon="5.275401">
        <ele>910</ele>
      </trkpt>
      <trkpt lat="44.125784" lon="5.275615">
        <ele>911</ele>
      </trkpt>
      <trkpt lat="44.125746" lon="5.275784">
        <ele>913</ele>
      </trkpt>
      <trkpt lat="44.125707" lon="5.275953">
        <ele>915</ele>
      </trkpt>
      <trkpt lat="44.125742" lon="5.27623">
        <ele>917</ele>
      </trkpt>
      <trkpt lat="44.125777" lon="5.276506">
        <ele>919</ele>
      </trkpt>
      <trkpt lat="44.125844" lon="5.276774">
        <ele>921</ele>
      </trkpt>
      <trkpt lat="44.125911" lon="5.277042">
        <ele>923</ele>
      </trkpt>
      <trkpt lat="44.125969" lon="5.277332">
        <ele>925</ele>
      </trkpt>
      <trkpt lat="44.126027" lon="5.277622">
        <ele>927</ele>
      </trkpt>
      <trkpt lat="44.126085" lon="5.277911">
        <ele>929</ele>
      </trkpt>
      <trkpt lat="44.126142" lon="5.278201">
        <ele>931</ele>
      </trkpt>
      <trkpt lat="44.126208" lon="5.278319">
        <ele>932</ele>
      </trkpt>
      <trkpt lat="44.126337" lon="5.278456">
        <ele>934</ele>
      </trkpt>
      <trkpt lat="44.126466" lon="5.278593">
        <ele>936</ele>
      </trkpt>
      <trkpt lat="44.126539" lon="5.278748">
        <ele>937</ele>
      </trkpt>
      <trkpt lat="44.126551" lon="5.278992">
        <ele>939</ele>
      </trkpt>
      <trkpt lat="44.126562" lon="5.279236">
        <ele>940</ele>
      </trkpt>
      <trkpt lat="44.126569" lon="5.279519">
        <ele>942</ele>
      </trkpt>
      <trkpt lat="44.126576" lon="5.279802">
        <ele>944</ele>
      </trkpt>
      <trkpt lat="44.126582" lon="5.280085">
        <ele>945</ele>
      </trkpt>
      <trkpt lat="44.126589" lon="5.280364">
        <ele>947</ele>
      </trkpt>
      <trkpt lat="44.126589" lon="5.280368">
        <ele>948</ele>
      </trkpt>
      <trkpt lat="44.126639" lon="5.280594">
        <ele>949</ele>
      </trkpt>
      <trkpt lat="44.126689" lon="5.280819">
        <ele>950</ele>
      </trkpt>
      <trkpt lat="44.12677" lon="5.281034">
        <ele>952</ele>
      </trkpt>
      <trkpt lat="44.126851" lon="5.281248">
        <ele>954</ele>
      </trkpt>
      <trkpt lat="44.126911" lon="5.281443">
        <ele>955</ele>
      </trkpt>
      <trkpt lat="44.126972" lon="5.281638">
        <ele>957</ele>
      </trkpt>
      <trkpt lat="44.127032" lon="5.281833">
        <ele>958</ele>
      </trkpt>
      <trkpt lat="44.127034" lon="5.282088">
        <ele>960</ele>
      </trkpt>
      <trkpt lat="44.127036" lon="5.282342">
        <ele>962</ele>
      </trkpt>
      <trkpt lat="44.127007" lon="5.282573">
        <ele>964</ele>
      </trkpt>
      <trkpt lat="44.126978" lon="5.282804">
        <ele>966</ele>
      </trkpt>
      <trkpt lat="44.126955" lon="5.283053">
        <ele>968</ele>
      </trkpt>
      <trkpt lat="44.126932" lon="5.283303">
        <ele>970</ele>
      </trkpt>
      <trkpt lat="44.126947" lon="5.283442">
        <ele>972</ele>
      </trkpt>
      <trkpt lat="44.127009" lon="5.283555">
        <ele>974</ele>
      </trkpt>
      <trkpt lat="44.127144" lon="5.2837">
        <ele>976</ele>
      </trkpt>
      <trkpt lat="44.127328" lon="5.283775">
        <ele>978</ele>
      </trkpt>
      <trkpt lat="44.127521" lon="5.283764">
        <ele>981</ele>
      </trkpt>
      <trkpt lat="44.12771" lon="5.283662">
        <ele>983</ele>
      </trkpt>
      <trkpt lat="44.127925" lon="5.283641">
        <ele>986</ele>
      </trkpt>
      <trkpt lat="44.128141" lon="5.283702">
        <ele>988</ele>
      </trkpt>
      <trkpt lat="44.128356" lon="5.283764">
        <ele>990</ele>
      </trkpt>
      <trkpt lat="44.128518" lon="5.283737">
        <ele>992</ele>
      </trkpt>
      <trkpt lat="44.12868" lon="5.28371">
        <ele>994</ele>
      </trkpt>
      <trkpt lat="44.128815" lon="5.283775">
        <ele>994</ele>
      </trkpt>
      <trkpt lat="44.128815" lon="5.283866">
        <ele>995</ele>
      </trkpt>
      <trkpt lat="44.128772" lon="5.28393">
        <ele>994</ele>
      </trkpt>
      <trkpt lat="44.128663" lon="5.283973">
        <ele>994</ele>
      </trkpt>
      <trkpt lat="44.128553" lon="5.284016">
        <ele>993</ele>
      </trkpt>
      <trkpt lat="44.128472" lon="5.284107">
        <ele>993</ele>
      </trkpt>
      <trkpt lat="44.128449" lon="5.284215">
        <ele>993</ele>
      </trkpt>
      <trkpt lat="44.128472" lon="5.284408">
        <ele>994</ele>
      </trkpt>
      <trkpt lat="44.128557" lon="5.284561">
        <ele>996</ele>
      </trkpt>
      <trkpt lat="44.128641" lon="5.284714">
        <ele>998</ele>
      </trkpt>
      <trkpt lat="44.128738" lon="5.284899">
        <ele>1000</ele>
      </trkpt>
      <trkpt lat="44.128834" lon="5.285084">
        <ele>1002</ele>
      </trkpt>
      <trkpt lat="44.12888" lon="5.285341">
        <ele>1005</ele>
      </trkpt>
      <trkpt lat="44.128892" lon="5.285642">
        <ele>1007</ele>
      </trkpt>
      <trkpt lat="44.128926" lon="5.285864">
        <ele>1009</ele>
      </trkpt>
      <trkpt lat="44.128961" lon="5.286087">
        <ele>1011</ele>
      </trkpt>
      <trkpt lat="44.129084" lon="5.286339">
        <ele>1013</ele>
      </trkpt>
      <trkpt lat="44.129207" lon="5.286591">
        <ele>1015</ele>
      </trkpt>
      <trkpt lat="44.129311" lon="5.286741">
        <ele>1017</ele>
      </trkpt>
      <trkpt lat="44.129415" lon="5.286891">
        <ele>1019</ele>
      </trkpt>
      <trkpt lat="44.129498" lon="5.287141">
        <ele>1021</ele>
      </trkpt>
      <trkpt lat="44.129581" lon="5.28739">
        <ele>1023</ele>
      </trkpt>
      <trkpt lat="44.129581" lon="5.287589">
        <ele>1024</ele>
      </trkpt>
      <trkpt lat="44.129581" lon="5.287787">
        <ele>1026</ele>
      </trkpt>
      <trkpt lat="44.129569" lon="5.287991">
        <ele>1028</ele>
      </trkpt>
      <trkpt lat="44.129601" lon="5.288165">
        <ele>1029</ele>
      </trkpt>
      <trkpt lat="44.129747" lon="5.288291">
        <ele>1031</ele>
      </trkpt>
      <trkpt lat="44.129893" lon="5.288417">
        <ele>1033</ele>
      </trkpt>
      <trkpt lat="44.130039" lon="5.288544">
        <ele>1034</ele>
      </trkpt>
      <trkpt lat="44.130158" lon="5.288624">
        <ele>1036</ele>
      </trkpt>
      <trkpt lat="44.130278" lon="5.288705">
        <ele>1037</ele>
      </trkpt>
      <trkpt lat="44.130376" lon="5.28879">
        <ele>1039</ele>
      </trkpt>
      <trkpt lat="44.130474" lon="5.288876">
        <ele>1040</ele>
      </trkpt>
      <trkpt lat="44.130557" lon="5.289029">
        <ele>1042</ele>
      </trkpt>
      <trkpt lat="44.13064" lon="5.289182">
        <ele>1044</ele>
      </trkpt>
      <trkpt lat="44.130697" lon="5.289354">
        <ele>1045</ele>
      </trkpt>
      <trkpt lat="44.130755" lon="5.289525">
        <ele>1047</ele>
      </trkpt>
      <trkpt lat="44.130821" lon="5.289756">
        <ele>1049</ele>
      </trkpt>
      <trkpt lat="44.130886" lon="5.289987">
        <ele>1052</ele>
      </trkpt>
      <trkpt lat="44.130952" lon="5.290217">
        <ele>1054</ele>
      </trkpt>
      <trkpt lat="44.131052" lon="5.290419">
        <ele>1056</ele>
      </trkpt>
      <trkpt lat="44.131152" lon="5.29062">
        <ele>1058</ele>
      </trkpt>
      <trkpt lat="44.131262" lon="5.290788">
        <ele>1060</ele>
      </trkpt>
      <trkpt lat="44.131371" lon="5.290956">
        <ele>1062</ele>
      </trkpt>
      <trkpt lat="44.131475" lon="5.291214">
        <ele>1064</ele>
      </trkpt>
      <trkpt lat="44.131579" lon="5.291472">
        <ele>1067</ele>
      </trkpt>
      <trkpt lat="44.131683" lon="5.29173">
        <ele>1069</ele>
      </trkpt>
      <trkpt lat="44.131787" lon="5.291988">
        <ele>1071</ele>
      </trkpt>
      <trkpt lat="44.131891" lon="5.292247">
        <ele>1074</ele>
      </trkpt>
      <trkpt lat="44.131995" lon="5.292505">
        <ele>1076</ele>
      </trkpt>
      <trkpt lat="44.132098" lon="5.29273">
        <ele>1079</ele>
      </trkpt>
      <trkpt lat="44.132201" lon="5.292955">
        <ele>1081</ele>
      </trkpt>
      <trkpt lat="44.132305" lon="5.293181">
        <ele>1084</ele>
      </trkpt>
      <trkpt lat="44.132408" lon="5.293406">
        <ele>1086</ele>
      </trkpt>
      <trkpt lat="44.132511" lon="5.293631">
        <ele>1088</ele>
      </trkpt>
      <trkpt lat="44.132629" lon="5.293842">
        <ele>1091</ele>
      </trkpt>
      <trkpt lat="44.132747" lon="5.294053">
        <ele>1093</ele>
      </trkpt>
      <trkpt lat="44.132865" lon="5.294264">
        <ele>1095</ele>
      </trkpt>
      <trkpt lat="44.132983" lon="5.294475">
        <ele>1097</ele>
      </trkpt>
      <trkpt lat="44.133101" lon="5.294686">
        <ele>1099</ele>
      </trkpt>
      <trkpt lat="44.133219" lon="5.294897">
        <ele>1102</ele>
      </trkpt>
      <trkpt lat="44.133335" lon="5.295115">
        <ele>1103</ele>
      </trkpt>
      <trkpt lat="44.13345" lon="5.295334">
        <ele>1105</ele>
      </trkpt>
      <trkpt lat="44.133566" lon="5.295552">
        <ele>1107</ele>
      </trkpt>
      <trkpt lat="44.133686" lon="5.295814">
        <ele>1110</ele>
      </trkpt>
      <trkpt lat="44.133806" lon="5.296075">
        <ele>1112</ele>
      </trkpt>
      <trkpt lat="44.133926" lon="5.296337">
        <ele>1114</ele>
      </trkpt>
      <trkpt lat="44.134046" lon="5.296599">
        <ele>1116</ele>
      </trkpt>
      <trkpt lat="44.134167" lon="5.296861">
        <ele>1118</ele>
      </trkpt>
      <trkpt lat="44.134251" lon="5.297065">
        <ele>1120</ele>
      </trkpt>
      <trkpt lat="44.134336" lon="5.297268">
        <ele>1121</ele>
      </trkpt>
      <trkpt lat="44.134421" lon="5.297472">
        <ele>1123</ele>
      </trkpt>
      <trkpt lat="44.134478" lon="5.297681">
        <ele>1125</ele>
      </trkpt>
      <trkpt lat="44.134536" lon="5.297891">
        <ele>1127</ele>
      </trkpt>
      <trkpt lat="44.134563" lon="5.29818">
        <ele>1129</ele>
      </trkpt>
      <trkpt lat="44.13459" lon="5.29847">
        <ele>1131</ele>
      </trkpt>
      <trkpt lat="44.134617" lon="5.29876">
        <ele>1133</ele>
      </trkpt>
      <trkpt lat="44.134644" lon="5.299049">
        <ele>1135</ele>
      </trkpt>
      <trkpt lat="44.134666" lon="5.299298">
        <ele>1137</ele>
      </trkpt>
      <trkpt lat="44.134687" lon="5.299547">
        <ele>1138</ele>
      </trkpt>
      <trkpt lat="44.134709" lon="5.299796">
        <ele>1141</ele>
      </trkpt>
      <trkpt lat="44.13473" lon="5.300046">
        <ele>1142</ele>
      </trkpt>
      <trkpt lat="44.13474" lon="5.300213">
        <ele>1144</ele>
      </trkpt>
      <trkpt lat="44.134748" lon="5.300321">
        <ele>1146</ele>
      </trkpt>
      <trkpt lat="44.134755" lon="5.300395">
        <ele>1148</ele>
      </trkpt>
      <trkpt lat="44.1348" lon="5.300612">
        <ele>1149</ele>
      </trkpt>
      <trkpt lat="44.134845" lon="5.300828">
        <ele>1150</ele>
      </trkpt>
      <trkpt lat="44.13489" lon="5.301045">
        <ele>1152</ele>
      </trkpt>
      <trkpt lat="44.135006" lon="5.30126">
        <ele>1153</ele>
      </trkpt>
      <trkpt lat="44.135121" lon="5.301474">
        <ele>1155</ele>
      </trkpt>
      <trkpt lat="44.135237" lon="5.301689">
        <ele>1157</ele>
      </trkpt>
      <trkpt lat="44.135372" lon="5.301937">
        <ele>1159</ele>
      </trkpt>
      <trkpt lat="44.135507" lon="5.302186">
        <ele>1161</ele>
      </trkpt>
      <trkpt lat="44.135633" lon="5.302396">
        <ele>1163</ele>
      </trkpt>
      <trkpt lat="44.135758" lon="5.302605">
        <ele>1165</ele>
      </trkpt>
      <trkpt lat="44.135884" lon="5.302815">
        <ele>1167</ele>
      </trkpt>
      <trkpt lat="44.135891" lon="5.302992">
        <ele>1169</ele>
      </trkpt>
      <trkpt lat="44.135899" lon="5.303169">
        <ele>1171</ele>
      </trkpt>
      <trkpt lat="44.135845" lon="5.303456">
        <ele>1172</ele>
      </trkpt>
      <trkpt lat="44.135791" lon="5.303743">
        <ele>1174</ele>
      </trkpt>
      <trkpt lat="44.135737" lon="5.30403">
        <ele>1176</ele>
      </trkpt>
      <trkpt lat="44.135683" lon="5.304317">
        <ele>1178</ele>
      </trkpt>
      <trkpt lat="44.135643" lon="5.304598">
        <ele>1180</ele>
      </trkpt>
      <trkpt lat="44.135603" lon="5.304879">
        <ele>1182</ele>
      </trkpt>
      <trkpt lat="44.135563" lon="5.305161">
        <ele>1184</ele>
      </trkpt>
      <trkpt lat="44.135523" lon="5.305442">
        <ele>1186</ele>
      </trkpt>
      <trkpt lat="44.135483" lon="5.305723">
        <ele>1188</ele>
      </trkpt>
      <trkpt lat="44.135533" lon="5.306012">
        <ele>1190</ele>
      </trkpt>
      <trkpt lat="44.135583" lon="5.306302">
        <ele>1192</ele>
      </trkpt>
      <trkpt lat="44.13566" lon="5.306506">
        <ele>1194</ele>
      </trkpt>
      <trkpt lat="44.135737" lon="5.30671">
        <ele>1196</ele>
      </trkpt>
      <trkpt lat="44.135814" lon="5.306914">
        <ele>1198</ele>
      </trkpt>
      <trkpt lat="44.135949" lon="5.307139">
        <ele>1200</ele>
      </trkpt>
      <trkpt lat="44.136084" lon="5.307364">
        <ele>1202</ele>
      </trkpt>
      <trkpt lat="44.136217" lon="5.307543">
        <ele>1204</ele>
      </trkpt>
      <trkpt lat="44.136351" lon="5.307722">
        <ele>1205</ele>
      </trkpt>
      <trkpt lat="44.136484" lon="5.307901">
        <ele>1207</ele>
      </trkpt>
      <trkpt lat="44.136619" lon="5.30807">
        <ele>1209</ele>
      </trkpt>
      <trkpt lat="44.136754" lon="5.308239">
        <ele>1211</ele>
      </trkpt>
      <trkpt lat="44.136888" lon="5.308408">
        <ele>1212</ele>
      </trkpt>
      <trkpt lat="44.137023" lon="5.308577">
        <ele>1214</ele>
      </trkpt>
      <trkpt lat="44.137156" lon="5.308767">
        <ele>1215</ele>
      </trkpt>
      <trkpt lat="44.137289" lon="5.308957">
        <ele>1217</ele>
      </trkpt>
      <trkpt lat="44.137422" lon="5.309148">
        <ele>1219</ele>
      </trkpt>
      <trkpt lat="44.137555" lon="5.309338">
        <ele>1220</ele>
      </trkpt>
      <trkpt lat="44.137635" lon="5.309546">
        <ele>1222</ele>
      </trkpt>
      <trkpt lat="44.137729" lon="5.309802">
        <ele>1224</ele>
      </trkpt>
      <trkpt lat="44.137822" lon="5.310057">
        <ele>1226</ele>
      </trkpt>
      <trkpt lat="44.137915" lon="5.310313">
        <ele>1228</ele>
      </trkpt>
      <trkpt lat="44.138008" lon="5.310568">
        <ele>1230</ele>
      </trkpt>
      <trkpt lat="44.138101" lon="5.310823">
        <ele>1232</ele>
      </trkpt>
      <trkpt lat="44.138163" lon="5.311124">
        <ele>1234</ele>
      </trkpt>
      <trkpt lat="44.138154" lon="5.311351">
        <ele>1236</ele>
      </trkpt>
      <trkpt lat="44.138145" lon="5.311578">
        <ele>1237</ele>
      </trkpt>
      <trkpt lat="44.138136" lon="5.311797">
        <ele>1238</ele>
      </trkpt>
      <trkpt lat="44.138136" lon="5.311805">
        <ele>1239</ele>
      </trkpt>
      <trkpt lat="44.138188" lon="5.311944">
        <ele>1240</ele>
      </trkpt>
      <trkpt lat="44.13824" lon="5.312084">
        <ele>1241</ele>
      </trkpt>
      <trkpt lat="44.138295" lon="5.312302">
        <ele>1243</ele>
      </trkpt>
      <trkpt lat="44.13835" lon="5.31252">
        <ele>1244</ele>
      </trkpt>
      <trkpt lat="44.138405" lon="5.312738">
        <ele>1246</ele>
      </trkpt>
      <trkpt lat="44.138425" lon="5.312961">
        <ele>1248</ele>
      </trkpt>
      <trkpt lat="44.138444" lon="5.313184">
        <ele>1250</ele>
      </trkpt>
      <trkpt lat="44.138495" lon="5.313432">
        <ele>1252</ele>
      </trkpt>
      <trkpt lat="44.138547" lon="5.313681">
        <ele>1253</ele>
      </trkpt>
      <trkpt lat="44.138598" lon="5.313929">
        <ele>1255</ele>
      </trkpt>
      <trkpt lat="44.138693" lon="5.314147">
        <ele>1258</ele>
      </trkpt>
      <trkpt lat="44.138788" lon="5.314366">
        <ele>1260</ele>
      </trkpt>
      <trkpt lat="44.138883" lon="5.314584">
        <ele>1261</ele>
      </trkpt>
      <trkpt lat="44.138996" lon="5.314763">
        <ele>1263</ele>
      </trkpt>
      <trkpt lat="44.13911" lon="5.314943">
        <ele>1265</ele>
      </trkpt>
      <trkpt lat="44.139223" lon="5.315123">
        <ele>1267</ele>
      </trkpt>
      <trkpt lat="44.139337" lon="5.315302">
        <ele>1268</ele>
      </trkpt>
      <trkpt lat="44.139463" lon="5.315495">
        <ele>1270</ele>
      </trkpt>
      <trkpt lat="44.13959" lon="5.315687">
        <ele>1271</ele>
      </trkpt>
      <trkpt lat="44.139716" lon="5.315879">
        <ele>1273</ele>
      </trkpt>
      <trkpt lat="44.139842" lon="5.316071">
        <ele>1275</ele>
      </trkpt>
      <trkpt lat="44.139968" lon="5.316263">
        <ele>1277</ele>
      </trkpt>
      <trkpt lat="44.140118" lon="5.316454">
        <ele>1280</ele>
      </trkpt>
      <trkpt lat="44.140269" lon="5.316646">
        <ele>1282</ele>
      </trkpt>
      <trkpt lat="44.140419" lon="5.316838">
        <ele>1285</ele>
      </trkpt>
      <trkpt lat="44.140569" lon="5.31703">
        <ele>1287</ele>
      </trkpt>
      <trkpt lat="44.140716" lon="5.317261">
        <ele>1289</ele>
      </trkpt>
      <trkpt lat="44.140864" lon="5.317491">
        <ele>1292</ele>
      </trkpt>
      <trkpt lat="44.141012" lon="5.317722">
        <ele>1294</ele>
      </trkpt>
      <trkpt lat="44.141125" lon="5.317877">
        <ele>1296</ele>
      </trkpt>
      <trkpt lat="44.141239" lon="5.318033">
        <ele>1298</ele>
      </trkpt>
      <trkpt lat="44.141397" lon="5.318172">
        <ele>1300</ele>
      </trkpt>
      <trkpt lat="44.141554" lon="5.318312">
        <ele>1302</ele>
      </trkpt>
      <trkpt lat="44.141712" lon="5.318451">
        <ele>1304</ele>
      </trkpt>
      <trkpt lat="44.141828" lon="5.3185">
        <ele>1305</ele>
      </trkpt>
      <trkpt lat="44.141947" lon="5.318462">
        <ele>1307</ele>
      </trkpt>
      <trkpt lat="44.142066" lon="5.318425">
        <ele>1308</ele>
      </trkpt>
      <trkpt lat="44.142195" lon="5.318414">
        <ele>1309</ele>
      </trkpt>
      <trkpt lat="44.142324" lon="5.318403">
        <ele>1310</ele>
      </trkpt>
      <trkpt lat="44.142463" lon="5.318478">
        <ele>1312</ele>
      </trkpt>
      <trkpt lat="44.142602" lon="5.318553">
        <ele>1313</ele>
      </trkpt>
      <trkpt lat="44.142698" lon="5.318564">
        <ele>1315</ele>
      </trkpt>
      <trkpt lat="44.142798" lon="5.318548">
        <ele>1317</ele>
      </trkpt>
      <trkpt lat="44.142975" lon="5.318425">
        <ele>1318</ele>
      </trkpt>
      <trkpt lat="44.143129" lon="5.318288">
        <ele>1320</ele>
      </trkpt>
      <trkpt lat="44.143283" lon="5.318151">
        <ele>1322</ele>
      </trkpt>
      <trkpt lat="44.1434" lon="5.318092">
        <ele>1324</ele>
      </trkpt>
      <trkpt lat="44.143518" lon="5.318033">
        <ele>1326</ele>
      </trkpt>
      <trkpt lat="44.143668" lon="5.317829">
        <ele>1328</ele>
      </trkpt>
      <trkpt lat="44.14381" lon="5.317698">
        <ele>1330</ele>
      </trkpt>
      <trkpt lat="44.143953" lon="5.317566">
        <ele>1332</ele>
      </trkpt>
      <trkpt lat="44.14406" lon="5.317505">
        <ele>1333</ele>
      </trkpt>
      <trkpt lat="44.144168" lon="5.317443">
        <ele>1335</ele>
      </trkpt>
      <trkpt lat="44.144343" lon="5.317416">
        <ele>1336</ele>
      </trkpt>
      <trkpt lat="44.144519" lon="5.317389">
        <ele>1338</ele>
      </trkpt>
      <trkpt lat="44.144711" lon="5.317389">
        <ele>1340</ele>
      </trkpt>
      <trkpt lat="44.144894" lon="5.317432">
        <ele>1343</ele>
      </trkpt>
      <trkpt lat="44.145077" lon="5.317475">
        <ele>1345</ele>
      </trkpt>
      <trkpt lat="44.145264" lon="5.31752">
        <ele>1347</ele>
      </trkpt>
      <trkpt lat="44.145451" lon="5.317564">
        <ele>1349</ele>
      </trkpt>
      <trkpt lat="44.145639" lon="5.317609">
        <ele>1351</ele>
      </trkpt>
      <trkpt lat="44.1458" lon="5.317695">
        <ele>1352</ele>
      </trkpt>
      <trkpt lat="44.14587" lon="5.317679">
        <ele>1353</ele>
      </trkpt>
      <trkpt lat="44.145897" lon="5.317588">
        <ele>1354</ele>
      </trkpt>
      <trkpt lat="44.145885" lon="5.317486">
        <ele>1355</ele>
      </trkpt>
      <trkpt lat="44.14575" lon="5.317246">
        <ele>1356</ele>
      </trkpt>
      <trkpt lat="44.145616" lon="5.317007">
        <ele>1356</ele>
      </trkpt>
      <trkpt lat="44.145481" lon="5.316767">
        <ele>1357</ele>
      </trkpt>
      <trkpt lat="44.145454" lon="5.316579">
        <ele>1358</ele>
      </trkpt>
      <trkpt lat="44.145465" lon="5.316445">
        <ele>1360</ele>
      </trkpt>
      <trkpt lat="44.1456" lon="5.316198">
        <ele>1361</ele>
      </trkpt>
      <trkpt lat="44.145735" lon="5.315952">
        <ele>1362</ele>
      </trkpt>
      <trkpt lat="44.145847" lon="5.315733">
        <ele>1363</ele>
      </trkpt>
      <trkpt lat="44.145958" lon="5.315515">
        <ele>1363</ele>
      </trkpt>
      <trkpt lat="44.14607" lon="5.315297">
        <ele>1364</ele>
      </trkpt>
      <trkpt lat="44.146224" lon="5.315238">
        <ele>1365</ele>
      </trkpt>
      <trkpt lat="44.146271" lon="5.315227">
        <ele>1365</ele>
      </trkpt>
      <trkpt lat="44.146324" lon="5.315235">
        <ele>1366</ele>
      </trkpt>
      <trkpt lat="44.146377" lon="5.315243">
        <ele>1366</ele>
      </trkpt>
      <trkpt lat="44.146429" lon="5.315255">
        <ele>1367</ele>
      </trkpt>
      <trkpt lat="44.146481" lon="5.315265">
        <ele>1368</ele>
      </trkpt>
      <trkpt lat="44.146654" lon="5.315325">
        <ele>1369</ele>
      </trkpt>
      <trkpt lat="44.146828" lon="5.315386">
        <ele>1371</ele>
      </trkpt>
      <trkpt lat="44.147001" lon="5.315446">
        <ele>1373</ele>
      </trkpt>
      <trkpt lat="44.14714" lon="5.315561">
        <ele>1374</ele>
      </trkpt>
      <trkpt lat="44.147227" lon="5.315675">
        <ele>1376</ele>
      </trkpt>
      <trkpt lat="44.147313" lon="5.31579">
        <ele>1377</ele>
      </trkpt>
      <trkpt lat="44.147423" lon="5.31589">
        <ele>1379</ele>
      </trkpt>
      <trkpt lat="44.147533" lon="5.31599">
        <ele>1381</ele>
      </trkpt>
      <trkpt lat="44.147743" lon="5.316068">
        <ele>1382</ele>
      </trkpt>
      <trkpt lat="44.147953" lon="5.316146">
        <ele>1384</ele>
      </trkpt>
      <trkpt lat="44.148164" lon="5.316224">
        <ele>1386</ele>
      </trkpt>
      <trkpt lat="44.148322" lon="5.316319">
        <ele>1387</ele>
      </trkpt>
      <trkpt lat="44.148479" lon="5.316413">
        <ele>1389</ele>
      </trkpt>
      <trkpt lat="44.148637" lon="5.316507">
        <ele>1391</ele>
      </trkpt>
      <trkpt lat="44.148795" lon="5.316602">
        <ele>1393</ele>
      </trkpt>
      <trkpt lat="44.148989" lon="5.316735">
        <ele>1395</ele>
      </trkpt>
      <trkpt lat="44.149182" lon="5.316869">
        <ele>1397</ele>
      </trkpt>
      <trkpt lat="44.149375" lon="5.317002">
        <ele>1399</ele>
      </trkpt>
      <trkpt lat="44.149569" lon="5.317136">
        <ele>1401</ele>
      </trkpt>
      <trkpt lat="44.14975" lon="5.317249">
        <ele>1402</ele>
      </trkpt>
      <trkpt lat="44.149931" lon="5.317362">
        <ele>1404</ele>
      </trkpt>
      <trkpt lat="44.150112" lon="5.317475">
        <ele>1405</ele>
      </trkpt>
      <trkpt lat="44.150318" lon="5.317569">
        <ele>1406</ele>
      </trkpt>
      <trkpt lat="44.150525" lon="5.317664">
        <ele>1407</ele>
      </trkpt>
      <trkpt lat="44.150731" lon="5.317758">
        <ele>1408</ele>
      </trkpt>
      <trkpt lat="44.150906" lon="5.317892">
        <ele>1409</ele>
      </trkpt>
      <trkpt lat="44.151081" lon="5.318027">
        <ele>1410</ele>
      </trkpt>
      <trkpt lat="44.151237" lon="5.318172">
        <ele>1411</ele>
      </trkpt>
      <trkpt lat="44.151392" lon="5.318317">
        <ele>1412</ele>
      </trkpt>
      <trkpt lat="44.151547" lon="5.318462">
        <ele>1413</ele>
      </trkpt>
      <trkpt lat="44.15167" lon="5.318582">
        <ele>1415</ele>
      </trkpt>
      <trkpt lat="44.151794" lon="5.318702">
        <ele>1416</ele>
      </trkpt>
      <trkpt lat="44.151917" lon="5.318822">
        <ele>1417</ele>
      </trkpt>
      <trkpt lat="44.15202" lon="5.318873">
        <ele>1417</ele>
      </trkpt>
      <trkpt lat="44.152046" lon="5.31886">
        <ele>1418</ele>
      </trkpt>
      <trkpt lat="44.15208" lon="5.318842">
        <ele>1419</ele>
      </trkpt>
      <trkpt lat="44.152122" lon="5.318813">
        <ele>1419</ele>
      </trkpt>
      <trkpt lat="44.152168" lon="5.318768">
        <ele>1420</ele>
      </trkpt>
      <trkpt lat="44.152208" lon="5.31871">
        <ele>1421</ele>
      </trkpt>
      <trkpt lat="44.152231" lon="5.318639">
        <ele>1421</ele>
      </trkpt>
      <trkpt lat="44.152239" lon="5.318575">
        <ele>1422</ele>
      </trkpt>
      <trkpt lat="44.152242" lon="5.318537">
        <ele>1423</ele>
      </trkpt>
      <trkpt lat="44.15224" lon="5.318475">
        <ele>1423</ele>
      </trkpt>
      <trkpt lat="44.152228" lon="5.318409">
        <ele>1424</ele>
      </trkpt>
      <trkpt lat="44.152225" lon="5.318383">
        <ele>1424</ele>
      </trkpt>
      <trkpt lat="44.152225" lon="5.318376">
        <ele>1425</ele>
      </trkpt>
      <trkpt lat="44.152207" lon="5.318309">
        <ele>1425</ele>
      </trkpt>
      <trkpt lat="44.152206" lon="5.318305">
        <ele>1426</ele>
      </trkpt>
      <trkpt lat="44.152188" lon="5.318237">
        <ele>1427</ele>
      </trkpt>
      <trkpt lat="44.152174" lon="5.31819">
        <ele>1427</ele>
      </trkpt>
      <trkpt lat="44.152127" lon="5.31806">
        <ele>1428</ele>
      </trkpt>
      <trkpt lat="44.152089" lon="5.317927">
        <ele>1428</ele>
      </trkpt>
      <trkpt lat="44.152045" lon="5.317773">
        <ele>1429</ele>
      </trkpt>
      <trkpt lat="44.151975" lon="5.317523">
        <ele>1430</ele>
      </trkpt>
      <trkpt lat="44.151933" lon="5.317376">
        <ele>1430</ele>
      </trkpt>
      <trkpt lat="44.151889" lon="5.317238">
        <ele>1431</ele>
      </trkpt>
      <trkpt lat="44.151833" lon="5.317103">
        <ele>1432</ele>
      </trkpt>
      <trkpt lat="44.151778" lon="5.316965">
        <ele>1432</ele>
      </trkpt>
      <trkpt lat="44.15173" lon="5.316837">
        <ele>1433</ele>
      </trkpt>
      <trkpt lat="44.151675" lon="5.316717">
        <ele>1434</ele>
      </trkpt>
      <trkpt lat="44.15163" lon="5.316597">
        <ele>1435</ele>
      </trkpt>
      <trkpt lat="44.151607" lon="5.316537">
        <ele>1436</ele>
      </trkpt>
      <trkpt lat="44.151583" lon="5.316475">
        <ele>1436</ele>
      </trkpt>
      <trkpt lat="44.15155" lon="5.316363">
        <ele>1437</ele>
      </trkpt>
      <trkpt lat="44.151518" lon="5.316236">
        <ele>1437</ele>
      </trkpt>
      <trkpt lat="44.151517" lon="5.316235">
        <ele>1438</ele>
      </trkpt>
      <trkpt lat="44.151483" lon="5.316102">
        <ele>1438</ele>
      </trkpt>
      <trkpt lat="44.151445" lon="5.31595">
        <ele>1438</ele>
      </trkpt>
      <trkpt lat="44.151401" lon="5.315789">
        <ele>1439</ele>
      </trkpt>
      <trkpt lat="44.151396" lon="5.315772">
        <ele>1439</ele>
      </trkpt>
      <trkpt lat="44.151354" lon="5.315605">
        <ele>1440</ele>
      </trkpt>
      <trkpt lat="44.151311" lon="5.315438">
        <ele>1440</ele>
      </trkpt>
      <trkpt lat="44.151301" lon="5.315387">
        <ele>1441</ele>
      </trkpt>
      <trkpt lat="44.151283" lon="5.315288">
        <ele>1441</ele>
      </trkpt>
      <trkpt lat="44.151283" lon="5.315288">
        <ele>1442</ele>
      </trkpt>
      <trkpt lat="44.151257" lon="5.315153">
        <ele>1443</ele>
      </trkpt>
      <trkpt lat="44.151234" lon="5.315057">
        <ele>1443</ele>
      </trkpt>
      <trkpt lat="44.15123" lon="5.315044">
        <ele>1444</ele>
      </trkpt>
      <trkpt lat="44.151184" lon="5.314948">
        <ele>1444</ele>
      </trkpt>
      <trkpt lat="44.151166" lon="5.314905">
        <ele>1445</ele>
      </trkpt>
      <trkpt lat="44.151126" lon="5.31482">
        <ele>1445</ele>
      </trkpt>
      <trkpt lat="44.151078" lon="5.314745">
        <ele>1445</ele>
      </trkpt>
      <trkpt lat="44.151072" lon="5.314737">
        <ele>1445</ele>
      </trkpt>
      <trkpt lat="44.151028" lon="5.314676">
        <ele>1445</ele>
      </trkpt>
      <trkpt lat="44.151006" lon="5.314638">
        <ele>1445</ele>
      </trkpt>
      <trkpt lat="44.150982" lon="5.314596">
        <ele>1445</ele>
      </trkpt>
      <trkpt lat="44.150977" lon="5.314584">
        <ele>1445</ele>
      </trkpt>
      <trkpt lat="44.150945" lon="5.314499">
        <ele>1446</ele>
      </trkpt>
      <trkpt lat="44.150924" lon="5.314385">
        <ele>1446</ele>
      </trkpt>
      <trkpt lat="44.15092" lon="5.314339">
        <ele>1447</ele>
      </trkpt>
      <trkpt lat="44.15092" lon="5.314236">
        <ele>1447</ele>
      </trkpt>
      <trkpt lat="44.15092" lon="5.31422">
        <ele>1447</ele>
      </trkpt>
      <trkpt lat="44.150922" lon="5.314216">
        <ele>1448</ele>
      </trkpt>
      <trkpt lat="44.150922" lon="5.314213">
        <ele>1448</ele>
      </trkpt>
      <trkpt lat="44.150944" lon="5.314128">
        <ele>1449</ele>
      </trkpt>
      <trkpt lat="44.150974" lon="5.314064">
        <ele>1449</ele>
      </trkpt>
      <trkpt lat="44.151106" lon="5.313855">
        <ele>1450</ele>
      </trkpt>
      <trkpt lat="44.151237" lon="5.313646">
        <ele>1452</ele>
      </trkpt>
      <trkpt lat="44.151417" lon="5.313536">
        <ele>1453</ele>
      </trkpt>
      <trkpt lat="44.151597" lon="5.313426">
        <ele>1455</ele>
      </trkpt>
      <trkpt lat="44.15174" lon="5.313456">
        <ele>1456</ele>
      </trkpt>
      <trkpt lat="44.151882" lon="5.313486">
        <ele>1458</ele>
      </trkpt>
      <trkpt lat="44.152098" lon="5.313569">
        <ele>1459</ele>
      </trkpt>
      <trkpt lat="44.152313" lon="5.313652">
        <ele>1461</ele>
      </trkpt>
      <trkpt lat="44.152529" lon="5.313735">
        <ele>1463</ele>
      </trkpt>
      <trkpt lat="44.152677" lon="5.313921">
        <ele>1465</ele>
      </trkpt>
      <trkpt lat="44.152826" lon="5.314107">
        <ele>1466</ele>
      </trkpt>
      <trkpt lat="44.152975" lon="5.314293">
        <ele>1468</ele>
      </trkpt>
      <trkpt lat="44.153124" lon="5.314382">
        <ele>1469</ele>
      </trkpt>
      <trkpt lat="44.153273" lon="5.31447">
        <ele>1471</ele>
      </trkpt>
      <trkpt lat="44.153422" lon="5.314559">
        <ele>1472</ele>
      </trkpt>
      <trkpt lat="44.153602" lon="5.314677">
        <ele>1474</ele>
      </trkpt>
      <trkpt lat="44.153783" lon="5.314795">
        <ele>1475</ele>
      </trkpt>
      <trkpt lat="44.153964" lon="5.314913">
        <ele>1477</ele>
      </trkpt>
      <trkpt lat="44.154145" lon="5.315031">
        <ele>1479</ele>
      </trkpt>
      <trkpt lat="44.154326" lon="5.315149">
        <ele>1482</ele>
      </trkpt>
      <trkpt lat="44.154507" lon="5.315267">
        <ele>1484</ele>
      </trkpt>
      <trkpt lat="44.154688" lon="5.315385">
        <ele>1486</ele>
      </trkpt>
      <trkpt lat="44.154869" lon="5.315503">
        <ele>1487</ele>
      </trkpt>
      <trkpt lat="44.155" lon="5.315398">
        <ele>1488</ele>
      </trkpt>
      <trkpt lat="44.154992" lon="5.31516">
        <ele>1489</ele>
      </trkpt>
      <trkpt lat="44.1549" lon="5.314945">
        <ele>1490</ele>
      </trkpt>
      <trkpt lat="44.154807" lon="5.314731">
        <ele>1491</ele>
      </trkpt>
      <trkpt lat="44.154813" lon="5.314431">
        <ele>1492</ele>
      </trkpt>
      <trkpt lat="44.154819" lon="5.314131">
        <ele>1493</ele>
      </trkpt>
      <trkpt lat="44.154826" lon="5.313831">
        <ele>1494</ele>
      </trkpt>
      <trkpt lat="44.154832" lon="5.313531">
        <ele>1495</ele>
      </trkpt>
      <trkpt lat="44.154838" lon="5.313231">
        <ele>1496</ele>
      </trkpt>
      <trkpt lat="44.154884" lon="5.312994">
        <ele>1497</ele>
      </trkpt>
      <trkpt lat="44.15493" lon="5.312758">
        <ele>1498</ele>
      </trkpt>
      <trkpt lat="44.154977" lon="5.312521">
        <ele>1499</ele>
      </trkpt>
      <trkpt lat="44.155023" lon="5.312284">
        <ele>1499</ele>
      </trkpt>
      <trkpt lat="44.155146" lon="5.312232">
        <ele>1500</ele>
      </trkpt>
      <trkpt lat="44.155269" lon="5.312179">
        <ele>1500</ele>
      </trkpt>
      <trkpt lat="44.155419" lon="5.312233">
        <ele>1501</ele>
      </trkpt>
      <trkpt lat="44.155569" lon="5.312287">
        <ele>1501</ele>
      </trkpt>
      <trkpt lat="44.155764" lon="5.312399">
        <ele>1502</ele>
      </trkpt>
      <trkpt lat="44.155959" lon="5.312512">
        <ele>1503</ele>
      </trkpt>
      <trkpt lat="44.156153" lon="5.312625">
        <ele>1504</ele>
      </trkpt>
      <trkpt lat="44.156348" lon="5.312737">
        <ele>1505</ele>
      </trkpt>
      <trkpt lat="44.156543" lon="5.31285">
        <ele>1507</ele>
      </trkpt>
      <trkpt lat="44.156738" lon="5.312963">
        <ele>1508</ele>
      </trkpt>
      <trkpt lat="44.156932" lon="5.313075">
        <ele>1510</ele>
      </trkpt>
      <trkpt lat="44.157127" lon="5.313188">
        <ele>1512</ele>
      </trkpt>
      <trkpt lat="44.157322" lon="5.3133">
        <ele>1514</ele>
      </trkpt>
      <trkpt lat="44.157517" lon="5.313413">
        <ele>1516</ele>
      </trkpt>
      <trkpt lat="44.157686" lon="5.313445">
        <ele>1517</ele>
      </trkpt>
      <trkpt lat="44.157825" lon="5.313229">
        <ele>1519</ele>
      </trkpt>
      <trkpt lat="44.157817" lon="5.312958">
        <ele>1520</ele>
      </trkpt>
      <trkpt lat="44.157809" lon="5.312686">
        <ele>1521</ele>
      </trkpt>
      <trkpt lat="44.157801" lon="5.312415">
        <ele>1523</ele>
      </trkpt>
      <trkpt lat="44.157778" lon="5.31226">
        <ele>1524</ele>
      </trkpt>
      <trkpt lat="44.157755" lon="5.312104">
        <ele>1525</ele>
      </trkpt>
      <trkpt lat="44.157701" lon="5.311943">
        <ele>1526</ele>
      </trkpt>
      <trkpt lat="44.157647" lon="5.311782">
        <ele>1527</ele>
      </trkpt>
      <trkpt lat="44.157586" lon="5.311589">
        <ele>1529</ele>
      </trkpt>
      <trkpt lat="44.157524" lon="5.311396">
        <ele>1530</ele>
      </trkpt>
      <trkpt lat="44.157463" lon="5.311203">
        <ele>1532</ele>
      </trkpt>
      <trkpt lat="44.157444" lon="5.310907">
        <ele>1534</ele>
      </trkpt>
      <trkpt lat="44.157424" lon="5.310611">
        <ele>1536</ele>
      </trkpt>
      <trkpt lat="44.157463" lon="5.310343">
        <ele>1537</ele>
      </trkpt>
      <trkpt lat="44.157501" lon="5.310074">
        <ele>1539</ele>
      </trkpt>
      <trkpt lat="44.15754" lon="5.309806">
        <ele>1540</ele>
      </trkpt>
      <trkpt lat="44.157578" lon="5.309538">
        <ele>1541</ele>
      </trkpt>
      <trkpt lat="44.157659" lon="5.309281">
        <ele>1542</ele>
      </trkpt>
      <trkpt lat="44.15774" lon="5.309025">
        <ele>1544</ele>
      </trkpt>
      <trkpt lat="44.157882" lon="5.308816">
        <ele>1545</ele>
      </trkpt>
      <trkpt lat="44.158025" lon="5.308607">
        <ele>1547</ele>
      </trkpt>
      <trkpt lat="44.158209" lon="5.30844">
        <ele>1548</ele>
      </trkpt>
      <trkpt lat="44.158394" lon="5.308274">
        <ele>1550</ele>
      </trkpt>
      <trkpt lat="44.158548" lon="5.308228">
        <ele>1551</ele>
      </trkpt>
      <trkpt lat="44.158702" lon="5.308181">
        <ele>1553</ele>
      </trkpt>
      <trkpt lat="44.158856" lon="5.308135">
        <ele>1554</ele>
      </trkpt>
      <trkpt lat="44.159056" lon="5.30813">
        <ele>1555</ele>
      </trkpt>
      <trkpt lat="44.159256" lon="5.308126">
        <ele>1556</ele>
      </trkpt>
      <trkpt lat="44.159456" lon="5.308122">
        <ele>1558</ele>
      </trkpt>
      <trkpt lat="44.159651" lon="5.308141">
        <ele>1559</ele>
      </trkpt>
      <trkpt lat="44.159845" lon="5.30816">
        <ele>1561</ele>
      </trkpt>
      <trkpt lat="44.160039" lon="5.30818">
        <ele>1563</ele>
      </trkpt>
      <trkpt lat="44.160234" lon="5.308199">
        <ele>1565</ele>
      </trkpt>
      <trkpt lat="44.160295" lon="5.308006">
        <ele>1566</ele>
      </trkpt>
      <trkpt lat="44.160264" lon="5.307781">
        <ele>1568</ele>
      </trkpt>
      <trkpt lat="44.16018" lon="5.307594">
        <ele>1569</ele>
      </trkpt>
      <trkpt lat="44.160095" lon="5.307407">
        <ele>1570</ele>
      </trkpt>
      <trkpt lat="44.16001" lon="5.30722">
        <ele>1571</ele>
      </trkpt>
      <trkpt lat="44.159938" lon="5.306933">
        <ele>1573</ele>
      </trkpt>
      <trkpt lat="44.159866" lon="5.306646">
        <ele>1574</ele>
      </trkpt>
      <trkpt lat="44.159793" lon="5.306359">
        <ele>1576</ele>
      </trkpt>
      <trkpt lat="44.159721" lon="5.306072">
        <ele>1577</ele>
      </trkpt>
      <trkpt lat="44.159649" lon="5.305785">
        <ele>1579</ele>
      </trkpt>
      <trkpt lat="44.159637" lon="5.305533">
        <ele>1580</ele>
      </trkpt>
      <trkpt lat="44.159626" lon="5.305281">
        <ele>1582</ele>
      </trkpt>
      <trkpt lat="44.159679" lon="5.305006">
        <ele>1584</ele>
      </trkpt>
      <trkpt lat="44.159733" lon="5.304731">
        <ele>1586</ele>
      </trkpt>
      <trkpt lat="44.159798" lon="5.304446">
        <ele>1588</ele>
      </trkpt>
      <trkpt lat="44.159862" lon="5.30416">
        <ele>1590</ele>
      </trkpt>
      <trkpt lat="44.159926" lon="5.303874">
        <ele>1592</ele>
      </trkpt>
      <trkpt lat="44.15999" lon="5.303588">
        <ele>1593</ele>
      </trkpt>
      <trkpt lat="44.160054" lon="5.303303">
        <ele>1595</ele>
      </trkpt>
      <trkpt lat="44.160118" lon="5.303017">
        <ele>1596</ele>
      </trkpt>
      <trkpt lat="44.160208" lon="5.302788">
        <ele>1598</ele>
      </trkpt>
      <trkpt lat="44.160298" lon="5.302558">
        <ele>1599</ele>
      </trkpt>
      <trkpt lat="44.160388" lon="5.302329">
        <ele>1601</ele>
      </trkpt>
      <trkpt lat="44.160477" lon="5.3021">
        <ele>1603</ele>
      </trkpt>
      <trkpt lat="44.160567" lon="5.301871">
        <ele>1605</ele>
      </trkpt>
      <trkpt lat="44.160657" lon="5.301641">
        <ele>1606</ele>
      </trkpt>
      <trkpt lat="44.160811" lon="5.301427">
        <ele>1608</ele>
      </trkpt>
      <trkpt lat="44.160965" lon="5.301212">
        <ele>1610</ele>
      </trkpt>
      <trkpt lat="44.161119" lon="5.300998">
        <ele>1611</ele>
      </trkpt>
      <trkpt lat="44.161304" lon="5.300898">
        <ele>1613</ele>
      </trkpt>
      <trkpt lat="44.161488" lon="5.300797">
        <ele>1614</ele>
      </trkpt>
      <trkpt lat="44.161673" lon="5.300697">
        <ele>1615</ele>
      </trkpt>
      <trkpt lat="44.161842" lon="5.300783">
        <ele>1616</ele>
      </trkpt>
      <trkpt lat="44.162012" lon="5.300869">
        <ele>1618</ele>
      </trkpt>
      <trkpt lat="44.162132" lon="5.301131">
        <ele>1619</ele>
      </trkpt>
      <trkpt lat="44.162253" lon="5.301393">
        <ele>1621</ele>
      </trkpt>
      <trkpt lat="44.162373" lon="5.301654">
        <ele>1623</ele>
      </trkpt>
      <trkpt lat="44.162499" lon="5.301894">
        <ele>1626</ele>
      </trkpt>
      <trkpt lat="44.162625" lon="5.302134">
        <ele>1628</ele>
      </trkpt>
      <trkpt lat="44.16275" lon="5.302373">
        <ele>1630</ele>
      </trkpt>
      <trkpt lat="44.162874" lon="5.302436">
        <ele>1632</ele>
      </trkpt>
      <trkpt lat="44.162997" lon="5.3025">
        <ele>1633</ele>
      </trkpt>
      <trkpt lat="44.163128" lon="5.302479">
        <ele>1634</ele>
      </trkpt>
      <trkpt lat="44.163258" lon="5.302459">
        <ele>1635</ele>
      </trkpt>
      <trkpt lat="44.163389" lon="5.302372">
        <ele>1636</ele>
      </trkpt>
      <trkpt lat="44.16352" lon="5.302285">
        <ele>1637</ele>
      </trkpt>
      <trkpt lat="44.163686" lon="5.302125">
        <ele>1639</ele>
      </trkpt>
      <trkpt lat="44.163851" lon="5.301965">
        <ele>1640</ele>
      </trkpt>
      <trkpt lat="44.163963" lon="5.301761">
        <ele>1642</ele>
      </trkpt>
      <trkpt lat="44.164074" lon="5.301556">
        <ele>1644</ele>
      </trkpt>
      <trkpt lat="44.164167" lon="5.301304">
        <ele>1646</ele>
      </trkpt>
      <trkpt lat="44.164259" lon="5.301053">
        <ele>1648</ele>
      </trkpt>
      <trkpt lat="44.164351" lon="5.300802">
        <ele>1650</ele>
      </trkpt>
      <trkpt lat="44.164444" lon="5.30055">
        <ele>1652</ele>
      </trkpt>
      <trkpt lat="44.164536" lon="5.300299">
        <ele>1653</ele>
      </trkpt>
      <trkpt lat="44.164628" lon="5.300047">
        <ele>1655</ele>
      </trkpt>
      <trkpt lat="44.164721" lon="5.299796">
        <ele>1656</ele>
      </trkpt>
      <trkpt lat="44.164803" lon="5.299582">
        <ele>1657</ele>
      </trkpt>
      <trkpt lat="44.164886" lon="5.299368">
        <ele>1658</ele>
      </trkpt>
      <trkpt lat="44.164969" lon="5.299154">
        <ele>1659</ele>
      </trkpt>
      <trkpt lat="44.165052" lon="5.29894">
        <ele>1661</ele>
      </trkpt>
      <trkpt lat="44.165121" lon="5.298675">
        <ele>1662</ele>
      </trkpt>
      <trkpt lat="44.16519" lon="5.298411">
        <ele>1664</ele>
      </trkpt>
      <trkpt lat="44.165259" lon="5.298146">
        <ele>1666</ele>
      </trkpt>
      <trkpt lat="44.165313" lon="5.297846">
        <ele>1667</ele>
      </trkpt>
      <trkpt lat="44.165367" lon="5.297545">
        <ele>1669</ele>
      </trkpt>
      <trkpt lat="44.165471" lon="5.297298">
        <ele>1670</ele>
      </trkpt>
      <trkpt lat="44.165575" lon="5.297052">
        <ele>1672</ele>
      </trkpt>
      <trkpt lat="44.165752" lon="5.296922">
        <ele>1674</ele>
      </trkpt>
      <trkpt lat="44.165929" lon="5.296793">
        <ele>1676</ele>
      </trkpt>
      <trkpt lat="44.166106" lon="5.296663">
        <ele>1678</ele>
      </trkpt>
      <trkpt lat="44.166271" lon="5.296559">
        <ele>1680</ele>
      </trkpt>
      <trkpt lat="44.166435" lon="5.296454">
        <ele>1682</ele>
      </trkpt>
      <trkpt lat="44.1666" lon="5.296349">
        <ele>1684</ele>
      </trkpt>
      <trkpt lat="44.166765" lon="5.296244">
        <ele>1686</ele>
      </trkpt>
      <trkpt lat="44.16693" lon="5.29614">
        <ele>1687</ele>
      </trkpt>
      <trkpt lat="44.167086" lon="5.295971">
        <ele>1689</ele>
      </trkpt>
      <trkpt lat="44.167242" lon="5.295802">
        <ele>1691</ele>
      </trkpt>
      <trkpt lat="44.167399" lon="5.295633">
        <ele>1692</ele>
      </trkpt>
      <trkpt lat="44.167504" lon="5.295462">
        <ele>1694</ele>
      </trkpt>
      <trkpt lat="44.167609" lon="5.295291">
        <ele>1696</ele>
      </trkpt>
      <trkpt lat="44.167714" lon="5.29512">
        <ele>1697</ele>
      </trkpt>
      <trkpt lat="44.167664" lon="5.294883">
        <ele>1699</ele>
      </trkpt>
      <trkpt lat="44.167614" lon="5.294646">
        <ele>1700</ele>
      </trkpt>
      <trkpt lat="44.167489" lon="5.294389">
        <ele>1702</ele>
      </trkpt>
      <trkpt lat="44.167363" lon="5.294133">
        <ele>1703</ele>
      </trkpt>
      <trkpt lat="44.167237" lon="5.293876">
        <ele>1705</ele>
      </trkpt>
      <trkpt lat="44.167153" lon="5.293645">
        <ele>1706</ele>
      </trkpt>
      <trkpt lat="44.167068" lon="5.293415">
        <ele>1708</ele>
      </trkpt>
      <trkpt lat="44.167064" lon="5.293162">
        <ele>1709</ele>
      </trkpt>
      <trkpt lat="44.16706" lon="5.29291">
        <ele>1711</ele>
      </trkpt>
      <trkpt lat="44.167099" lon="5.29269">
        <ele>1712</ele>
      </trkpt>
      <trkpt lat="44.167137" lon="5.29247">
        <ele>1713</ele>
      </trkpt>
      <trkpt lat="44.167257" lon="5.292288">
        <ele>1714</ele>
      </trkpt>
      <trkpt lat="44.167376" lon="5.292106">
        <ele>1715</ele>
      </trkpt>
      <trkpt lat="44.167484" lon="5.291993">
        <ele>1716</ele>
      </trkpt>
      <trkpt lat="44.167591" lon="5.29188">
        <ele>1718</ele>
      </trkpt>
      <trkpt lat="44.167749" lon="5.291827">
        <ele>1720</ele>
      </trkpt>
      <trkpt lat="44.167907" lon="5.291773">
        <ele>1722</ele>
      </trkpt>
      <trkpt lat="44.168114" lon="5.291687">
        <ele>1724</ele>
      </trkpt>
      <trkpt lat="44.168321" lon="5.291602">
        <ele>1727</ele>
      </trkpt>
      <trkpt lat="44.168528" lon="5.291516">
        <ele>1729</ele>
      </trkpt>
      <trkpt lat="44.168735" lon="5.291431">
        <ele>1732</ele>
      </trkpt>
      <trkpt lat="44.168942" lon="5.291345">
        <ele>1734</ele>
      </trkpt>
      <trkpt lat="44.169129" lon="5.291265">
        <ele>1737</ele>
      </trkpt>
      <trkpt lat="44.169315" lon="5.291184">
        <ele>1739</ele>
      </trkpt>
      <trkpt lat="44.169419" lon="5.291109">
        <ele>1741</ele>
      </trkpt>
      <trkpt lat="44.169461" lon="5.291012">
        <ele>1743</ele>
      </trkpt>
      <trkpt lat="44.169442" lon="5.29083">
        <ele>1744</ele>
      </trkpt>
      <trkpt lat="44.169377" lon="5.290701">
        <ele>1745</ele>
      </trkpt>
      <trkpt lat="44.169261" lon="5.290562">
        <ele>1746</ele>
      </trkpt>
      <trkpt lat="44.169146" lon="5.290422">
        <ele>1746</ele>
      </trkpt>
      <trkpt lat="44.16899" lon="5.290245">
        <ele>1747</ele>
      </trkpt>
      <trkpt lat="44.168834" lon="5.290068">
        <ele>1748</ele>
      </trkpt>
      <trkpt lat="44.168753" lon="5.289931">
        <ele>1749</ele>
      </trkpt>
      <trkpt lat="44.168673" lon="5.289795">
        <ele>1750</ele>
      </trkpt>
      <trkpt lat="44.16863" lon="5.289607">
        <ele>1751</ele>
      </trkpt>
      <trkpt lat="44.168588" lon="5.289419">
        <ele>1752</ele>
      </trkpt>
      <trkpt lat="44.168605" lon="5.289172">
        <ele>1753</ele>
      </trkpt>
      <trkpt lat="44.168621" lon="5.288926">
        <ele>1755</ele>
      </trkpt>
      <trkpt lat="44.168638" lon="5.288679">
        <ele>1756</ele>
      </trkpt>
      <trkpt lat="44.168676" lon="5.288437">
        <ele>1758</ele>
      </trkpt>
      <trkpt lat="44.168715" lon="5.288196">
        <ele>1759</ele>
      </trkpt>
      <trkpt lat="44.168783" lon="5.287953">
        <ele>1761</ele>
      </trkpt>
      <trkpt lat="44.168851" lon="5.28771">
        <ele>1763</ele>
      </trkpt>
      <trkpt lat="44.168919" lon="5.287467">
        <ele>1764</ele>
      </trkpt>
      <trkpt lat="44.169015" lon="5.287207">
        <ele>1766</ele>
      </trkpt>
      <trkpt lat="44.169111" lon="5.286948">
        <ele>1767</ele>
      </trkpt>
      <trkpt lat="44.169207" lon="5.286689">
        <ele>1769</ele>
      </trkpt>
      <trkpt lat="44.169338" lon="5.286496">
        <ele>1771</ele>
      </trkpt>
      <trkpt lat="44.169469" lon="5.286302">
        <ele>1773</ele>
      </trkpt>
      <trkpt lat="44.1696" lon="5.286109">
        <ele>1775</ele>
      </trkpt>
      <trkpt lat="44.169742" lon="5.285943">
        <ele>1777</ele>
      </trkpt>
      <trkpt lat="44.169885" lon="5.285777">
        <ele>1779</ele>
      </trkpt>
      <trkpt lat="44.170013" lon="5.285666">
        <ele>1781</ele>
      </trkpt>
      <trkpt lat="44.170141" lon="5.285555">
        <ele>1783</ele>
      </trkpt>
      <trkpt lat="44.170269" lon="5.285444">
        <ele>1785</ele>
      </trkpt>
      <trkpt lat="44.170402" lon="5.285323">
        <ele>1787</ele>
      </trkpt>
      <trkpt lat="44.170534" lon="5.285201">
        <ele>1789</ele>
      </trkpt>
      <trkpt lat="44.170666" lon="5.285079">
        <ele>1791</ele>
      </trkpt>
      <trkpt lat="44.170791" lon="5.284892">
        <ele>1793</ele>
      </trkpt>
      <trkpt lat="44.170916" lon="5.284704">
        <ele>1795</ele>
      </trkpt>
      <trkpt lat="44.171074" lon="5.284538">
        <ele>1797</ele>
      </trkpt>
      <trkpt lat="44.171231" lon="5.284371">
        <ele>1798</ele>
      </trkpt>
      <trkpt lat="44.171366" lon="5.28432">
        <ele>1799</ele>
      </trkpt>
      <trkpt lat="44.171501" lon="5.284269">
        <ele>1801</ele>
      </trkpt>
      <trkpt lat="44.171685" lon="5.284245">
        <ele>1802</ele>
      </trkpt>
      <trkpt lat="44.17187" lon="5.284221">
        <ele>1804</ele>
      </trkpt>
      <trkpt lat="44.172023" lon="5.284198">
        <ele>1806</ele>
      </trkpt>
      <trkpt lat="44.172175" lon="5.284175">
        <ele>1808</ele>
      </trkpt>
      <trkpt lat="44.172328" lon="5.284151">
        <ele>1810</ele>
      </trkpt>
      <trkpt lat="44.172551" lon="5.284116">
        <ele>1811</ele>
      </trkpt>
      <trkpt lat="44.172699" lon="5.284093">
        <ele>1812</ele>
      </trkpt>
    </trkseg>
  </trk>
</gpx>
